{
  "type": "FeatureCollection",
  "features": [
    {
      "type": "Feature",
      "geometry": {
        "type": "MultiPolygon",
        "coordinates": [
          [
            [
              [
                14.840869272,
                61.195214894
              ],
              [
                14.840938111,
                61.192970567
              ],
              [
                14.845654634,
                61.190758541
              ],
              [
                14.845722641,
                61.188518696
              ],
              [
                14.842934505,
                61.188497541
              ],
              [
                14.841048079,
                61.189379641
              ],
              [
                14.832696406,
                61.188871335
              ],
              [
                14.831794496,
                61.187967966
              ],
              [
                14.822499968,
                61.187902252
              ],
              [
                14.805855941,
                61.185087391
              ],
              [
                14.783885644,
                61.174604051
              ],
              [
                14.775612241,
                61.171847924
              ],
              [
                14.772014027,
                61.168228311
              ],
              [
                14.765585704,
                61.165937008
              ],
              [
                14.763831934,
                61.162782792
              ],
              [
                14.760161608,
                61.161407245
              ],
              [
                14.75478368,
                61.155530686
              ],
              [
                14.75208825,
                61.152818999
              ],
              [
                14.748375017,
                61.152789708
              ],
              [
                14.747386547,
                61.154578922
              ],
              [
                14.745529235,
                61.15456198
              ],
              [
                14.730934122,
                61.146817329
              ],
              [
                14.71343776,
                61.142638208
              ],
              [
                14.709741021,
                61.142163491
              ],
              [
                14.707946983,
                61.140350618
              ],
              [
                14.699673272,
                61.138038613
              ],
              [
                14.693304299,
                61.134397319
              ],
              [
                14.688697173,
                61.133462094
              ],
              [
                14.687689868,
                61.135699726
              ],
              [
                14.683994221,
                61.135219817
              ],
              [
                14.674988247,
                61.127513519
              ],
              [
                14.664930411,
                61.123390544
              ],
              [
                14.664995131,
                61.121599635
              ],
              [
                14.662228996,
                61.121125913
              ],
              [
                14.663221227,
                61.119337316
              ],
              [
                14.65869811,
                61.116161308
              ],
              [
                14.655005184,
                61.115680609
              ],
              [
                14.652289239,
                61.11386014
              ],
              [
                14.650434475,
                61.113846383
              ],
              [
                14.649458189,
                61.115181552
              ],
              [
                14.653980192,
                61.118362356
              ],
              [
                14.652987469,
                61.120150885
              ],
              [
                14.655769482,
                61.120171458
              ],
              [
                14.65939771,
                61.122447531
              ],
              [
                14.661139296,
                61.125603109
              ],
              [
                14.66388956,
                61.126525701
              ],
              [
                14.663824718,
                61.128321097
              ],
              [
                14.670189072,
                61.131963868
              ],
              [
                14.666397295,
                61.134176576
              ],
              [
                14.670988323,
                61.135561411
              ],
              [
                14.67175521,
                61.140052158
              ],
              [
                14.668971435,
                61.140031913
              ],
              [
                14.661660937,
                61.136826732
              ],
              [
                14.655182319,
                61.136321098
              ],
              [
                14.647841223,
                61.134017263
              ],
              [
                14.645969282,
                61.134447804
              ],
              [
                14.642389959,
                61.130829323
              ],
              [
                14.638729091,
                61.129450488
              ],
              [
                14.637122395,
                61.122703861
              ],
              [
                14.635300575,
                61.121792204
              ],
              [
                14.636344048,
                61.118661756
              ],
              [
                14.634588964,
                61.115954706
              ],
              [
                14.637619144,
                61.109247356
              ],
              [
                14.634027007,
                61.106073003
              ],
              [
                14.635170085,
                61.100249476
              ],
              [
                14.637073067,
                61.098921385
              ],
              [
                14.63531916,
                61.096214338
              ],
              [
                14.635650652,
                61.087241781
              ],
              [
                14.632011325,
                61.08541391
              ],
              [
                14.632061199,
                61.084067368
              ],
              [
                14.626586902,
                61.081776471
              ],
              [
                14.626636846,
                61.080429929
              ],
              [
                14.621146745,
                61.078587659
              ],
              [
                14.619361313,
                61.076778091
              ],
              [
                14.620337577,
                61.075438643
              ],
              [
                14.619461947,
                61.074085011
              ],
              [
                14.615876004,
                61.070914652
              ],
              [
                14.609880404,
                61.08252833
              ],
              [
                14.618571253,
                61.097860469
              ],
              [
                14.618028007,
                61.101719356
              ],
              [
                14.616412697,
                61.10362713
              ],
              [
                14.616328678,
                61.108214548
              ],
              [
                14.616262849,
                61.10996056
              ],
              [
                14.617830726,
                61.117600643
              ],
              [
                14.619668618,
                61.118068178
              ],
              [
                14.622266174,
                61.123026811
              ],
              [
                14.623076121,
                61.126175792
              ],
              [
                14.626669027,
                61.129345939
              ],
              [
                14.632168859,
                61.131187979
              ],
              [
                14.635779844,
                61.133913527
              ],
              [
                14.638563003,
                61.133938942
              ],
              [
                14.64494286,
                61.137134052
              ],
              [
                14.641198277,
                61.137999514
              ],
              [
                14.641164817,
                61.138897203
              ],
              [
                14.649401744,
                61.142105895
              ],
              [
                14.651274243,
                61.141675309
              ],
              [
                14.656777193,
                61.143516347
              ],
              [
                14.660408166,
                61.145792388
              ],
              [
                14.664120334,
                61.145824092
              ],
              [
                14.672377688,
                61.148582539
              ],
              [
                14.672328961,
                61.149929084
              ],
              [
                14.679643721,
                61.153133775
              ],
              [
                14.681372228,
                61.156737927
              ],
              [
                14.683229676,
                61.156751262
              ],
              [
                14.685903529,
                61.159917651
              ],
              [
                14.686800465,
                61.160821991
              ],
              [
                14.690482952,
                61.161750672
              ],
              [
                14.691332743,
                61.164001531
              ],
              [
                14.695881335,
                61.166727581
              ],
              [
                14.704146882,
                61.169488664
              ],
              [
                14.705926105,
                61.171745943
              ],
              [
                14.707768602,
                61.172212281
              ],
              [
                14.717925103,
                61.174087701
              ],
              [
                14.72520341,
                61.178636391
              ],
              [
                14.737221425,
                61.180523097
              ],
              [
                14.740938368,
                61.180552697
              ],
              [
                14.740312109,
                61.171573809
              ],
              [
                14.760644952,
                61.174874728
              ],
              [
                14.766189245,
                61.175813596
              ],
              [
                14.768858735,
                61.179422713
              ],
              [
                14.771660759,
                61.178996534
              ],
              [
                14.772501912,
                61.181695739
              ],
              [
                14.782592967,
                61.185810603
              ],
              [
                14.79172815,
                61.190816611
              ],
              [
                14.808430853,
                61.191837757
              ],
              [
                14.81116314,
                61.193650586
              ],
              [
                14.814895377,
                61.193229294
              ],
              [
                14.828797974,
                61.194679491
              ],
              [
                14.832544138,
                61.193808848
              ],
              [
                14.83806674,
                61.195642503
              ],
              [
                14.840869272,
                61.195214894
              ]
            ]
          ]
        ]
      },
      "properties": {
        "lins": "bedömning ej utförd",
        "ogc_fid": 10510,
        "lins_kod": -1,
        "artesiskt": "bedömning ej utförd",
        "geom_area": 26704244.4060322,
        "geom_length": 53016.1146757632,
        "kornstorlek": "bedömning ej utförd",
        "artesiskt_kod": -1,
        "kornstorlek_kod": -1,
        "magasinsposition": "S1, magasin huvudsakligen i sedimentär berggrund, överlagras inte till någon del av annat definierat magasin i sedimentär berggrund",
        "delomradesprocess": "delområdet är karterat enligt process från 1980, länskartan serie Ah",
        "magasinsidentitet": 231810025,
        "uttagsmojligheter": "mediankapacitet i sedimentärt berg 2 000–6 000 l/h",
        "delomradeskvalitet": "varierande underlag, varierande osäkerhet",
        "delomradesidentitet": 59536,
        "magasinsposition_kod": 4,
        "delomradesprocess_kod": 3,
        "uttagsmojligheter_kod": 1013,
        "delomradeskvalitet_kod": 3,
        "unik_magasinsidentitet": "9847B405-9A64-4F0F-98BF-01698107836B",
        "unik_delomradesidentitet": "326620F3-73F4-4A06-964F-24139AD05E41"
      }
    }
  ]
}