{
  "type": "FeatureCollection",
  "features": [
    {
      "type": "Feature",
      "geometry": {
        "type": "MultiPolygon",
        "coordinates": [
          [
            [
              [
                14.840869445,
                61.195213444
              ],
              [
                14.840938079,
                61.19297025
              ],
              [
                14.843273118,
                61.191876099
              ],
              [
                14.845654369,
                61.190760182
              ],
              [
                14.845722651,
                61.188516982
              ],
              [
                14.842934245,
                61.188497181
              ],
              [
                14.841047867,
                61.189381208
              ],
              [
                14.832696285,
                61.188872667
              ],
              [
                14.831794512,
                61.187968725
              ],
              [
                14.82250004,
                61.187901541
              ],
              [
                14.805855585,
                61.185087249
              ],
              [
                14.783885512,
                61.174602112
              ],
              [
                14.775612002,
                61.171846989
              ],
              [
                14.772013709,
                61.168229588
              ],
              [
                14.765585665,
                61.165936701
              ],
              [
                14.763831735,
                61.162782016
              ],
              [
                14.760161547,
                61.161407452
              ],
              [
                14.75478392,
                61.15553208
              ],
              [
                14.752088292,
                61.152818691
              ],
              [
                14.748374725,
                61.152789716
              ],
              [
                14.747386214,
                61.154576936
              ],
              [
                14.745529326,
                61.154562397
              ],
              [
                14.73093381,
                61.146818621
              ],
              [
                14.713437633,
                61.142639662
              ],
              [
                14.709740865,
                61.14216106
              ],
              [
                14.707947063,
                61.140351547
              ],
              [
                14.69967346,
                61.138040381
              ],
              [
                14.69330433,
                61.134398107
              ],
              [
                14.688696869,
                61.133462639
              ],
              [
                14.687689738,
                61.135698077
              ],
              [
                14.683994178,
                61.135218684
              ],
              [
                14.674988427,
                61.127514978
              ],
              [
                14.664930221,
                61.123391638
              ],
              [
                14.66499494,
                61.1215972
              ],
              [
                14.662228962,
                61.12112513
              ],
              [
                14.663221213,
                61.119338445
              ],
              [
                14.65869817,
                61.11615887
              ],
              [
                14.655005333,
                61.11567878
              ],
              [
                14.652288939,
                61.113860548
              ],
              [
                14.650434502,
                61.11384471
              ],
              [
                14.649458101,
                61.115182649
              ],
              [
                14.653980075,
                61.118362531
              ],
              [
                14.652987335,
                61.120149058
              ],
              [
                14.655769548,
                61.120172754
              ],
              [
                14.659397886,
                61.122447348
              ],
              [
                14.661139193,
                61.125603371
              ],
              [
                14.663889499,
                61.126524118
              ],
              [
                14.663824701,
                61.128318643
              ],
              [
                14.670189206,
                61.131962206
              ],
              [
                14.666397359,
                61.134174081
              ],
              [
                14.670988152,
                61.135558961
              ],
              [
                14.671755085,
                61.140052928
              ],
              [
                14.668971107,
                61.140029557
              ],
              [
                14.661661012,
                61.136826654
              ],
              [
                14.655636985,
                61.136358276
              ],
              [
                14.655182085,
                61.136322897
              ],
              [
                14.651414506,
                61.135139244
              ],
              [
                14.648756827,
                61.134304174
              ],
              [
                14.647841237,
                61.134016464
              ],
              [
                14.645969163,
                61.134449213
              ],
              [
                14.644000603,
                61.132457888
              ],
              [
                14.642389947,
                61.1308284
              ],
              [
                14.638728773,
                61.129450563
              ],
              [
                14.637122112,
                61.122705421
              ],
              [
                14.635300367,
                61.121792164
              ],
              [
                14.636343909,
                61.118659909
              ],
              [
                14.63458885,
                61.115952134
              ],
              [
                14.637619114,
                61.109247076
              ],
              [
                14.634027063,
                61.10607469
              ],
              [
                14.635169729,
                61.100250711
              ],
              [
                14.637073038,
                61.09892098
              ],
              [
                14.635318989,
                61.096213209
              ],
              [
                14.635650524,
                61.087240982
              ],
              [
                14.632011437,
                61.085414318
              ],
              [
                14.632061296,
                61.084068543
              ],
              [
                14.626586749,
                61.081777059
              ],
              [
                14.626636835,
                61.080431196
              ],
              [
                14.621146533,
                61.078588146
              ],
              [
                14.619361366,
                61.076777375
              ],
              [
                14.620337828,
                61.075439737
              ],
              [
                14.619462124,
                61.074085745
              ],
              [
                14.61587584,
                61.070912876
              ],
              [
                14.609880074,
                61.082527685
              ],
              [
                14.618571408,
                61.097862101
              ],
              [
                14.618027963,
                61.101721192
              ],
              [
                14.616411736,
                61.103627645
              ],
              [
                14.616328455,
                61.108213159
              ],
              [
                14.616262865,
                61.109958308
              ],
              [
                14.617830772,
                61.117600992
              ],
              [
                14.61966859,
                61.118065835
              ],
              [
                14.622265978,
                61.123024891
              ],
              [
                14.622726201,
                61.124813676
              ],
              [
                14.623076036,
                61.126173271
              ],
              [
                14.626669243,
                61.129345941
              ],
              [
                14.632168639,
                61.131188867
              ],
              [
                14.635779772,
                61.133912648
              ],
              [
                14.638563179,
                61.1339367
              ],
              [
                14.644942511,
                61.137132885
              ],
              [
                14.641197867,
                61.137998185
              ],
              [
                14.641164812,
                61.138895394
              ],
              [
                14.649401492,
                61.142107338
              ],
              [
                14.65127397,
                61.141674633
              ],
              [
                14.656776952,
                61.143516475
              ],
              [
                14.660408021,
                61.14579104
              ],
              [
                14.664120504,
                61.145822425
              ],
              [
                14.672377424,
                61.148584325
              ],
              [
                14.672329144,
                61.149930198
              ],
              [
                14.679643494,
                61.153132529
              ],
              [
                14.681372513,
                61.156736941
              ],
              [
                14.683229484,
                61.156752361
              ],
              [
                14.685903608,
                61.15991576
              ],
              [
                14.686800398,
                61.160820662
              ],
              [
                14.690483148,
                61.16174855
              ],
              [
                14.691332626,
                61.1639993
              ],
              [
                14.695881379,
                61.166729129
              ],
              [
                14.704146537,
                61.169489193
              ],
              [
                14.705926127,
                61.171747409
              ],
              [
                14.707768394,
                61.172211063
              ],
              [
                14.713938844,
                61.173351489
              ],
              [
                14.717925022,
                61.174088034
              ],
              [
                14.725203508,
                61.178633804
              ],
              [
                14.737221502,
                61.180524154
              ],
              [
                14.740938319,
                61.180553443
              ],
              [
                14.740312062,
                61.171573696
              ],
              [
                14.760644742,
                61.174873428
              ],
              [
                14.766189458,
                61.175813598
              ],
              [
                14.768858757,
                61.179424036
              ],
              [
                14.771661003,
                61.178996694
              ],
              [
                14.77250203,
                61.181695609
              ],
              [
                14.782592851,
                61.185810895
              ],
              [
                14.789360436,
                61.189518899
              ],
              [
                14.79172781,
                61.190815721
              ],
              [
                14.80843091,
                61.191837249
              ],
              [
                14.811162986,
                61.193652355
              ],
              [
                14.814895533,
                61.193230946
              ],
              [
                14.828797733,
                61.1946782
              ],
              [
                14.832544012,
                61.193807722
              ],
              [
                14.838066684,
                61.195642216
              ],
              [
                14.840869445,
                61.195213444
              ]
            ]
          ]
        ]
      },
      "properties": {
        "wb": "Y",
        "name": "SE678177-144069",
        "eu_cd": "SE678177-144069",
        "ms_cd": "SE678177-144069",
        "rowid": 27,
        "scale": "1:250 000",
        "int_rb": null,
        "ogc_fid": 27,
        "version": 1,
        "wb_type": "Sedimentär berggrund",
        "ant_horz": 2,
        "district": "SE2",
        "url_viss": "https://viss.lansstyrelsen.se/Waters.aspx?waterEUID=SE678177-144069",
        "comp_auth": "BH",
        "geom_area": 26703565.9102219,
        "geom_length": 53016.8286515065,
        "versionname": "SGU_cykel1",
        "versiondescr": "Beslutade grundvattenförekomster för förvaltningscykel 1 (2004-2009). Rapporterade till European Environment Agency (EEA).",
        "end_lifespanversion": "2009-12-31T00:00:00+01:00",
        "begin_lifespanversion": "2004-01-01T00:00:00+01:00"
      }
    },
    {
      "type": "Feature",
      "geometry": {
        "type": "MultiPolygon",
        "coordinates": [
          [
            [
              [
                14.789360436,
                61.189518898
              ],
              [
                14.79172781,
                61.19081572
              ],
              [
                14.80843091,
                61.191837248
              ],
              [
                14.811162986,
                61.193652353
              ],
              [
                14.814895533,
                61.193230945
              ],
              [
                14.828797733,
                61.194678199
              ],
              [
                14.832544012,
                61.193807721
              ],
              [
                14.838066684,
                61.195642215
              ],
              [
                14.840869445,
                61.195213444
              ],
              [
                14.840938079,
                61.192970249
              ],
              [
                14.843273118,
                61.191876098
              ],
              [
                14.845654369,
                61.190760181
              ],
              [
                14.845722651,
                61.188516981
              ],
              [
                14.842934245,
                61.18849718
              ],
              [
                14.841047867,
                61.189381207
              ],
              [
                14.832696287,
                61.188872666
              ],
              [
                14.831794512,
                61.187968724
              ],
              [
                14.82250004,
                61.18790154
              ],
              [
                14.805855585,
                61.185087248
              ],
              [
                14.783885512,
                61.174602111
              ],
              [
                14.775612002,
                61.171846988
              ],
              [
                14.772013709,
                61.168229587
              ],
              [
                14.765585665,
                61.1659367
              ],
              [
                14.763831735,
                61.162782015
              ],
              [
                14.760161547,
                61.161407451
              ],
              [
                14.75478392,
                61.155532079
              ],
              [
                14.752088292,
                61.152818691
              ],
              [
                14.748374725,
                61.152789715
              ],
              [
                14.747386214,
                61.154576935
              ],
              [
                14.745529326,
                61.154562396
              ],
              [
                14.73093381,
                61.14681862
              ],
              [
                14.713437633,
                61.142639661
              ],
              [
                14.709740865,
                61.14216106
              ],
              [
                14.707947063,
                61.140351546
              ],
              [
                14.69967346,
                61.13804038
              ],
              [
                14.69330433,
                61.134398107
              ],
              [
                14.688696869,
                61.133462638
              ],
              [
                14.687689738,
                61.135698076
              ],
              [
                14.683994178,
                61.135218683
              ],
              [
                14.674988427,
                61.127514977
              ],
              [
                14.664930221,
                61.123391637
              ],
              [
                14.66499494,
                61.121597199
              ],
              [
                14.662228962,
                61.121125129
              ],
              [
                14.663221213,
                61.119338444
              ],
              [
                14.65869817,
                61.116158869
              ],
              [
                14.655005333,
                61.11567878
              ],
              [
                14.652288939,
                61.113860547
              ],
              [
                14.650434502,
                61.113844709
              ],
              [
                14.649458101,
                61.115182649
              ],
              [
                14.653980075,
                61.118362531
              ],
              [
                14.652987335,
                61.120149057
              ],
              [
                14.655769548,
                61.120172753
              ],
              [
                14.659397886,
                61.122447347
              ],
              [
                14.661139193,
                61.12560337
              ],
              [
                14.663889499,
                61.126524117
              ],
              [
                14.663824701,
                61.128318642
              ],
              [
                14.670189206,
                61.131962205
              ],
              [
                14.666397359,
                61.13417408
              ],
              [
                14.670988152,
                61.13555896
              ],
              [
                14.671755085,
                61.140052928
              ],
              [
                14.668971107,
                61.140029556
              ],
              [
                14.661661012,
                61.136826654
              ],
              [
                14.655636985,
                61.136358275
              ],
              [
                14.655182085,
                61.136322896
              ],
              [
                14.651414506,
                61.135139243
              ],
              [
                14.648756827,
                61.134304173
              ],
              [
                14.647841237,
                61.134016464
              ],
              [
                14.645969163,
                61.134449212
              ],
              [
                14.644000603,
                61.132457887
              ],
              [
                14.642389947,
                61.1308284
              ],
              [
                14.638728773,
                61.129450563
              ],
              [
                14.637122112,
                61.12270542
              ],
              [
                14.635300367,
                61.121792163
              ],
              [
                14.636343909,
                61.118659908
              ],
              [
                14.634588852,
                61.115952133
              ],
              [
                14.637619115,
                61.109247075
              ],
              [
                14.634027063,
                61.106074689
              ],
              [
                14.635169729,
                61.10025071
              ],
              [
                14.637073038,
                61.09892098
              ],
              [
                14.635318989,
                61.096213208
              ],
              [
                14.635650524,
                61.087240982
              ],
              [
                14.632011437,
                61.085414317
              ],
              [
                14.632061296,
                61.084068542
              ],
              [
                14.626586747,
                61.081777058
              ],
              [
                14.626636833,
                61.080431195
              ],
              [
                14.621146533,
                61.078588145
              ],
              [
                14.619361366,
                61.076777375
              ],
              [
                14.620337828,
                61.075439737
              ],
              [
                14.619462124,
                61.074085744
              ],
              [
                14.61587584,
                61.070912875
              ],
              [
                14.609880074,
                61.082527684
              ],
              [
                14.618571408,
                61.0978621
              ],
              [
                14.618027963,
                61.101721191
              ],
              [
                14.616411736,
                61.103627644
              ],
              [
                14.616328455,
                61.108213158
              ],
              [
                14.616262865,
                61.109958307
              ],
              [
                14.617830772,
                61.117600992
              ],
              [
                14.61966859,
                61.118065834
              ],
              [
                14.622265978,
                61.123024891
              ],
              [
                14.622726201,
                61.124813675
              ],
              [
                14.623076036,
                61.12617327
              ],
              [
                14.626669243,
                61.12934594
              ],
              [
                14.632168639,
                61.131188866
              ],
              [
                14.635779772,
                61.133912647
              ],
              [
                14.638563179,
                61.133936699
              ],
              [
                14.644942511,
                61.137132884
              ],
              [
                14.641197867,
                61.137998184
              ],
              [
                14.641164812,
                61.138895393
              ],
              [
                14.649401492,
                61.142107337
              ],
              [
                14.65127397,
                61.141674632
              ],
              [
                14.656776952,
                61.143516474
              ],
              [
                14.660408021,
                61.14579104
              ],
              [
                14.664120504,
                61.145822424
              ],
              [
                14.672377424,
                61.148584325
              ],
              [
                14.672329144,
                61.149930197
              ],
              [
                14.679643494,
                61.153132528
              ],
              [
                14.681372513,
                61.15673694
              ],
              [
                14.683229484,
                61.15675236
              ],
              [
                14.685903608,
                61.159915759
              ],
              [
                14.686800398,
                61.160820661
              ],
              [
                14.690483148,
                61.161748549
              ],
              [
                14.691332626,
                61.163999299
              ],
              [
                14.695881379,
                61.166729128
              ],
              [
                14.704146537,
                61.169489192
              ],
              [
                14.705926127,
                61.171747408
              ],
              [
                14.707768394,
                61.172211062
              ],
              [
                14.713938844,
                61.173351489
              ],
              [
                14.717925022,
                61.174088033
              ],
              [
                14.725203508,
                61.178633803
              ],
              [
                14.737221502,
                61.180524153
              ],
              [
                14.740938319,
                61.180553442
              ],
              [
                14.740312062,
                61.171573695
              ],
              [
                14.760644742,
                61.174873427
              ],
              [
                14.766189458,
                61.175813597
              ],
              [
                14.768858757,
                61.179424035
              ],
              [
                14.771661003,
                61.178996693
              ],
              [
                14.77250203,
                61.181695608
              ],
              [
                14.782592851,
                61.185810894
              ],
              [
                14.789360436,
                61.189518898
              ]
            ]
          ]
        ]
      },
      "properties": {
        "wb": "Y",
        "name": "Orsa kalksten",
        "eu_cd": "SE678177-144069",
        "ms_cd": "SE678177-144069",
        "rowid": 3120,
        "scale": "1:250 000",
        "int_rb": null,
        "ogc_fid": 3120,
        "version": 3,
        "wb_type": "Sedimentär berggrund",
        "ant_horz": 2,
        "district": "SE2",
        "url_viss": "https://viss.lansstyrelsen.se/Waters.aspx?waterEUID=SE678177-144069",
        "comp_auth": "BH",
        "geom_area": 26703565.9525146,
        "geom_length": 53016.8285941313,
        "versionname": "SGU_cykel2",
        "versiondescr": "Beslutade grundvattenförekomster för förvaltningscykel 2 (2010-2016). Rapporterade till European Environment Agency (EEA).",
        "end_lifespanversion": "2016-12-31T00:00:00+01:00",
        "begin_lifespanversion": "2010-01-01T00:00:00+01:00"
      }
    },
    {
      "type": "Feature",
      "geometry": {
        "type": "MultiPolygon",
        "coordinates": [
          [
            [
              [
                14.840869445,
                61.195213444
              ],
              [
                14.840938079,
                61.192970249
              ],
              [
                14.843273118,
                61.191876098
              ],
              [
                14.845654369,
                61.190760181
              ],
              [
                14.845722651,
                61.18851698
              ],
              [
                14.842934245,
                61.188497179
              ],
              [
                14.841047867,
                61.189381207
              ],
              [
                14.832696287,
                61.188872665
              ],
              [
                14.831794512,
                61.187968724
              ],
              [
                14.82250004,
                61.187901539
              ],
              [
                14.805855585,
                61.185087248
              ],
              [
                14.783885512,
                61.174602111
              ],
              [
                14.775612002,
                61.171846988
              ],
              [
                14.772013709,
                61.168229587
              ],
              [
                14.765585667,
                61.1659367
              ],
              [
                14.763831735,
                61.162782014
              ],
              [
                14.760161547,
                61.161407451
              ],
              [
                14.75478392,
                61.155532079
              ],
              [
                14.752088292,
                61.152818691
              ],
              [
                14.748374725,
                61.152789715
              ],
              [
                14.747386214,
                61.154576935
              ],
              [
                14.745529326,
                61.154562395
              ],
              [
                14.73093381,
                61.146818619
              ],
              [
                14.713437633,
                61.142639661
              ],
              [
                14.709740865,
                61.142161059
              ],
              [
                14.707947063,
                61.140351546
              ],
              [
                14.69967346,
                61.138040379
              ],
              [
                14.69330433,
                61.134398107
              ],
              [
                14.688696869,
                61.133462638
              ],
              [
                14.687689738,
                61.135698075
              ],
              [
                14.683994178,
                61.135218683
              ],
              [
                14.674988427,
                61.127514976
              ],
              [
                14.664930221,
                61.123391636
              ],
              [
                14.66499494,
                61.121597199
              ],
              [
                14.662228962,
                61.121125129
              ],
              [
                14.663221213,
                61.119338444
              ],
              [
                14.65869817,
                61.116158868
              ],
              [
                14.655005333,
                61.115678779
              ],
              [
                14.652288939,
                61.113860546
              ],
              [
                14.650434502,
                61.113844709
              ],
              [
                14.649458101,
                61.115182649
              ],
              [
                14.653980075,
                61.11836253
              ],
              [
                14.652987335,
                61.120149056
              ],
              [
                14.655769548,
                61.120172752
              ],
              [
                14.659397886,
                61.122447346
              ],
              [
                14.661139193,
                61.125603369
              ],
              [
                14.663889499,
                61.126524117
              ],
              [
                14.663824701,
                61.128318642
              ],
              [
                14.670189206,
                61.131962204
              ],
              [
                14.666397359,
                61.134174079
              ],
              [
                14.670988152,
                61.135558959
              ],
              [
                14.671755085,
                61.140052927
              ],
              [
                14.668971107,
                61.140029556
              ],
              [
                14.661661012,
                61.136826653
              ],
              [
                14.655636985,
                61.136358275
              ],
              [
                14.655182086,
                61.136322895
              ],
              [
                14.651414505,
                61.135139241
              ],
              [
                14.650225847,
                61.134765764
              ],
              [
                14.648756827,
                61.134304173
              ],
              [
                14.647841237,
                61.134016464
              ],
              [
                14.645969163,
                61.134449211
              ],
              [
                14.644000603,
                61.132457886
              ],
              [
                14.642389947,
                61.130828399
              ],
              [
                14.638728773,
                61.129450563
              ],
              [
                14.637122112,
                61.122705419
              ],
              [
                14.635300367,
                61.121792163
              ],
              [
                14.636343909,
                61.118659908
              ],
              [
                14.634588852,
                61.115952132
              ],
              [
                14.637619114,
                61.109247074
              ],
              [
                14.634027063,
                61.106074688
              ],
              [
                14.635169729,
                61.100250709
              ],
              [
                14.637073038,
                61.098920979
              ],
              [
                14.635318989,
                61.096213207
              ],
              [
                14.635650524,
                61.087240981
              ],
              [
                14.632011437,
                61.085414316
              ],
              [
                14.632061296,
                61.084068541
              ],
              [
                14.626586747,
                61.081777057
              ],
              [
                14.626636833,
                61.080431194
              ],
              [
                14.621146533,
                61.078588144
              ],
              [
                14.619361366,
                61.076777374
              ],
              [
                14.620337829,
                61.075439736
              ],
              [
                14.619462124,
                61.074085743
              ],
              [
                14.619084892,
                61.073752032
              ],
              [
                14.61587584,
                61.070912874
              ],
              [
                14.609880074,
                61.082527684
              ],
              [
                14.610614801,
                61.08382458
              ],
              [
                14.613794939,
                61.089436715
              ],
              [
                14.618415292,
                61.097586794
              ],
              [
                14.618571408,
                61.097862099
              ],
              [
                14.618399066,
                61.099086038
              ],
              [
                14.618027963,
                61.101721191
              ],
              [
                14.616411736,
                61.103627643
              ],
              [
                14.616328455,
                61.108213158
              ],
              [
                14.616262865,
                61.109958307
              ],
              [
                14.617830772,
                61.117600992
              ],
              [
                14.61966859,
                61.118065833
              ],
              [
                14.622265978,
                61.123024891
              ],
              [
                14.622726201,
                61.124813674
              ],
              [
                14.623076036,
                61.126173269
              ],
              [
                14.626669243,
                61.129345939
              ],
              [
                14.627600924,
                61.12965819
              ],
              [
                14.632168639,
                61.131188866
              ],
              [
                14.635779772,
                61.133912646
              ],
              [
                14.638563179,
                61.133936699
              ],
              [
                14.644942511,
                61.137132883
              ],
              [
                14.641197869,
                61.137998184
              ],
              [
                14.641191092,
                61.138182069
              ],
              [
                14.641164812,
                61.138895393
              ],
              [
                14.649401492,
                61.142107337
              ],
              [
                14.649678192,
                61.142043398
              ],
              [
                14.65127397,
                61.141674631
              ],
              [
                14.656776952,
                61.143516473
              ],
              [
                14.660408021,
                61.14579104
              ],
              [
                14.664120504,
                61.145822424
              ],
              [
                14.672377424,
                61.148584325
              ],
              [
                14.672329144,
                61.149930196
              ],
              [
                14.679643494,
                61.153132527
              ],
              [
                14.680646248,
                61.155223028
              ],
              [
                14.681372513,
                61.156736939
              ],
              [
                14.683229484,
                61.15675236
              ],
              [
                14.685903608,
                61.159915758
              ],
              [
                14.686800398,
                61.160820661
              ],
              [
                14.690029007,
                61.161634133
              ],
              [
                14.690483148,
                61.161748549
              ],
              [
                14.690672328,
                61.162249822
              ],
              [
                14.691332626,
                61.163999299
              ],
              [
                14.695881381,
                61.166729128
              ],
              [
                14.697969457,
                61.167426513
              ],
              [
                14.704146537,
                61.169489191
              ],
              [
                14.705926127,
                61.171747408
              ],
              [
                14.707768394,
                61.172211062
              ],
              [
                14.713938844,
                61.173351488
              ],
              [
                14.717925022,
                61.174088032
              ],
              [
                14.724940887,
                61.178469812
              ],
              [
                14.725528925,
                61.178632581
              ],
              [
                14.725855879,
                61.178736449
              ],
              [
                14.731497852,
                61.179624022
              ],
              [
                14.737221502,
                61.180524152
              ],
              [
                14.738092121,
                61.180531022
              ],
              [
                14.740938319,
                61.180553441
              ],
              [
                14.740629481,
                61.176125737
              ],
              [
                14.740312062,
                61.171573694
              ],
              [
                14.753727424,
                61.173751255
              ],
              [
                14.760644742,
                61.174873426
              ],
              [
                14.766189458,
                61.175813596
              ],
              [
                14.768858757,
                61.179424034
              ],
              [
                14.771661003,
                61.178996692
              ],
              [
                14.77250203,
                61.181695607
              ],
              [
                14.782592851,
                61.185810893
              ],
              [
                14.789360436,
                61.189518897
              ],
              [
                14.79172781,
                61.190815719
              ],
              [
                14.80843091,
                61.191837248
              ],
              [
                14.811162986,
                61.193652352
              ],
              [
                14.814895533,
                61.193230945
              ],
              [
                14.828797733,
                61.194678199
              ],
              [
                14.832544012,
                61.193807721
              ],
              [
                14.838066684,
                61.195642214
              ],
              [
                14.840869445,
                61.195213444
              ]
            ]
          ]
        ]
      },
      "properties": {
        "wb": "Y",
        "name": "Orsa kalksten",
        "eu_cd": "SE6e0bae72-d002-42c7-bb6f-2306edb83e5a",
        "ms_cd": "WA45887817",
        "rowid": 6459,
        "scale": "1:250 000",
        "int_rb": null,
        "ogc_fid": 6459,
        "version": 5,
        "wb_type": "Sedimentär berggrund",
        "ant_horz": 2,
        "district": "SE2",
        "url_viss": "https://viss.lansstyrelsen.se/Waters.aspx?waterMSCD=WA45887817",
        "comp_auth": "BH",
        "geom_area": 26703302.5038947,
        "geom_length": 53014.3390811878,
        "versionname": "SGU_cykel3",
        "versiondescr": "Beslutade grundvattenförekomster för förvaltningscykel 3 (2017-2021). Rapporterade till European Environment Agency (EEA).",
        "end_lifespanversion": "2021-12-31T00:00:00+01:00",
        "begin_lifespanversion": "2017-01-01T00:00:00+01:00"
      }
    },
    {
      "type": "Feature",
      "geometry": {
        "type": "MultiPolygon",
        "coordinates": [
          [
            [
              [
                14.840869445,
                61.195213444
              ],
              [
                14.840938079,
                61.192970249
              ],
              [
                14.843273118,
                61.191876098
              ],
              [
                14.845654369,
                61.190760181
              ],
              [
                14.845722651,
                61.188516981
              ],
              [
                14.842934245,
                61.18849718
              ],
              [
                14.841047867,
                61.189381207
              ],
              [
                14.832696287,
                61.188872666
              ],
              [
                14.831794512,
                61.187968724
              ],
              [
                14.82250004,
                61.18790154
              ],
              [
                14.805855585,
                61.185087248
              ],
              [
                14.783885512,
                61.174602111
              ],
              [
                14.775612002,
                61.171846988
              ],
              [
                14.772013709,
                61.168229587
              ],
              [
                14.765585667,
                61.1659367
              ],
              [
                14.763831735,
                61.162782015
              ],
              [
                14.760161547,
                61.161407451
              ],
              [
                14.75478392,
                61.155532079
              ],
              [
                14.752088292,
                61.152818691
              ],
              [
                14.748374725,
                61.152789715
              ],
              [
                14.747386214,
                61.154576935
              ],
              [
                14.745529326,
                61.154562396
              ],
              [
                14.73093381,
                61.14681862
              ],
              [
                14.713437635,
                61.142639661
              ],
              [
                14.709740865,
                61.14216106
              ],
              [
                14.707947063,
                61.140351546
              ],
              [
                14.69967346,
                61.13804038
              ],
              [
                14.69330433,
                61.134398107
              ],
              [
                14.688696869,
                61.133462638
              ],
              [
                14.687689738,
                61.135698076
              ],
              [
                14.683994178,
                61.135218683
              ],
              [
                14.674988427,
                61.127514977
              ],
              [
                14.664930221,
                61.123391637
              ],
              [
                14.66499494,
                61.121597199
              ],
              [
                14.662228962,
                61.121125129
              ],
              [
                14.663221213,
                61.119338444
              ],
              [
                14.65869817,
                61.116158869
              ],
              [
                14.655005333,
                61.11567878
              ],
              [
                14.652288939,
                61.113860547
              ],
              [
                14.650434502,
                61.113844709
              ],
              [
                14.649458101,
                61.115182649
              ],
              [
                14.653980075,
                61.118362531
              ],
              [
                14.652987335,
                61.120149056
              ],
              [
                14.655769548,
                61.120172753
              ],
              [
                14.659397886,
                61.122447347
              ],
              [
                14.661139193,
                61.12560337
              ],
              [
                14.663889499,
                61.126524117
              ],
              [
                14.663824701,
                61.128318642
              ],
              [
                14.670189206,
                61.131962204
              ],
              [
                14.666397359,
                61.13417408
              ],
              [
                14.670988152,
                61.13555896
              ],
              [
                14.671755085,
                61.140052928
              ],
              [
                14.668971107,
                61.140029556
              ],
              [
                14.661661012,
                61.136826654
              ],
              [
                14.655636985,
                61.136358275
              ],
              [
                14.655182085,
                61.136322896
              ],
              [
                14.651414505,
                61.135139242
              ],
              [
                14.650225847,
                61.134765764
              ],
              [
                14.648756827,
                61.134304174
              ],
              [
                14.647841237,
                61.134016464
              ],
              [
                14.645969163,
                61.134449212
              ],
              [
                14.644000603,
                61.132457887
              ],
              [
                14.642389947,
                61.1308284
              ],
              [
                14.638728773,
                61.129450563
              ],
              [
                14.637122112,
                61.12270542
              ],
              [
                14.635300367,
                61.121792163
              ],
              [
                14.636343909,
                61.118659908
              ],
              [
                14.634588852,
                61.115952133
              ],
              [
                14.637619114,
                61.109247075
              ],
              [
                14.634027063,
                61.106074688
              ],
              [
                14.635169729,
                61.10025071
              ],
              [
                14.637073038,
                61.098920979
              ],
              [
                14.635318989,
                61.096213208
              ],
              [
                14.635650524,
                61.087240982
              ],
              [
                14.632011437,
                61.085414317
              ],
              [
                14.632061296,
                61.084068542
              ],
              [
                14.626586747,
                61.081777057
              ],
              [
                14.626636833,
                61.080431194
              ],
              [
                14.621146533,
                61.078588145
              ],
              [
                14.619361366,
                61.076777374
              ],
              [
                14.620337828,
                61.075439737
              ],
              [
                14.619462124,
                61.074085744
              ],
              [
                14.619084892,
                61.073752033
              ],
              [
                14.61587584,
                61.070912875
              ],
              [
                14.609880074,
                61.082527684
              ],
              [
                14.610614801,
                61.08382458
              ],
              [
                14.613794939,
                61.089436715
              ],
              [
                14.618415292,
                61.097586794
              ],
              [
                14.618571408,
                61.097862099
              ],
              [
                14.618399066,
                61.099086038
              ],
              [
                14.618027963,
                61.101721191
              ],
              [
                14.616411736,
                61.103627644
              ],
              [
                14.616328455,
                61.108213158
              ],
              [
                14.616262865,
                61.109958307
              ],
              [
                14.617830772,
                61.117600992
              ],
              [
                14.61966859,
                61.118065834
              ],
              [
                14.622265978,
                61.123024891
              ],
              [
                14.622726201,
                61.124813674
              ],
              [
                14.623076036,
                61.12617327
              ],
              [
                14.626669243,
                61.12934594
              ],
              [
                14.627600924,
                61.129658191
              ],
              [
                14.632168639,
                61.131188866
              ],
              [
                14.635779772,
                61.133912647
              ],
              [
                14.638563179,
                61.133936699
              ],
              [
                14.644942511,
                61.137132884
              ],
              [
                14.641197869,
                61.137998184
              ],
              [
                14.641191092,
                61.13818207
              ],
              [
                14.641164812,
                61.138895393
              ],
              [
                14.649401492,
                61.142107337
              ],
              [
                14.649678192,
                61.142043398
              ],
              [
                14.65127397,
                61.141674632
              ],
              [
                14.656776952,
                61.143516474
              ],
              [
                14.660408021,
                61.14579104
              ],
              [
                14.664120504,
                61.145822424
              ],
              [
                14.672377424,
                61.148584325
              ],
              [
                14.672329144,
                61.149930197
              ],
              [
                14.679643494,
                61.153132528
              ],
              [
                14.680646248,
                61.155223029
              ],
              [
                14.681372513,
                61.15673694
              ],
              [
                14.683229484,
                61.15675236
              ],
              [
                14.685903608,
                61.159915759
              ],
              [
                14.686800398,
                61.160820661
              ],
              [
                14.690029007,
                61.161634133
              ],
              [
                14.690483148,
                61.161748549
              ],
              [
                14.690672328,
                61.162249822
              ],
              [
                14.691332626,
                61.163999299
              ],
              [
                14.695881381,
                61.166729128
              ],
              [
                14.697969457,
                61.167426513
              ],
              [
                14.704146537,
                61.169489192
              ],
              [
                14.705926127,
                61.171747408
              ],
              [
                14.707768394,
                61.172211062
              ],
              [
                14.713938844,
                61.173351489
              ],
              [
                14.717925022,
                61.174088032
              ],
              [
                14.724940887,
                61.178469813
              ],
              [
                14.725528925,
                61.178632581
              ],
              [
                14.725855879,
                61.17873645
              ],
              [
                14.731497852,
                61.179624022
              ],
              [
                14.737221502,
                61.180524153
              ],
              [
                14.738092121,
                61.180531022
              ],
              [
                14.740938319,
                61.180553442
              ],
              [
                14.740629481,
                61.176125737
              ],
              [
                14.740312062,
                61.171573695
              ],
              [
                14.753727424,
                61.173751256
              ],
              [
                14.760644742,
                61.174873427
              ],
              [
                14.766189458,
                61.175813597
              ],
              [
                14.768858757,
                61.179424034
              ],
              [
                14.771661003,
                61.178996692
              ],
              [
                14.77250203,
                61.181695608
              ],
              [
                14.782592851,
                61.185810894
              ],
              [
                14.789360436,
                61.189518897
              ],
              [
                14.79172781,
                61.19081572
              ],
              [
                14.80843091,
                61.191837248
              ],
              [
                14.811162986,
                61.193652353
              ],
              [
                14.814895533,
                61.193230945
              ],
              [
                14.828797733,
                61.194678199
              ],
              [
                14.832544012,
                61.193807721
              ],
              [
                14.838066684,
                61.195642215
              ],
              [
                14.840869445,
                61.195213444
              ]
            ]
          ]
        ]
      },
      "properties": {
        "wb": "Y",
        "name": "Orsa kalksten",
        "eu_cd": "SE6e0bae72-d002-42c7-bb6f-2306edb83e5a",
        "ms_cd": "WA45887817",
        "rowid": 10198,
        "scale": "1:250 000",
        "int_rb": "SE2",
        "ogc_fid": 10198,
        "version": 6,
        "wb_type": "Sedimentär berggrund",
        "ant_horz": 2,
        "district": "SE2_INT",
        "url_viss": "https://viss.lansstyrelsen.se/Waters.aspx?waterMSCD=WA45887817",
        "comp_auth": "BH",
        "geom_area": 26703302.4896689,
        "geom_length": 53014.3393772468,
        "versionname": "SGU_cykel4_prel",
        "versiondescr": "Beslutade och preliminära grundvattenförekomster för pågående förvaltningscykel 4 (2022-2027)",
        "end_lifespanversion": null,
        "begin_lifespanversion": "2022-01-01T00:00:00+01:00"
      }
    }
  ]
}