{
"type": "FeatureCollection",
"name": "orsa_stackmora_3_12_topografi_text_2km",
"crs": { "type": "name", "properties": { "name": "urn:ogc:def:crs:OGC:1.3:CRS84" } },
"features": [
{ "type": "Feature", "properties": { "objektidentitet": "449796f7-1849-4fb5-b2cc-82765f94515b", "skapad": "2010-02-05T11:26:05", "textstrang": "Skola", "textkategori": "Upplysningstext", "textstorleksklass": "2", "textlage": 1, "texttyp": "U", "textsparrning": 100, "karttext": "Skola", "textdelnr": 0, "textriktning": 0.0 }, "geometry": { "type": "Point", "coordinates": [ 14.627000420778961, 61.125444742939422 ] } },
{ "type": "Feature", "properties": { "objektidentitet": "38d7363a-4c70-11de-8b76-00144f3a75d3", "skapad": "2011-12-15T17:12:04", "textstrang": "Orsa skans", "textkategori": "Kulturhistorisk lämning", "textstorleksklass": "2", "textlage": 9, "texttyp": "N", "textsparrning": 100, "karttext": "skans", "textdelnr": 2, "textriktning": 0.0 }, "geometry": { "type": "Point", "coordinates": [ 14.649011154210848, 61.146725830009537 ] } },
{ "type": "Feature", "properties": { "objektidentitet": "3917c515-4c70-11de-8b76-00144f3a75d3", "skapad": "2011-12-15T17:12:04", "textstrang": "Orsa skans", "textkategori": "Kulturhistorisk lämning", "textstorleksklass": "2", "textlage": 3, "texttyp": "N", "textsparrning": 100, "karttext": "Orsa", "textdelnr": 1, "textriktning": 0.0 }, "geometry": { "type": "Point", "coordinates": [ 14.648987335122353, 61.146869228102794 ] } },
{ "type": "Feature", "properties": { "objektidentitet": "22add130-4ac7-4ec5-88c2-1fa22faca389", "skapad": "2025-01-31T14:21:55", "textstrang": "Avfallsanläggning", "textkategori": "Upplysningstext", "textstorleksklass": "2", "textlage": 7, "texttyp": "U", "textsparrning": 100, "karttext": "Avfallsanläggning", "textdelnr": 0, "textriktning": 0.0 }, "geometry": { "type": "Point", "coordinates": [ 14.655655819085739, 61.152323637374089 ] } },
{ "type": "Feature", "properties": { "objektidentitet": "38e80511-4c70-11de-8b76-00144f3a75d3", "skapad": "2006-12-05T17:38:48", "textstrang": "Koldalsbackarna", "textkategori": "Terrängnamn", "textstorleksklass": "2", "textlage": 3, "texttyp": "N", "textsparrning": 100, "karttext": "Koldalsbackarna", "textdelnr": 0, "textriktning": 0.0 }, "geometry": { "type": "Point", "coordinates": [ 14.690208396363161, 61.123243665265797 ] } },
{ "type": "Feature", "properties": { "objektidentitet": "39ddc91c-4c70-11de-8b76-00144f3a75d3", "skapad": "2006-12-05T17:38:48", "textstrang": "Blåvasseln", "textkategori": "Hydrografi", "textstorleksklass": "2", "textlage": 1, "texttyp": "N", "textsparrning": 100, "karttext": "Blåvasseln", "textdelnr": 0, "textriktning": 296.27 }, "geometry": { "type": "Point", "coordinates": [ 14.694202998530869, 61.128903890825534 ] } },
{ "type": "Feature", "properties": { "objektidentitet": "38c54136-4c70-11de-8b76-00144f3a75d3", "skapad": "2006-12-05T17:38:48", "textstrang": "Borngärdet", "textkategori": "Bebyggelse", "textstorleksklass": "3", "textlage": 7, "texttyp": "N", "textsparrning": 100, "karttext": "gärdet", "textdelnr": 2, "textriktning": 0.0 }, "geometry": { "type": "Point", "coordinates": [ 14.627476724126542, 61.127602919967693 ] } },
{ "type": "Feature", "properties": { "objektidentitet": "3958905b-4c70-11de-8b76-00144f3a75d3", "skapad": "2006-12-05T17:38:48", "textstrang": "Borngärdet", "textkategori": "Bebyggelse", "textstorleksklass": "3", "textlage": 1, "texttyp": "N", "textsparrning": 100, "karttext": "Born-", "textdelnr": 1, "textriktning": 0.0 }, "geometry": { "type": "Point", "coordinates": [ 14.628072908217828, 61.12803891983414 ] } },
{ "type": "Feature", "properties": { "objektidentitet": "396150fc-4c70-11de-8b76-00144f3a75d3", "skapad": "2006-12-05T17:38:48", "textstrang": "Ribb-Anderstjärnen", "textkategori": "Hydrografi", "textstorleksklass": "2", "textlage": 9, "texttyp": "N", "textsparrning": 100, "karttext": "Anderstj.", "textdelnr": 2, "textriktning": 0.0 }, "geometry": { "type": "Point", "coordinates": [ 14.628852458828348, 61.141499374226775 ] } },
{ "type": "Feature", "properties": { "objektidentitet": "38e0c288-4c70-11de-8b76-00144f3a75d3", "skapad": "2006-12-05T17:38:48", "textstrang": "Born", "textkategori": "Bebyggelse", "textstorleksklass": "3", "textlage": 3, "texttyp": "N", "textsparrning": 100, "karttext": "Born", "textdelnr": 0, "textriktning": 0.0 }, "geometry": { "type": "Point", "coordinates": [ 14.63165975635633, 61.13490016004743 ] } },
{ "type": "Feature", "properties": { "objektidentitet": "38b92045-4c70-11de-8b76-00144f3a75d3", "skapad": "2006-12-05T17:38:48", "textstrang": "Orsa", "textkategori": "Tätort", "textstorleksklass": "8", "textlage": 1, "texttyp": "N", "textsparrning": 100, "karttext": "Orsa", "textdelnr": 0, "textriktning": 0.0 }, "geometry": { "type": "Point", "coordinates": [ 14.637445385313727, 61.11998879382913 ] } },
{ "type": "Feature", "properties": { "objektidentitet": "3963df31-4c70-11de-8b76-00144f3a75d3", "skapad": "2006-12-05T17:38:48", "textstrang": "Berget", "textkategori": "Bebyggelse", "textstorleksklass": "3", "textlage": 1, "texttyp": "N", "textsparrning": 100, "karttext": "Berget", "textdelnr": 0, "textriktning": 0.0 }, "geometry": { "type": "Point", "coordinates": [ 14.637888222932645, 61.116537207260919 ] } },
{ "type": "Feature", "properties": { "objektidentitet": "39bef957-4c70-11de-8b76-00144f3a75d3", "skapad": "2006-12-05T17:38:48", "textstrang": "Unnåbron", "textkategori": "Bebyggelse", "textstorleksklass": "2", "textlage": 1, "texttyp": "N", "textsparrning": 100, "karttext": "Unnåbron", "textdelnr": 0, "textriktning": 0.0 }, "geometry": { "type": "Point", "coordinates": [ 14.646253034764126, 61.151513247950795 ] } },
{ "type": "Feature", "properties": { "objektidentitet": "38febd69-4c70-11de-8b76-00144f3a75d3", "skapad": "2006-12-05T17:38:48", "textstrang": "Born", "textkategori": "Bebyggelse", "textstorleksklass": "3", "textlage": 1, "texttyp": "N", "textsparrning": 100, "karttext": "Born", "textdelnr": 0, "textriktning": 0.0 }, "geometry": { "type": "Point", "coordinates": [ 14.648492710284813, 61.140564918800649 ] } },
{ "type": "Feature", "properties": { "objektidentitet": "396c86dc-4c70-11de-8b76-00144f3a75d3", "skapad": "2006-12-05T17:38:48", "textstrang": "Jättgrop", "textkategori": "Kulturhistorisk lämning", "textstorleksklass": "2", "textlage": 1, "texttyp": "N", "textsparrning": 100, "karttext": "Jättgrop", "textdelnr": 0, "textriktning": 0.0 }, "geometry": { "type": "Point", "coordinates": [ 14.650979270753062, 61.122303972245646 ] } },
{ "type": "Feature", "properties": { "objektidentitet": "39b30bcb-4c70-11de-8b76-00144f3a75d3", "skapad": "2006-12-05T17:38:48", "textstrang": "Skansen", "textkategori": "Bebyggelse", "textstorleksklass": "2", "textlage": 7, "texttyp": "N", "textsparrning": 100, "karttext": "Skansen", "textdelnr": 0, "textriktning": 0.0 }, "geometry": { "type": "Point", "coordinates": [ 14.654729250587689, 61.14519540939326 ] } },
{ "type": "Feature", "properties": { "objektidentitet": "39f99f71-4c70-11de-8b76-00144f3a75d3", "skapad": "2006-12-05T17:38:48", "textstrang": "Västra Stackmora", "textkategori": "Bebyggelse", "textstorleksklass": "3", "textlage": 3, "texttyp": "N", "textsparrning": 100, "karttext": "V Stackmora", "textdelnr": 0, "textriktning": 0.0 }, "geometry": { "type": "Point", "coordinates": [ 14.660738346910607, 61.130015774269154 ] } },
{ "type": "Feature", "properties": { "objektidentitet": "394ae6e0-4c70-11de-8b76-00144f3a75d3", "skapad": "2006-12-05T17:38:48", "textstrang": "Slättberg", "textkategori": "Bebyggelse", "textstorleksklass": "4", "textlage": 1, "texttyp": "N", "textsparrning": 100, "karttext": "Slättberg", "textdelnr": 0, "textriktning": 0.0 }, "geometry": { "type": "Point", "coordinates": [ 14.663799867038401, 61.1171893933546 ] } },
{ "type": "Feature", "properties": { "objektidentitet": "38d35e4d-4c70-11de-8b76-00144f3a75d3", "skapad": "2006-12-05T17:38:48", "textstrang": "Heden", "textkategori": "Bebyggelse", "textstorleksklass": "2", "textlage": 1, "texttyp": "N", "textsparrning": 100, "karttext": "Heden", "textdelnr": 0, "textriktning": 0.0 }, "geometry": { "type": "Point", "coordinates": [ 14.664816077154317, 61.149193976826972 ] } },
{ "type": "Feature", "properties": { "objektidentitet": "399ff51e-4c70-11de-8b76-00144f3a75d3", "skapad": "2006-12-05T17:38:48", "textstrang": "Stackmora", "textkategori": "Bebyggelse", "textstorleksklass": "4", "textlage": 1, "texttyp": "N", "textsparrning": 100, "karttext": "Stackmora", "textdelnr": 0, "textriktning": 0.0 }, "geometry": { "type": "Point", "coordinates": [ 14.671704627614632, 61.134739304832237 ] } },
{ "type": "Feature", "properties": { "objektidentitet": "3a009623-4c70-11de-8b76-00144f3a75d3", "skapad": "2006-12-05T17:38:48", "textstrang": "Östra Stackmora", "textkategori": "Bebyggelse", "textstorleksklass": "3", "textlage": 7, "texttyp": "N", "textsparrning": 100, "karttext": "Ö Stackmora", "textdelnr": 0, "textriktning": 0.0 }, "geometry": { "type": "Point", "coordinates": [ 14.676408865712823, 61.127760207920915 ] } },
{ "type": "Feature", "properties": { "objektidentitet": "394c392e-4c70-11de-8b76-00144f3a75d3", "skapad": "2006-12-05T17:38:48", "textstrang": "Djupbäck", "textkategori": "Hydrografi", "textstorleksklass": "2", "textlage": 1, "texttyp": "N", "textsparrning": 100, "karttext": "Djupbäck", "textdelnr": 0, "textriktning": null }, "geometry": { "type": "LineString", "coordinates": [ [ 14.69543149112609, 61.144656100218647 ], [ 14.696611974541341, 61.143822137425637 ], [ 14.69855906968111, 61.142303370974403 ], [ 14.701090069575164, 61.140008525814281 ] ] } }
]
}
