{
"type": "FeatureCollection",
"name": "orsa_stackmora_3_12_topografi_hydrografi_2km",
"crs": { "type": "name", "properties": { "name": "urn:ogc:def:crs:OGC:1.3:CRS84" } },
"features": [
{ "type": "Feature", "properties": { "objektidentitet": "83d9cc6f-fcb8-4fec-a23f-2c405c5d2970", "skapad": "2026-03-17T21:00:01", "objekttypnr": 1581, "objekttyp": "Vattendrag", "vattendragsid": "b6851860-2aec-4029-b30f-6ce1b7f10d7d", "storleksklass": "1", "kanal": "Nej", "rotation": null }, "geometry": { "type": "LineString", "coordinates": [ [ 14.700925738111991, 61.11716156212448 ], [ 14.701661954271412, 61.117445459282223 ], [ 14.700487127110874, 61.121378547182125 ], [ 14.702069375802861, 61.122581512426727 ], [ 14.698804584491628, 61.123558268450637 ], [ 14.699057610512437, 61.123868951964234 ] ] } },
{ "type": "Feature", "properties": { "objektidentitet": "ae090e08-2378-4abd-b48d-7c5a64d6a3a0", "skapad": "2026-03-17T21:00:01", "objekttypnr": 1581, "objekttyp": "Vattendrag", "vattendragsid": "babcc722-cfab-4fe2-9e96-a8265a3d69cf", "storleksklass": "1", "kanal": "Nej", "rotation": null }, "geometry": { "type": "LineString", "coordinates": [ [ 14.699057610512437, 61.123868951964234 ], [ 14.698161394413402, 61.124035100355471 ], [ 14.697220071227999, 61.125589551066085 ], [ 14.694894170358088, 61.127323020900647 ], [ 14.694937150152079, 61.127461124709704 ], [ 14.694805619491229, 61.12779289007797 ], [ 14.694512967108762, 61.127934393018634 ], [ 14.694241676316146, 61.128422055891591 ], [ 14.693806957137745, 61.128613871099454 ], [ 14.69389391174372, 61.128761698858227 ], [ 14.693700518412205, 61.129167102869118 ], [ 14.693109211398019, 61.129833441967108 ], [ 14.692551871745907, 61.130266836939427 ], [ 14.692466677334979, 61.130669629810498 ], [ 14.691695752488249, 61.131310569157158 ], [ 14.691692425006231, 61.131652023188948 ], [ 14.691515323702887, 61.132183105080053 ], [ 14.691080687992539, 61.132675003578143 ], [ 14.690871735360048, 61.13269234741842 ], [ 14.690766640199419, 61.132763363886639 ], [ 14.690839471428502, 61.132895118030689 ] ] } },
{ "type": "Feature", "properties": { "objektidentitet": "6ee06c9e-7ad8-487f-bf89-c7d7bdae16ef", "skapad": "2026-03-17T21:00:01", "objekttypnr": 1581, "objekttyp": "Vattendrag", "vattendragsid": "48aee7b3-64bc-4a56-a36d-6fc74540b393", "storleksklass": "1", "kanal": "Nej", "rotation": null }, "geometry": { "type": "LineString", "coordinates": [ [ 14.704013811494228, 61.134377326099596 ], [ 14.701766258657614, 61.13424148013538 ], [ 14.700657721911721, 61.13399132596161 ], [ 14.698006683128693, 61.134065705341769 ], [ 14.696350900379382, 61.133990329924323 ], [ 14.692961828533301, 61.133251512349695 ], [ 14.691183087695975, 61.132918059822593 ], [ 14.690839471428502, 61.132895118030689 ] ] } },
{ "type": "Feature", "properties": { "objektidentitet": "37d51e0c-59ba-4585-b3a5-199e5c0bdcc6", "skapad": "2026-03-17T21:00:01", "objekttypnr": 1581, "objekttyp": "Vattendrag", "vattendragsid": "0986479d-6ffc-4b2f-8157-3fb9f2180a35", "storleksklass": "1", "kanal": "Nej", "rotation": null }, "geometry": { "type": "LineString", "coordinates": [ [ 14.703933892615339, 61.142915976620841 ], [ 14.703314896081153, 61.143052899976489 ], [ 14.701562173807373, 61.143417278800122 ], [ 14.7002553812718, 61.143488933390479 ], [ 14.699549635209122, 61.143618488760275 ] ] } },
{ "type": "Feature", "properties": { "objektidentitet": "dee14cca-d18a-4211-8c66-304fff34653f", "skapad": "2026-03-17T21:00:01", "objekttypnr": 1581, "objekttyp": "Vattendrag", "vattendragsid": "eaa3c77c-c888-4719-ba75-483155f1e4c3", "storleksklass": "1", "kanal": "Nej", "rotation": null }, "geometry": { "type": "LineString", "coordinates": [ [ 14.703918868527181, 61.144520578066626 ], [ 14.703479172530797, 61.144514653721082 ], [ 14.703088134830915, 61.144594362980875 ], [ 14.702589217319574, 61.144865752164343 ], [ 14.702110709165076, 61.145020302640049 ], [ 14.701276531193297, 61.145081344352015 ], [ 14.701186121920157, 61.145153110557516 ], [ 14.701043909477264, 61.14546055469669 ], [ 14.700887209271867, 61.145634143863127 ], [ 14.700035234679206, 61.146024380672237 ], [ 14.69981844416, 61.146379168522486 ], [ 14.699625611679876, 61.146483574215608 ], [ 14.698562840102728, 61.146453524086859 ], [ 14.696564678569411, 61.146535820337313 ], [ 14.696232956320124, 61.146511904643155 ], [ 14.695990316549594, 61.146418754045037 ], [ 14.695400790660765, 61.14640505700752 ], [ 14.694959210405024, 61.146755560544513 ], [ 14.69429911392022, 61.147195059637632 ], [ 14.694007322647039, 61.14757235572776 ], [ 14.693885841013596, 61.147859908550352 ], [ 14.693900192323584, 61.148217561907032 ], [ 14.693593775225574, 61.148469458420067 ], [ 14.693609907096818, 61.148771498148399 ], [ 14.693393930145742, 61.149046420330343 ], [ 14.692762100347679, 61.149590297895386 ], [ 14.692630825959842, 61.149646909876644 ], [ 14.692001506366431, 61.149724654331571 ], [ 14.691399041516375, 61.149869413415246 ], [ 14.69064562758486, 61.149813566373403 ], [ 14.690463999649873, 61.149866936972622 ], [ 14.690265253776143, 61.149981784061751 ] ] } },
{ "type": "Feature", "properties": { "objektidentitet": "46d02e24-01fe-4e70-8906-2ae59d21b7ac", "skapad": "2026-03-17T21:00:01", "objekttypnr": 1581, "objekttyp": "Vattendrag", "vattendragsid": "7bd27058-08ee-4621-a03a-25f9a543d1f8", "storleksklass": "1", "kanal": "Nej", "rotation": null }, "geometry": { "type": "LineString", "coordinates": [ [ 14.699549635209122, 61.143618488760275 ], [ 14.699301795421281, 61.143727799416787 ], [ 14.699111652260735, 61.143736534324923 ], [ 14.698647301784273, 61.143678123968087 ], [ 14.698470158612494, 61.143729854401883 ], [ 14.698350076651849, 61.143979707914539 ], [ 14.698425865638539, 61.144494788445328 ], [ 14.698284879078381, 61.144782194128723 ], [ 14.698204814740304, 61.145121950094286 ], [ 14.697861506571201, 61.145215648339494 ], [ 14.696770185467333, 61.145285245510806 ], [ 14.695924723925168, 61.145619673981997 ], [ 14.694708195650001, 61.145398506063572 ], [ 14.694456170221478, 61.145395710696491 ], [ 14.692864277686704, 61.145195646779889 ], [ 14.69104877599737, 61.145271003921586 ], [ 14.689426209630557, 61.145431960855646 ], [ 14.689118526984213, 61.145499997178511 ], [ 14.688737100876784, 61.145488975839029 ], [ 14.688266984915511, 61.145426871600442 ], [ 14.687933022649888, 61.145451033348806 ], [ 14.687820887330217, 61.145490806812901 ], [ 14.687642858810907, 61.145723342510493 ], [ 14.687802939331029, 61.145989840322528 ], [ 14.68760367433995, 61.146431320682247 ], [ 14.687738328677471, 61.14686899305466 ], [ 14.687758623276309, 61.147165100343329 ], [ 14.687682442640593, 61.147344094153091 ], [ 14.687700824764965, 61.147435108380236 ], [ 14.687907757140808, 61.147683300427332 ], [ 14.68807382357692, 61.147786766343252 ], [ 14.689349841884493, 61.148232727374378 ], [ 14.689638204518783, 61.148956557862348 ], [ 14.68954362739008, 61.149274863566099 ], [ 14.68954276846743, 61.14957041013669 ], [ 14.689797972405124, 61.149814903475175 ], [ 14.690265253776143, 61.149981784061751 ] ] } },
{ "type": "Feature", "properties": { "objektidentitet": "a1142f72-8530-4a89-a800-fabc787c9004", "skapad": "2026-03-17T21:00:01", "objekttypnr": 1581, "objekttyp": "Vattendrag", "vattendragsid": "babcc722-cfab-4fe2-9e96-a8265a3d69cf", "storleksklass": "1", "kanal": "Nej", "rotation": null }, "geometry": { "type": "LineString", "coordinates": [ [ 14.672602949766567, 61.147547976101315 ], [ 14.672121425359533, 61.147697619385291 ], [ 14.672040566075202, 61.147808613466374 ], [ 14.672249174259111, 61.148078847195031 ], [ 14.672899100501002, 61.148635893110018 ], [ 14.672953241682253, 61.148783933015473 ], [ 14.672874082538177, 61.148967615635925 ], [ 14.672893277663562, 61.149137602668532 ], [ 14.67313152120758, 61.14931543549951 ], [ 14.673189954653889, 61.149407877256785 ], [ 14.673215731809151, 61.149581111992177 ], [ 14.673118916883102, 61.149849915574357 ], [ 14.673017737057862, 61.149978421620311 ], [ 14.672849065245151, 61.150047771332623 ], [ 14.67272026325581, 61.150174145401728 ], [ 14.672575322386773, 61.150355550058464 ], [ 14.672493771058857, 61.150599189397646 ], [ 14.672118672108509, 61.150771570494207 ], [ 14.672166177532134, 61.151065079447164 ], [ 14.672113985392031, 61.151128506844827 ], [ 14.671975314197949, 61.151182962244725 ], [ 14.671707566287816, 61.151222973432688 ], [ 14.671145287669786, 61.151484352539491 ], [ 14.670277157686247, 61.151768165011433 ], [ 14.670154822178056, 61.151837534644436 ], [ 14.67039301557632, 61.152159627040582 ], [ 14.670577180451364, 61.152311234326291 ], [ 14.671198844245943, 61.152652734345132 ], [ 14.671211742549575, 61.152793393652651 ], [ 14.671524988528702, 61.152854933892655 ], [ 14.671888169857326, 61.152984968932365 ], [ 14.671828169339197, 61.153100457339228 ], [ 14.671898735919607, 61.153164469327045 ], [ 14.672070646732397, 61.153185857981427 ] ] } },
{ "type": "Feature", "properties": { "objektidentitet": "3a6bbe43-46fe-49e2-bf8e-cfbca6b56c69", "skapad": "2026-03-17T21:00:01", "objekttypnr": 1581, "objekttyp": "Vattendrag", "vattendragsid": "7bd27058-08ee-4621-a03a-25f9a543d1f8", "storleksklass": "1", "kanal": "Nej", "rotation": null }, "geometry": { "type": "LineString", "coordinates": [ [ 14.676570570832878, 61.152935045065853 ], [ 14.676455577566058, 61.152975924530423 ], [ 14.67605343857165, 61.152997981733591 ], [ 14.675139546106003, 61.152823166865325 ], [ 14.674792088848193, 61.152824998929454 ], [ 14.674095665937854, 61.152892022044284 ], [ 14.672070646732397, 61.153185857981427 ] ] } },
{ "type": "Feature", "properties": { "objektidentitet": "6b2cffda-adea-4529-81f7-76f300b013bb", "skapad": "2026-03-17T21:00:01", "objekttypnr": 1581, "objekttyp": "Vattendrag", "vattendragsid": "babcc722-cfab-4fe2-9e96-a8265a3d69cf", "storleksklass": "1", "kanal": "Nej", "rotation": null }, "geometry": { "type": "LineString", "coordinates": [ [ 14.670835213400334, 61.153806420091442 ], [ 14.671029581084069, 61.154132059007679 ], [ 14.671236169680521, 61.154478169230075 ], [ 14.671230282447423, 61.154638677659683 ], [ 14.671015215382379, 61.154711862634905 ] ] } },
{ "type": "Feature", "properties": { "objektidentitet": "84f3e5d8-17cb-4bc6-904a-788373eca19a", "skapad": "2026-03-17T21:00:01", "objekttypnr": 1581, "objekttyp": "Vattendrag", "vattendragsid": "d4e0e775-5a89-4845-af13-9a591acc3ddc", "storleksklass": "1", "kanal": "Nej", "rotation": null }, "geometry": { "type": "LineString", "coordinates": [ [ 14.664103895337774, 61.148103345231085 ], [ 14.663753399954849, 61.147917038691709 ], [ 14.660203361926047, 61.147776208178584 ], [ 14.659482704884482, 61.147927567205208 ], [ 14.658848085104641, 61.148466189904802 ], [ 14.658502598060416, 61.148651069221032 ], [ 14.658000769794793, 61.148806680101089 ] ] } },
{ "type": "Feature", "properties": { "objektidentitet": "3f7023e7-96ab-4fe6-b8f7-8458b2312e53", "skapad": "2026-03-17T21:00:01", "objekttypnr": 1581, "objekttyp": "Vattendrag", "vattendragsid": "babcc722-cfab-4fe2-9e96-a8265a3d69cf", "storleksklass": "1", "kanal": "Nej", "rotation": null }, "geometry": { "type": "LineString", "coordinates": [ [ 14.672070646732397, 61.153185857981427 ], [ 14.671918556495356, 61.153275734112718 ], [ 14.67152291091339, 61.153380227644533 ], [ 14.671238527674562, 61.153360145225186 ], [ 14.670816427370161, 61.153679994236896 ], [ 14.670835213400334, 61.153806420091442 ] ] } },
{ "type": "Feature", "properties": { "objektidentitet": "29acd8f1-19ba-4ecb-b630-dba73544938b", "skapad": "2026-03-17T21:00:01", "objekttypnr": 1581, "objekttyp": "Vattendrag", "vattendragsid": "7bd27058-08ee-4621-a03a-25f9a543d1f8", "storleksklass": "1", "kanal": "Nej", "rotation": null }, "geometry": { "type": "LineString", "coordinates": [ [ 14.690265253776143, 61.149981784061751 ], [ 14.6892226639744, 61.150251672307661 ] ] } },
{ "type": "Feature", "properties": { "objektidentitet": "970b2314-b3e7-4aca-8a98-2c1aac3b32a1", "skapad": "2026-03-17T21:00:01", "objekttypnr": 1581, "objekttyp": "Vattendrag", "vattendragsid": "b1e4628e-f9ae-40bc-9935-1e04f58ec79f", "storleksklass": "1", "kanal": "Nej", "rotation": null }, "geometry": { "type": "LineString", "coordinates": [ [ 14.671485422693793, 61.143182852067433 ], [ 14.668260678829787, 61.142173378011179 ], [ 14.665990429825401, 61.14168635948036 ], [ 14.666005380131459, 61.14156680299525 ] ] } },
{ "type": "Feature", "properties": { "objektidentitet": "de7649ab-9453-4861-aae4-ecacb88b47ba", "skapad": "2026-03-17T21:00:01", "objekttypnr": 1581, "objekttyp": "Vattendrag", "vattendragsid": "907c4caf-7f8a-4a6e-9194-67c5ba3db994", "storleksklass": "1", "kanal": "Nej", "rotation": null }, "geometry": { "type": "LineString", "coordinates": [ [ 14.67849633634361, 61.154654531763079 ], [ 14.677926784646095, 61.154148644849322 ], [ 14.676570570832878, 61.152935045065853 ] ] } },
{ "type": "Feature", "properties": { "objektidentitet": "6257154b-6169-4081-9c38-ec8072e6c02d", "skapad": "2026-03-17T21:00:01", "objekttypnr": 1581, "objekttyp": "Vattendrag", "vattendragsid": "d8bd7eb4-41b1-4528-9322-fd3d90d16fe1", "storleksklass": "1", "kanal": "Nej", "rotation": null }, "geometry": { "type": "LineString", "coordinates": [ [ 14.683340056264058, 61.145765881589327 ], [ 14.67904957660083, 61.146679239466074 ], [ 14.678766599309096, 61.146829709077863 ], [ 14.677941170027507, 61.147021981948981 ], [ 14.677310026998624, 61.147228960669551 ], [ 14.676534670671757, 61.147243853354404 ], [ 14.67566435601606, 61.147356569710745 ], [ 14.674250008449103, 61.147718757620119 ], [ 14.673383354626942, 61.147606305100219 ], [ 14.67283208028593, 61.147601687545844 ], [ 14.672602949766567, 61.147547976101315 ] ] } },
{ "type": "Feature", "properties": { "objektidentitet": "d82475f4-575f-45b6-b1f4-76d2452d8196", "skapad": "2026-03-17T21:00:01", "objekttypnr": 1581, "objekttyp": "Vattendrag", "vattendragsid": "423bb866-80e5-468b-bea4-68f03a851b35", "storleksklass": "1", "kanal": "Nej", "rotation": null }, "geometry": { "type": "LineString", "coordinates": [ [ 14.667170151878082, 61.149823989818437 ], [ 14.667369118098836, 61.150402334061127 ], [ 14.666646675765627, 61.150843924832927 ], [ 14.66696890699823, 61.151051503267588 ], [ 14.665981322963509, 61.151877836323003 ], [ 14.66473556971685, 61.152142420201699 ], [ 14.66409433239815, 61.152353173114555 ], [ 14.663404540843874, 61.152408639027882 ], [ 14.662932974694673, 61.152346829655308 ], [ 14.662615908725483, 61.152079516115364 ], [ 14.662498707411912, 61.151850775335113 ], [ 14.662004764105482, 61.15189502414276 ] ] } },
{ "type": "Feature", "properties": { "objektidentitet": "6389d5c6-466f-4850-b5c5-d6ac12ef1508", "skapad": "2026-03-17T21:00:01", "objekttypnr": 1581, "objekttyp": "Vattendrag", "vattendragsid": "7bd27058-08ee-4621-a03a-25f9a543d1f8", "storleksklass": "1", "kanal": "Nej", "rotation": null }, "geometry": { "type": "LineString", "coordinates": [ [ 14.6892226639744, 61.150251672307661 ], [ 14.688798110625253, 61.150362263712275 ], [ 14.688137873329326, 61.150696126871374 ], [ 14.687436560754344, 61.150823798204392 ], [ 14.686587999046941, 61.151114296020083 ], [ 14.686132844844137, 61.151135192112953 ], [ 14.685917611683283, 61.151097085000423 ], [ 14.685209504334264, 61.151146002813995 ], [ 14.683839805638904, 61.151600030826955 ], [ 14.683531731820921, 61.151647970581628 ], [ 14.683273102246398, 61.151648604604887 ], [ 14.682829380781095, 61.151595575175882 ], [ 14.681731990755537, 61.151253657280513 ], [ 14.68144361611405, 61.151114712148775 ], [ 14.68126195349555, 61.150914968933684 ], [ 14.681166816852754, 61.150870888337259 ], [ 14.680951786116516, 61.15085216582694 ], [ 14.680396295886366, 61.150898679951794 ], [ 14.679696189085877, 61.151226473791937 ], [ 14.679232091304, 61.151329911890343 ], [ 14.677585691149963, 61.152133614439578 ], [ 14.677091614033449, 61.152259903200921 ], [ 14.676798674161073, 61.152454093769393 ], [ 14.676732151081071, 61.152662398952536 ], [ 14.676793786847416, 61.152783081742442 ], [ 14.676756579540946, 61.152927867248543 ], [ 14.676570570832878, 61.152935045065853 ] ] } },
{ "type": "Feature", "properties": { "objektidentitet": "fea60578-2555-4a6f-adf3-9f1fc263647b", "skapad": "2026-03-17T21:00:01", "objekttypnr": 1581, "objekttyp": "Vattendrag", "vattendragsid": "7c2e9140-1c10-45b0-91aa-fd0abb4bd87b", "storleksklass": "1", "kanal": "Nej", "rotation": null }, "geometry": { "type": "LineString", "coordinates": [ [ 14.670968994828694, 61.15064800255773 ], [ 14.671037738011622, 61.150822284896705 ], [ 14.670947915033922, 61.150886643706421 ], [ 14.669005621911429, 61.15120947148224 ], [ 14.668237266151378, 61.151512341394685 ], [ 14.667580022193471, 61.151918374242065 ], [ 14.668838747845058, 61.153458949734706 ], [ 14.669889213705503, 61.153820931975183 ], [ 14.670210511536895, 61.153845111106314 ], [ 14.670835213400334, 61.153806420091442 ] ] } },
{ "type": "Feature", "properties": { "objektidentitet": "f0a6402d-1d72-4518-90bd-bd6fcfafe0ea", "skapad": "2025-12-17T01:00:01", "objekttypnr": 1581, "objekttyp": "Vattendrag", "vattendragsid": "c18a3f67-6207-416c-a61d-4273851b8a9e", "storleksklass": "1", "kanal": "Nej", "rotation": null }, "geometry": { "type": "LineString", "coordinates": [ [ 14.632148109545009, 61.126324733748284 ], [ 14.628908863408467, 61.119127274319759 ], [ 14.628826219706282, 61.119038750507464 ], [ 14.628206615564924, 61.118375031410487 ], [ 14.627076107134901, 61.11786328792077 ], [ 14.626623559085484, 61.117911191322243 ] ] } },
{ "type": "Feature", "properties": { "objektidentitet": "36f68dd2-5d75-4d4d-8038-2e09a83ecde9", "skapad": "2026-03-17T21:00:01", "objekttypnr": 1581, "objekttyp": "Vattendrag", "vattendragsid": "869a6127-a2a3-4bdf-97b3-9243ab505034", "storleksklass": "1", "kanal": "Nej", "rotation": null }, "geometry": { "type": "LineString", "coordinates": [ [ 14.630728167969581, 61.153413812996455 ], [ 14.632017327347567, 61.153107455000708 ], [ 14.632204819006041, 61.152973827154945 ], [ 14.632559206193138, 61.15260643947758 ], [ 14.632589298018674, 61.152085844572035 ], [ 14.631061753184813, 61.149873805326401 ], [ 14.630152041779066, 61.148787629497988 ], [ 14.629351472834518, 61.146685467036576 ], [ 14.628510584240214, 61.145929465454401 ], [ 14.626316058996885, 61.143956276637212 ] ] } },
{ "type": "Feature", "properties": { "objektidentitet": "4b4d62ea-7004-46be-9e53-217b1ad7dcea", "skapad": "2026-03-17T21:00:01", "objekttypnr": 1581, "objekttyp": "Vattendrag", "vattendragsid": "44d28d3e-9c5b-4e9a-a13c-0ef8f8a860c5", "storleksklass": "1", "kanal": "Nej", "rotation": null }, "geometry": { "type": "LineString", "coordinates": [ [ 14.634780594316496, 61.15207178995913 ], [ 14.635408474792698, 61.151863042930479 ], [ 14.635115484883082, 61.151460218495757 ], [ 14.635955324767743, 61.150330190503034 ], [ 14.635751664634556, 61.1483146645947 ], [ 14.635995103270915, 61.148090398476981 ], [ 14.635163346528238, 61.147097520780029 ], [ 14.635613071861398, 61.146859051873498 ], [ 14.635837486811651, 61.146653507417064 ] ] } },
{ "type": "Feature", "properties": { "objektidentitet": "102d0e5e-4d53-42be-8128-ffe79bdf4eca", "skapad": "2025-09-02T21:00:01", "objekttypnr": 1581, "objekttyp": "Vattendrag", "vattendragsid": "7532eeae-5a72-4a22-b4f9-cb0bccc49ea9", "storleksklass": "1", "kanal": "Nej", "rotation": null }, "geometry": { "type": "LineString", "coordinates": [ [ 14.628143883812911, 61.154600884715258 ], [ 14.62826567901868, 61.154345046701373 ], [ 14.628411782669133, 61.154336075230709 ], [ 14.6286011149337, 61.154324438842117 ], [ 14.628774718320676, 61.154237740390002 ], [ 14.628866880561954, 61.154050366155758 ], [ 14.628945399568659, 61.154023244155994 ], [ 14.629680550627947, 61.153769291050516 ] ] } },
{ "type": "Feature", "properties": { "objektidentitet": "af3709d2-53f4-4be2-803d-d2b26ef78d4a", "skapad": "2025-12-17T01:00:01", "objekttypnr": 1581, "objekttyp": "Vattendrag", "vattendragsid": "41fd5a57-682b-4081-babc-d138a5cde45c", "storleksklass": "1", "kanal": "Nej", "rotation": null }, "geometry": { "type": "LineString", "coordinates": [ [ 14.639660564071878, 61.154013299559018 ], [ 14.639777222807917, 61.154052501863134 ], [ 14.641516536053365, 61.154636958637433 ] ] } },
{ "type": "Feature", "properties": { "objektidentitet": "92da1105-2fdd-4a88-8f7c-9fdd7128cc3e", "skapad": "2025-12-17T01:00:01", "objekttypnr": 1581, "objekttyp": "Vattendrag", "vattendragsid": "5b7a5717-0f2f-40c3-bb26-6aa438cb3fed", "storleksklass": "1", "kanal": "Nej", "rotation": null }, "geometry": { "type": "LineString", "coordinates": [ [ 14.644437619262261, 61.154644662712911 ], [ 14.645689652558923, 61.154341605527016 ] ] } },
{ "type": "Feature", "properties": { "objektidentitet": "2833663e-cac7-47c7-8772-0b00633a4cb5", "skapad": "2026-03-17T21:00:01", "objekttypnr": 1581, "objekttyp": "Vattendrag", "vattendragsid": "1a5fbc42-08c2-4004-bc54-91abdb1111ec", "storleksklass": "1", "kanal": "Nej", "rotation": null }, "geometry": { "type": "LineString", "coordinates": [ [ 14.654779712482064, 61.137839219649848 ], [ 14.653909854169719, 61.137806221691584 ], [ 14.653291651089745, 61.137900674718459 ], [ 14.650278945800162, 61.138057216268358 ], [ 14.649607488960806, 61.138141396728493 ], [ 14.64948627166434, 61.138139035885409 ], [ 14.649281071471286, 61.13803200036908 ], [ 14.648724536169633, 61.137889317912816 ], [ 14.64819708534263, 61.137833542149423 ], [ 14.647075816249615, 61.138316510639982 ], [ 14.644361671858782, 61.138499079143699 ], [ 14.643092239986062, 61.138208518697922 ], [ 14.642552670277682, 61.138007867721214 ], [ 14.642194318384876, 61.137691754615979 ], [ 14.642376446532774, 61.137350486447382 ], [ 14.642922101454861, 61.136918918221127 ], [ 14.643366568747002, 61.136716994401723 ], [ 14.644117977872032, 61.136523274234236 ], [ 14.644137217820258, 61.136419092243884 ], [ 14.643522930676886, 61.135936830059215 ], [ 14.643667834832803, 61.135876387068294 ], [ 14.644080732679004, 61.136036075744705 ], [ 14.644360881734341, 61.135936808369941 ], [ 14.644900210841481, 61.135323100759713 ], [ 14.644396859393046, 61.134350271130572 ], [ 14.643186449335637, 61.133508583134493 ], [ 14.642880538343535, 61.133062503207348 ], [ 14.639235871899123, 61.132864946489633 ], [ 14.638897782157573, 61.132645740027613 ], [ 14.639047795081449, 61.132058900769522 ], [ 14.638539231967581, 61.131588469513034 ], [ 14.63769396112864, 61.131125529578036 ], [ 14.636548748581578, 61.130801698250544 ], [ 14.636583688937016, 61.130134191881332 ], [ 14.636388738123564, 61.129910955018715 ], [ 14.634712523734702, 61.129245231334878 ], [ 14.634024236230291, 61.12905720697924 ], [ 14.633335215055892, 61.128563131606604 ], [ 14.632063231507258, 61.128351320946081 ], [ 14.631152244218129, 61.126441912010897 ], [ 14.632148109545009, 61.126324733748284 ] ] } },
{ "type": "Feature", "properties": { "objektidentitet": "824f0f11-4a3d-4f51-896c-9380a975bd7f", "skapad": "2025-12-17T01:00:01", "objekttypnr": 1581, "objekttyp": "Vattendrag", "vattendragsid": "c18a3f67-6207-416c-a61d-4273851b8a9e", "storleksklass": "1", "kanal": "Nej", "rotation": null }, "geometry": { "type": "LineString", "coordinates": [ [ 14.646114780246931, 61.124899959027189 ], [ 14.645989073510755, 61.12508441184503 ], [ 14.64573935023137, 61.125293695462801 ], [ 14.645208058875058, 61.125447314545674 ], [ 14.644887713991093, 61.125501211721748 ], [ 14.644364410240248, 61.125676772205068 ], [ 14.643631600080997, 61.125814502914764 ], [ 14.643131176348046, 61.125951846413734 ], [ 14.642902579620673, 61.126048463943413 ], [ 14.642735556404455, 61.126212362364228 ], [ 14.64241949918854, 61.126329280540752 ], [ 14.642004606190826, 61.126356238989587 ], [ 14.641334110578217, 61.126506583406645 ], [ 14.640676209967889, 61.126820659540606 ], [ 14.640245092829113, 61.127184893540047 ], [ 14.639825214292667, 61.127294778370697 ], [ 14.638278355065083, 61.127314747738488 ], [ 14.636963382597076, 61.127264253491582 ], [ 14.636357673743376, 61.126924656319481 ], [ 14.635746852731252, 61.126935160062182 ], [ 14.63364526506078, 61.126184836763599 ], [ 14.633233623401113, 61.126204630587473 ], [ 14.632148109545009, 61.126324733748284 ] ] } },
{ "type": "Feature", "properties": { "objektidentitet": "485f2e84-a286-4ec3-97ca-f1372b3441c2", "skapad": "2026-03-17T21:00:01", "objekttypnr": 1581, "objekttyp": "Vattendrag", "vattendragsid": "60e8a0d0-e035-4cb8-b5d8-b82be9707165", "storleksklass": "1", "kanal": "Nej", "rotation": null }, "geometry": { "type": "LineString", "coordinates": [ [ 14.637161719673712, 61.142140669325741 ], [ 14.637200832883854, 61.142033857447949 ], [ 14.637128932717518, 61.141785176693006 ], [ 14.636837317113837, 61.141464577657707 ] ] } },
{ "type": "Feature", "properties": { "objektidentitet": "6b51b8df-db1a-4fc7-8b6d-0913fd936dee", "skapad": "2026-03-17T21:00:01", "objekttypnr": 1581, "objekttyp": "Vattendrag", "vattendragsid": "42df2f92-00ab-4d8b-ab0d-2849c44acfbc", "storleksklass": "1", "kanal": "Nej", "rotation": null }, "geometry": { "type": "LineString", "coordinates": [ [ 14.637161719673712, 61.142140669325741 ], [ 14.637143319384872, 61.142175857795728 ] ] } },
{ "type": "Feature", "properties": { "objektidentitet": "054c29d8-2517-4fe9-b14f-a2bec6d4e64d", "skapad": "2026-03-17T21:00:01", "objekttypnr": 1581, "objekttyp": "Vattendrag", "vattendragsid": "215511cd-9a61-4792-ab1a-24d393c036b4", "storleksklass": "1", "kanal": "Nej", "rotation": null }, "geometry": { "type": "LineString", "coordinates": [ [ 14.638866435953556, 61.142372035569252 ], [ 14.638298341104337, 61.142579773097971 ], [ 14.638114991845233, 61.142570071696262 ], [ 14.637873757315395, 61.14210089247144 ], [ 14.637634368683338, 61.141918558665424 ], [ 14.637706848574924, 61.141710099400825 ] ] } },
{ "type": "Feature", "properties": { "objektidentitet": "bd12f0d3-faed-4258-948a-f4dfb6f63ca8", "skapad": "2026-03-17T21:00:01", "objekttypnr": 1581, "objekttyp": "Vattendrag", "vattendragsid": "e458577d-f539-42c0-bf0b-5d75dd97d02e", "storleksklass": "1", "kanal": "Nej", "rotation": null }, "geometry": { "type": "LineString", "coordinates": [ [ 14.640030640409377, 61.140472379754335 ], [ 14.639747563526203, 61.140313643750837 ], [ 14.639344048208018, 61.140215779084919 ] ] } },
{ "type": "Feature", "properties": { "objektidentitet": "1f9f2dce-c399-40fe-8f3c-a5fd0510096d", "skapad": "2026-03-17T21:00:01", "objekttypnr": 1581, "objekttyp": "Vattendrag", "vattendragsid": "e458577d-f539-42c0-bf0b-5d75dd97d02e", "storleksklass": "1", "kanal": "Nej", "rotation": null }, "geometry": { "type": "LineString", "coordinates": [ [ 14.654867609753511, 61.141412323517841 ], [ 14.651597103735584, 61.141118018090417 ], [ 14.64902947829337, 61.14199037339192 ], [ 14.647302321791626, 61.142414160529675 ], [ 14.647060517564725, 61.142205244899614 ], [ 14.646919369219395, 61.142208414085133 ], [ 14.646394028452347, 61.142363022815218 ], [ 14.64620517972199, 61.142609023866044 ], [ 14.645204714085784, 61.142520828391866 ], [ 14.644713947283547, 61.1425377748632 ], [ 14.641391235234149, 61.140945791852261 ] ] } },
{ "type": "Feature", "properties": { "objektidentitet": "6b95c7a1-d19f-44fb-a7c1-b501e1fa7354", "skapad": "2026-03-17T21:00:01", "objekttypnr": 1581, "objekttyp": "Vattendrag", "vattendragsid": "495c8024-fcb2-4534-839d-96d8868ea04e", "storleksklass": "1", "kanal": "Nej", "rotation": null }, "geometry": { "type": "LineString", "coordinates": [ [ 14.651760790591474, 61.122665924891734 ], [ 14.650549058749228, 61.123824136215077 ], [ 14.647877252729941, 61.123785040302522 ], [ 14.647554582582639, 61.124016312900146 ], [ 14.646322334515281, 61.124282889892179 ], [ 14.646174703866146, 61.124373251501154 ], [ 14.646084407977373, 61.124526895460541 ], [ 14.646114780246931, 61.124899959027189 ] ] } },
{ "type": "Feature", "properties": { "objektidentitet": "b5ec0912-3523-41dc-a2a5-5016e6f59097", "skapad": "2025-12-17T01:00:01", "objekttypnr": 1581, "objekttyp": "Vattendrag", "vattendragsid": "c18a3f67-6207-416c-a61d-4273851b8a9e", "storleksklass": "1", "kanal": "Nej", "rotation": null }, "geometry": { "type": "LineString", "coordinates": [ [ 14.651405476233689, 61.124885442490779 ], [ 14.648844313820549, 61.124842072132552 ], [ 14.647542322250445, 61.124667155879983 ], [ 14.646565397519801, 61.124752015158094 ], [ 14.646114780246931, 61.124899959027189 ] ] } },
{ "type": "Feature", "properties": { "objektidentitet": "278e9070-daea-46e7-8491-c671b503147e", "skapad": "2026-03-17T21:00:01", "objekttypnr": 1581, "objekttyp": "Vattendrag", "vattendragsid": "1312d6ff-5dca-4c48-8e04-51d04f87825d", "storleksklass": "1", "kanal": "Nej", "rotation": null }, "geometry": { "type": "LineString", "coordinates": [ [ 14.654835152920558, 61.121945612484041 ], [ 14.65212676604146, 61.124211816278368 ], [ 14.651405476233689, 61.124885442490779 ] ] } },
{ "type": "Feature", "properties": { "objektidentitet": "18c3e725-7150-496d-ae01-f23f2aafe18a", "skapad": "2025-12-17T01:00:01", "objekttypnr": 1581, "objekttyp": "Vattendrag", "vattendragsid": "c18a3f67-6207-416c-a61d-4273851b8a9e", "storleksklass": "1", "kanal": "Nej", "rotation": null }, "geometry": { "type": "LineString", "coordinates": [ [ 14.667430921630039, 61.126304610605857 ], [ 14.667192162655876, 61.126250012978403 ], [ 14.66699772454472, 61.126049759960772 ], [ 14.665751305128344, 61.125761074872862 ], [ 14.665067189655863, 61.125707149700247 ], [ 14.663776103024256, 61.125711928415427 ], [ 14.663037849296023, 61.125068329949102 ], [ 14.662358381573714, 61.124987711895564 ], [ 14.661715882098477, 61.124946352897219 ], [ 14.658905800978987, 61.12502180299979 ], [ 14.656761270553037, 61.125014062573641 ], [ 14.651405476233689, 61.124885442490779 ] ] } },
{ "type": "Feature", "properties": { "objektidentitet": "8525f21b-58f8-4e8a-aaf6-46d557fd1600", "skapad": "2026-03-17T21:00:01", "objekttypnr": 1581, "objekttyp": "Vattendrag", "vattendragsid": "1312d6ff-5dca-4c48-8e04-51d04f87825d", "storleksklass": "1", "kanal": "Nej", "rotation": null }, "geometry": { "type": "LineString", "coordinates": [ [ 14.65367939041659, 61.118967009616107 ], [ 14.652726648050864, 61.119910148399242 ], [ 14.654052385229072, 61.121186305905731 ] ] } },
{ "type": "Feature", "properties": { "objektidentitet": "edb789ed-3a6f-4a4c-8207-610e68193c5d", "skapad": "2026-03-17T21:00:01", "objekttypnr": 1581, "objekttyp": "Vattendrag", "vattendragsid": "1a5fbc42-08c2-4004-bc54-91abdb1111ec", "storleksklass": "1", "kanal": "Nej", "rotation": null }, "geometry": { "type": "LineString", "coordinates": [ [ 14.656855970431213, 61.13788860851276 ], [ 14.654779712482064, 61.137839219649848 ] ] } },
{ "type": "Feature", "properties": { "objektidentitet": "a47812dd-92d1-4051-b693-ab0cc1054f82", "skapad": "2026-03-17T21:00:01", "objekttypnr": 1581, "objekttyp": "Vattendrag", "vattendragsid": "9722bd6a-177e-4faf-bf26-c4df986a88dc", "storleksklass": "1", "kanal": "Nej", "rotation": null }, "geometry": { "type": "LineString", "coordinates": [ [ 14.660380972667063, 61.140773415267333 ], [ 14.659333118702207, 61.140784696995233 ], [ 14.656730524598203, 61.139877413187193 ], [ 14.655044725886093, 61.139119295882374 ], [ 14.654779712482064, 61.137839219649848 ] ] } },
{ "type": "Feature", "properties": { "objektidentitet": "b386525c-6478-4876-9588-211eaa36c031", "skapad": "2026-03-17T21:00:01", "objekttypnr": 1581, "objekttyp": "Vattendrag", "vattendragsid": "c12d3888-42a8-4a29-a528-7c931546ce3c", "storleksklass": "1", "kanal": "Nej", "rotation": null }, "geometry": { "type": "LineString", "coordinates": [ [ 14.664057719337874, 61.135814410408102 ], [ 14.660577457196611, 61.136108474978201 ], [ 14.656695281774642, 61.136865870775885 ], [ 14.656855970431213, 61.13788860851276 ] ] } },
{ "type": "Feature", "properties": { "objektidentitet": "c02d48fc-e94e-471e-921e-6ee831cb7796", "skapad": "2026-03-17T21:00:01", "objekttypnr": 1581, "objekttyp": "Vattendrag", "vattendragsid": "1a5fbc42-08c2-4004-bc54-91abdb1111ec", "storleksklass": "1", "kanal": "Nej", "rotation": null }, "geometry": { "type": "LineString", "coordinates": [ [ 14.666301130400905, 61.134962033320548 ], [ 14.667607053587096, 61.136019735998737 ], [ 14.664468338902569, 61.136755109223039 ], [ 14.661907366079474, 61.137019514471532 ], [ 14.660936645021065, 61.137257646068754 ], [ 14.656855970431213, 61.13788860851276 ] ] } },
{ "type": "Feature", "properties": { "objektidentitet": "8cd4076b-834c-4d3e-b2d1-4a78d6e7ca52", "skapad": "2026-03-17T21:00:01", "objekttypnr": 1581, "objekttyp": "Vattendrag", "vattendragsid": "cab14dd6-432d-475a-8fb2-8392b7fdf5dd", "storleksklass": "1", "kanal": "Nej", "rotation": null }, "geometry": { "type": "LineString", "coordinates": [ [ 14.664388265742705, 61.134243961632436 ], [ 14.66457434030505, 61.134245006614336 ], [ 14.665734173420024, 61.134541864171482 ], [ 14.666301130400905, 61.134962033320548 ] ] } },
{ "type": "Feature", "properties": { "objektidentitet": "63fbde44-5f8b-435d-8d97-119743010497", "skapad": "2026-03-17T21:00:01", "objekttypnr": 1581, "objekttyp": "Vattendrag", "vattendragsid": "25f1c7fd-66a4-4de7-80e6-229f0f9944f9", "storleksklass": "1", "kanal": "Nej", "rotation": null }, "geometry": { "type": "LineString", "coordinates": [ [ 14.666005380131459, 61.14156680299525 ], [ 14.665151376940782, 61.141609518874176 ] ] } },
{ "type": "Feature", "properties": { "objektidentitet": "7c19ec1f-bd01-498f-8331-0ce535361fcf", "skapad": "2026-03-17T21:00:01", "objekttypnr": 1581, "objekttyp": "Vattendrag", "vattendragsid": "1a5fbc42-08c2-4004-bc54-91abdb1111ec", "storleksklass": "1", "kanal": "Nej", "rotation": null }, "geometry": { "type": "LineString", "coordinates": [ [ 14.665658548252491, 61.13325397216898 ], [ 14.667531663106221, 61.133968759255161 ], [ 14.666630012311309, 61.134376790823261 ], [ 14.666659151168281, 61.134652858414356 ], [ 14.666388919411789, 61.134779048880347 ], [ 14.666301130400905, 61.134962033320548 ] ] } },
{ "type": "Feature", "properties": { "objektidentitet": "ae66eeed-0f13-4d4b-9e3b-80aed2c9e762", "skapad": "2026-03-17T21:00:01", "objekttypnr": 1581, "objekttyp": "Vattendrag", "vattendragsid": "25f1c7fd-66a4-4de7-80e6-229f0f9944f9", "storleksklass": "1", "kanal": "Nej", "rotation": null }, "geometry": { "type": "LineString", "coordinates": [ [ 14.671974922698929, 61.142419167131848 ], [ 14.670299739000649, 61.142151930367213 ], [ 14.66824654086426, 61.141481603919516 ], [ 14.66607822381364, 61.141367657704812 ], [ 14.666005380131459, 61.14156680299525 ] ] } },
{ "type": "Feature", "properties": { "objektidentitet": "14440d6d-a746-491e-a70b-bbbfed2c1691", "skapad": "2026-03-17T21:00:01", "objekttypnr": 1581, "objekttyp": "Vattendrag", "vattendragsid": "08fbf973-2cf4-4584-9fa8-b852915e6745", "storleksklass": "1", "kanal": "Nej", "rotation": null }, "geometry": { "type": "LineString", "coordinates": [ [ 14.677410364339456, 61.131477055264035 ], [ 14.675910436929978, 61.131206308911018 ], [ 14.674234553358755, 61.130655805016275 ], [ 14.671311007108743, 61.1288815688889 ], [ 14.670005435019435, 61.128436664099318 ], [ 14.668585103240087, 61.127615663626806 ], [ 14.668387921728957, 61.127438209686744 ], [ 14.668105695532292, 61.126795962623298 ], [ 14.667430921630039, 61.126304610605857 ] ] } },
{ "type": "Feature", "properties": { "objektidentitet": "48b805bb-85d6-44f7-8818-50531a57aa35", "skapad": "2025-12-17T01:00:01", "objekttypnr": 1581, "objekttyp": "Vattendrag", "vattendragsid": "c18a3f67-6207-416c-a61d-4273851b8a9e", "storleksklass": "1", "kanal": "Nej", "rotation": null }, "geometry": { "type": "LineString", "coordinates": [ [ 14.677933767597256, 61.127431141600759 ], [ 14.676456087869003, 61.126981786595508 ], [ 14.673875229148022, 61.126331817570659 ], [ 14.672874486385179, 61.125941155818069 ], [ 14.671247420866489, 61.126421457028123 ], [ 14.669834787509203, 61.126542332810629 ], [ 14.669378264006797, 61.126572469557367 ], [ 14.667430921630039, 61.126304610605857 ] ] } },
{ "type": "Feature", "properties": { "objektidentitet": "1ff02c22-aa08-485d-a699-cc978293b2f5", "skapad": "2026-03-17T21:00:01", "objekttypnr": 1581, "objekttyp": "Vattendrag", "vattendragsid": "8601a592-0718-4663-89b0-31ae9908cc27", "storleksklass": "1", "kanal": "Nej", "rotation": null }, "geometry": { "type": "LineString", "coordinates": [ [ 14.665664392257703, 61.138767176598812 ], [ 14.665094111914096, 61.139823190018923 ], [ 14.665151376940782, 61.141609518874176 ] ] } },
{ "type": "Feature", "properties": { "objektidentitet": "ed33b936-7de4-4d79-a259-1d7d888749ed", "skapad": "2026-03-17T21:00:01", "objekttypnr": 1581, "objekttyp": "Vattendrag", "vattendragsid": "9d8828fe-3ac2-4fdd-a4de-7a6b4a3cfa71", "storleksklass": "1", "kanal": "Nej", "rotation": null }, "geometry": { "type": "LineString", "coordinates": [ [ 14.670617753305509, 61.136529702567856 ], [ 14.672016738377907, 61.137565422166809 ], [ 14.672507188388218, 61.138249847536819 ], [ 14.672073874520628, 61.139410471640382 ], [ 14.676492093061052, 61.140020517508006 ], [ 14.677005058354554, 61.140141057801543 ] ] } },
{ "type": "Feature", "properties": { "objektidentitet": "5ed0e60f-d36e-4c1f-9a48-3948091980ce", "skapad": "2026-03-17T21:00:01", "objekttypnr": 1581, "objekttyp": "Vattendrag", "vattendragsid": "babcc722-cfab-4fe2-9e96-a8265a3d69cf", "storleksklass": "1", "kanal": "Nej", "rotation": null }, "geometry": { "type": "LineString", "coordinates": [ [ 14.70412024055809, 61.12299801963033 ], [ 14.703430404743202, 61.123078659498709 ], [ 14.699057610512437, 61.123868951964234 ] ] } },
{ "type": "Feature", "properties": { "objektidentitet": "36dcacdd-4e2e-4546-a53a-e80984186f77", "skapad": "2026-03-17T21:00:01", "objekttypnr": 1581, "objekttyp": "Vattendrag", "vattendragsid": "7bd27058-08ee-4621-a03a-25f9a543d1f8", "storleksklass": "1", "kanal": "Nej", "rotation": null }, "geometry": { "type": "LineString", "coordinates": [ [ 14.703970445609663, 61.139011261447585 ], [ 14.702686014898051, 61.139398837363203 ], [ 14.701574557859528, 61.140632918997106 ], [ 14.702046499909066, 61.142221167936547 ], [ 14.700378577800238, 61.14257340954169 ], [ 14.700077193066006, 61.142736730304826 ], [ 14.699653007630319, 61.143030520969845 ], [ 14.699549635209122, 61.143618488760275 ] ] } },
{ "type": "Feature", "properties": { "objektidentitet": "b0e1092b-6f00-4763-b476-2fecba43cc7d", "skapad": "2026-03-17T21:00:01", "objekttypnr": 1581, "objekttyp": "Vattendrag", "vattendragsid": "babcc722-cfab-4fe2-9e96-a8265a3d69cf", "storleksklass": "1", "kanal": "Nej", "rotation": null }, "geometry": { "type": "LineString", "coordinates": [ [ 14.690839471428502, 61.132895118030689 ], [ 14.69069271177429, 61.133326893131709 ], [ 14.690589790741118, 61.133403157597591 ], [ 14.689741004747225, 61.133589244983874 ], [ 14.689194321130358, 61.133913067278897 ], [ 14.688798783321177, 61.134086156945969 ], [ 14.688176509486077, 61.13421043129798 ], [ 14.687518354739952, 61.134400804619453 ], [ 14.687177539003759, 61.134643440974813 ], [ 14.687214332838996, 61.134755021360526 ], [ 14.687095367361406, 61.134942759216699 ], [ 14.68680619942163, 61.135174139476767 ], [ 14.686436175215176, 61.135237473702063 ], [ 14.686280616746041, 61.135234949503939 ], [ 14.685802305193388, 61.135366971542702 ], [ 14.68560794771585, 61.135774489039335 ], [ 14.685698710981319, 61.13623232505023 ], [ 14.68566108895129, 61.136348347623112 ], [ 14.685542359764899, 61.136550000391118 ], [ 14.68514070510229, 61.136899478801276 ], [ 14.68397702629551, 61.137224688816971 ], [ 14.683592441447328, 61.137277854418116 ], [ 14.683229465587981, 61.137283244832531 ], [ 14.682843984588949, 61.137370001164179 ], [ 14.682359178340946, 61.137593048636937 ], [ 14.681969403796103, 61.13789569020674 ], [ 14.681451588640591, 61.13813490664019 ], [ 14.681122118644387, 61.138228999172121 ], [ 14.680468730007876, 61.138194257758023 ], [ 14.679815060974247, 61.138266258928461 ], [ 14.678884740385417, 61.138527606561247 ], [ 14.678686359439871, 61.138627678049403 ], [ 14.678656501333322, 61.138707823738478 ], [ 14.678310307143182, 61.138781498992763 ], [ 14.678118548669772, 61.138777936612861 ], [ 14.678052681309071, 61.13886532247929 ], [ 14.678075592399809, 61.139095675487333 ], [ 14.67823216356836, 61.139287041381273 ], [ 14.678234936041118, 61.13936864733634 ], [ 14.678135978433215, 61.139415545431454 ], [ 14.677599703706502, 61.13952560250808 ], [ 14.677377275216214, 61.139675468292317 ], [ 14.677005058354554, 61.140141057801543 ] ] } },
{ "type": "Feature", "properties": { "objektidentitet": "bf4c6919-a6b4-4160-81ce-3aa8c0151508", "skapad": "2026-03-17T21:00:01", "objekttypnr": 1581, "objekttyp": "Vattendrag", "vattendragsid": "babcc722-cfab-4fe2-9e96-a8265a3d69cf", "storleksklass": "1", "kanal": "Nej", "rotation": null }, "geometry": { "type": "LineString", "coordinates": [ [ 14.677005058354554, 61.140141057801543 ], [ 14.679061763025594, 61.140645681991792 ], [ 14.679324471385794, 61.140860308476903 ], [ 14.679480143671315, 61.141068683538641 ], [ 14.679724783433315, 61.14116454410793 ], [ 14.680482251600717, 61.141361188732667 ], [ 14.681296265606807, 61.141520650520803 ], [ 14.681725383992562, 61.141698334239187 ], [ 14.682175922811306, 61.141783425342936 ], [ 14.682250135300393, 61.141999865507366 ], [ 14.682205461313872, 61.142335143863953 ], [ 14.682263208371591, 61.142482479261389 ], [ 14.681962228429079, 61.142664667895481 ], [ 14.681274604728879, 61.142739262792851 ], [ 14.680763649021255, 61.142737672434649 ], [ 14.680336486641535, 61.142685311163646 ], [ 14.679390525041475, 61.142764160704168 ], [ 14.678969134960665, 61.142763592734667 ], [ 14.678863023439028, 61.142798901997821 ], [ 14.678828387644518, 61.14285354849239 ], [ 14.679046093326024, 61.142985688454914 ], [ 14.679067856898538, 61.143143434702104 ], [ 14.679017831452278, 61.143202838855935 ], [ 14.678827616426171, 61.143280557204193 ], [ 14.678451340539704, 61.143368768451282 ], [ 14.677217282004168, 61.143396965643504 ], [ 14.676914054066817, 61.143455513372452 ], [ 14.676603718922692, 61.143653199471864 ], [ 14.676605101759344, 61.14373044772217 ], [ 14.676764269503783, 61.143830885345402 ], [ 14.676748023032699, 61.143937583559023 ], [ 14.676644592340585, 61.144096970616538 ], [ 14.676358109255524, 61.144271729738861 ], [ 14.676325930649037, 61.144601056681758 ], [ 14.675729678067933, 61.145269085399669 ], [ 14.675808941943604, 61.145402379885034 ], [ 14.676036570399337, 61.14558900747484 ], [ 14.676069927150321, 61.145859408660897 ], [ 14.675556817464269, 61.14612801600817 ], [ 14.674452578880747, 61.146515171089959 ], [ 14.673846194431421, 61.146859750828618 ], [ 14.673461904346318, 61.146999021614263 ], [ 14.672882729070036, 61.147422801906025 ], [ 14.672602949766567, 61.147547976101315 ] ] } },
{ "type": "Feature", "properties": { "objektidentitet": "d1354ece-2174-4d01-9d0e-ae5085d25a2e", "skapad": "2026-03-17T21:00:01", "objekttypnr": 1581, "objekttyp": "Vattendrag", "vattendragsid": "8601a592-0718-4663-89b0-31ae9908cc27", "storleksklass": "1", "kanal": "Nej", "rotation": null }, "geometry": { "type": "LineString", "coordinates": [ [ 14.665151376940782, 61.141609518874176 ], [ 14.665264514210985, 61.141978319479236 ], [ 14.665408167732027, 61.142996676097141 ], [ 14.66569682862456, 61.143885446055641 ], [ 14.665673822259281, 61.143941114408406 ], [ 14.665382579466485, 61.144028215545532 ], [ 14.663778480836932, 61.144292209146911 ], [ 14.661542322405452, 61.144329306758323 ], [ 14.66077805317463, 61.144930180531162 ], [ 14.659841129714984, 61.145522006591932 ], [ 14.659786360935669, 61.145650817076088 ], [ 14.659867409924139, 61.145853748341978 ], [ 14.659824029210737, 61.145944368807292 ], [ 14.659497808343932, 61.146156115768797 ], [ 14.659164513204047, 61.146263773703026 ], [ 14.658825462849462, 61.146611967148424 ], [ 14.658098361274753, 61.14660534699162 ], [ 14.65772772599076, 61.146561541283972 ], [ 14.657214651085557, 61.146407117509831 ], [ 14.656818360391966, 61.146387942307108 ] ] } },
{ "type": "Feature", "properties": { "objektidentitet": "ab7b8d4b-a562-4ced-9742-3e3f9dd184d9", "skapad": "2026-03-17T21:00:01", "objekttypnr": 1581, "objekttyp": "Vattendrag", "vattendragsid": "ea2438fd-ac39-4d5f-9120-37344153c45f", "storleksklass": "1", "kanal": "Nej", "rotation": null }, "geometry": { "type": "LineString", "coordinates": [ [ 14.703873914100322, 61.149320674544612 ], [ 14.702965520598934, 61.149447326158594 ], [ 14.702563223542512, 61.14943570517601 ], [ 14.702254618895823, 61.149373681765525 ], [ 14.701082712691189, 61.148873083660902 ], [ 14.700209087554892, 61.148851750429728 ], [ 14.699388481344974, 61.148978752446595 ], [ 14.698291597614345, 61.149411635255582 ], [ 14.696999252359126, 61.149718840778398 ], [ 14.696689498240758, 61.150100797476838 ], [ 14.696313615027972, 61.150297690331065 ], [ 14.695963834835252, 61.150659965989071 ], [ 14.695649136698407, 61.151203922514348 ], [ 14.695275797099146, 61.151354609309912 ], [ 14.694953155547356, 61.151416421779288 ], [ 14.694652283386786, 61.151409261310278 ], [ 14.693976135031873, 61.151218473985708 ], [ 14.693642446964015, 61.150859622789511 ], [ 14.692366650624168, 61.150268792715515 ], [ 14.6921898232921, 61.150216445211861 ], [ 14.691913497200941, 61.150187060704361 ], [ 14.691429311896359, 61.15025679255308 ], [ 14.690171664008098, 61.150345618565218 ], [ 14.689770236054681, 61.150333719362862 ], [ 14.6892226639744, 61.150251672307661 ] ] } },
{ "type": "Feature", "properties": { "objektidentitet": "f1c2a7c8-fe79-444e-b43c-d9dcac42bd8a", "skapad": "2026-03-17T21:00:01", "objekttypnr": 1596, "objekttyp": "Strömriktningspil, liten", "vattendragsid": null, "storleksklass": null, "kanal": null, "rotation": 119.39 }, "geometry": { "type": "Point", "coordinates": [ 14.666185685199096, 61.151706855668621 ] } },
{ "type": "Feature", "properties": { "objektidentitet": "adf7937c-31eb-451f-ba96-34981e669692", "skapad": "2026-03-17T21:00:01", "objekttypnr": 1596, "objekttyp": "Strömriktningspil, liten", "vattendragsid": null, "storleksklass": null, "kanal": null, "rotation": 44.71 }, "geometry": { "type": "Point", "coordinates": [ 14.688711911674293, 61.148009780062701 ] } },
{ "type": "Feature", "properties": { "objektidentitet": "fcc7e328-9c04-4106-9033-ef402afc5e43", "skapad": "2026-03-17T21:00:01", "objekttypnr": 1596, "objekttyp": "Strömriktningspil, liten", "vattendragsid": null, "storleksklass": null, "kanal": null, "rotation": 183.03 }, "geometry": { "type": "Point", "coordinates": [ 14.661392256145534, 61.147823385419407 ] } },
{ "type": "Feature", "properties": { "objektidentitet": "85d9c15d-83d4-43b1-a79c-1b87577ad343", "skapad": "2026-03-17T21:00:01", "objekttypnr": 1596, "objekttyp": "Strömriktningspil, liten", "vattendragsid": null, "storleksklass": null, "kanal": null, "rotation": 248.04 }, "geometry": { "type": "Point", "coordinates": [ 14.630668723038506, 61.149404549708152 ] } },
{ "type": "Feature", "properties": { "objektidentitet": "9630529e-9a87-467a-b41f-c201d6933355", "skapad": "2026-03-17T21:00:01", "objekttypnr": 1596, "objekttyp": "Strömriktningspil, liten", "vattendragsid": null, "storleksklass": null, "kanal": null, "rotation": 101.32 }, "geometry": { "type": "Point", "coordinates": [ 14.700725888073251, 61.120579287506153 ] } },
{ "type": "Feature", "properties": { "objektidentitet": "99d89117-f0c7-4c8b-a8e4-8397d0f4b9ed", "skapad": "2026-03-17T21:00:01", "objekttypnr": 1596, "objekttyp": "Strömriktningspil, liten", "vattendragsid": null, "storleksklass": null, "kanal": null, "rotation": 158.42 }, "geometry": { "type": "Point", "coordinates": [ 14.702514010118334, 61.143219403466659 ] } },
{ "type": "Feature", "properties": { "objektidentitet": "0479f1c6-6389-4885-a90f-00ecde55f056", "skapad": "2026-03-17T21:00:01", "objekttypnr": 1596, "objekttyp": "Strömriktningspil, liten", "vattendragsid": null, "storleksklass": null, "kanal": null, "rotation": 190.32 }, "geometry": { "type": "Point", "coordinates": [ 14.662256489015787, 61.124981155152959 ] } },
{ "type": "Feature", "properties": { "objektidentitet": "c1cf461c-cbcc-443c-a966-c44a5bc7ad04", "skapad": "2026-03-17T21:00:01", "objekttypnr": 1596, "objekttyp": "Strömriktningspil, liten", "vattendragsid": null, "storleksklass": null, "kanal": null, "rotation": 144.21 }, "geometry": { "type": "Point", "coordinates": [ 14.643300417855251, 61.125905401344745 ] } },
{ "type": "Feature", "properties": { "objektidentitet": "50f4e681-577b-4ac2-b1ee-6e07546143ff", "skapad": "2026-03-17T21:00:01", "objekttypnr": 1596, "objekttyp": "Strömriktningspil, liten", "vattendragsid": null, "storleksklass": null, "kanal": null, "rotation": 207.64 }, "geometry": { "type": "Point", "coordinates": [ 14.673569852873285, 61.126212609961748 ] } },
{ "type": "Feature", "properties": { "objektidentitet": "605b3b25-1d99-44f1-984e-28dbcb13f906", "skapad": "2026-03-17T21:00:01", "objekttypnr": 1596, "objekttyp": "Strömriktningspil, liten", "vattendragsid": null, "storleksklass": null, "kanal": null, "rotation": 259.92 }, "geometry": { "type": "Point", "coordinates": [ 14.631887788536499, 61.12798361417773 ] } },
{ "type": "Feature", "properties": { "objektidentitet": "f7810de7-30b8-4637-9820-e4cf6ce2644a", "skapad": "2026-03-17T21:00:01", "objekttypnr": 1596, "objekttyp": "Strömriktningspil, liten", "vattendragsid": null, "storleksklass": null, "kanal": null, "rotation": 226.47 }, "geometry": { "type": "Point", "coordinates": [ 14.671532884968901, 61.129016227256578 ] } },
{ "type": "Feature", "properties": { "objektidentitet": "9102c97a-ddf5-4974-801d-80b033f706a9", "skapad": "2026-03-17T21:00:01", "objekttypnr": 1596, "objekttyp": "Strömriktningspil, liten", "vattendragsid": null, "storleksklass": null, "kanal": null, "rotation": 126.0 }, "geometry": { "type": "Point", "coordinates": [ 14.689266541955497, 61.133870283399027 ] } },
{ "type": "Feature", "properties": { "objektidentitet": "f2608dd1-820f-470b-8495-878197b09309", "skapad": "2026-03-17T21:00:01", "objekttypnr": 1596, "objekttyp": "Strömriktningspil, liten", "vattendragsid": null, "storleksklass": null, "kanal": null, "rotation": 14.98 }, "geometry": { "type": "Point", "coordinates": [ 14.675126139555578, 61.139831934562729 ] } },
{ "type": "Feature", "properties": { "objektidentitet": "3298406f-379d-43f2-a1dc-427757bc1ab7", "skapad": "2026-03-17T21:00:01", "objekttypnr": 1596, "objekttyp": "Strömriktningspil, liten", "vattendragsid": null, "storleksklass": null, "kanal": null, "rotation": 225.5 }, "geometry": { "type": "Point", "coordinates": [ 14.641987808581099, 61.141231644842406 ] } },
{ "type": "Feature", "properties": { "objektidentitet": "453f723a-9ed0-4e8a-89e3-a75e139d0d9d", "skapad": "2026-03-17T21:00:01", "objekttypnr": 1596, "objekttyp": "Strömriktningspil, liten", "vattendragsid": null, "storleksklass": null, "kanal": null, "rotation": 127.01 }, "geometry": { "type": "Point", "coordinates": [ 14.660538720455252, 61.145081359129776 ] } },
{ "type": "Feature", "properties": { "objektidentitet": "ff14b55e-0e2c-4c9e-bb1a-9ac93bb681b4", "skapad": "2026-03-17T21:00:01", "objekttypnr": 1903, "objekttyp": "Dammbyggnad", "vattendragsid": null, "storleksklass": null, "kanal": null, "rotation": null }, "geometry": { "type": "LineString", "coordinates": [ [ 14.632566915829983, 61.140613966012907 ], [ 14.633113373625953, 61.140534621150636 ], [ 14.633129032725837, 61.140551946065052 ], [ 14.633183143341963, 61.140541301449758 ], [ 14.633275229960619, 61.14050526248964 ], [ 14.63333685152524, 61.140477885585035 ], [ 14.633397643586349, 61.140457984996793 ], [ 14.633434128797942, 61.140426580648096 ], [ 14.633370224556531, 61.140405776471844 ], [ 14.633598831755725, 61.140157853831312 ] ] } },
{ "type": "Feature", "properties": { "objektidentitet": "2fa91c6e-566d-499a-939a-e225501a489c", "skapad": "2026-03-17T21:00:01", "objekttypnr": 1923, "objekttyp": "Dammbyggnad, punkt", "vattendragsid": null, "storleksklass": null, "kanal": null, "rotation": 330.5 }, "geometry": { "type": "Point", "coordinates": [ 14.641291337326887, 61.146424243623549 ] } }
]
}
