{
"type": "FeatureCollection",
"name": "orsa_stackmora_3_12_topografi_mark",
"crs": { "type": "name", "properties": { "name": "urn:ogc:def:crs:OGC:1.3:CRS84" } },
"features": [
{ "type": "Feature", "properties": { "objektidentitet": "11318a57-a259-4af7-8c9c-eb9856ba66ba", "skapad": "2026-03-17T21:00:01", "objekttypnr": 2645, "objekttyp": "Barr- och blandskog", "vattenytaid": null, "hojd_over_havet": null, "reglerat_vatten": "Ingen information" }, "geometry": { "type": "MultiPolygon", "coordinates": [ [ [ [ 14.675722834501824, 61.134353810452708 ], [ 14.674590120122147, 61.134921208460327 ], [ 14.674817765897938, 61.13532752541586 ], [ 14.674004733876696, 61.135698569830936 ], [ 14.673466642656951, 61.135341742567995 ], [ 14.673149905354542, 61.134917485684383 ], [ 14.673079034635299, 61.134640457106812 ], [ 14.672856578780562, 61.134584149276201 ], [ 14.672791005378963, 61.134719770972524 ], [ 14.672712657025171, 61.13474945060409 ], [ 14.672480173975705, 61.134777473592159 ], [ 14.672012119032285, 61.13449738129983 ], [ 14.672157982129102, 61.134424502994008 ], [ 14.672356828319137, 61.134492300090656 ], [ 14.672405090046096, 61.134493700819483 ], [ 14.672448608067908, 61.134465499292645 ], [ 14.672490736693108, 61.134345505045147 ], [ 14.6725543050947, 61.13429962079406 ], [ 14.672650834561091, 61.134271313773532 ], [ 14.672780204445663, 61.134229197743032 ], [ 14.672514447156214, 61.133778793531931 ], [ 14.672239870178796, 61.133761070913089 ], [ 14.672026022782433, 61.134182554536473 ], [ 14.671194721159917, 61.134597816448654 ], [ 14.671088307913845, 61.134846072444454 ], [ 14.671272914200246, 61.134951247230823 ], [ 14.67147174410681, 61.134847300131625 ], [ 14.67268419894406, 61.134874424706922 ], [ 14.672578771358957, 61.135258123367471 ], [ 14.672294146042214, 61.135445537250675 ], [ 14.671279848487718, 61.135420372172803 ], [ 14.670350279285389, 61.135373886106429 ], [ 14.670149143877026, 61.135206758866225 ], [ 14.669741400387034, 61.134954493409104 ], [ 14.669349667646539, 61.13474499123182 ], [ 14.669319026109996, 61.134507399566445 ], [ 14.670194826301733, 61.134360388744966 ], [ 14.670309984563053, 61.134007545533443 ], [ 14.669818045034692, 61.134122410872465 ], [ 14.669506915406778, 61.134109172278421 ], [ 14.669444861175108, 61.134013344090476 ], [ 14.669501200479848, 61.133703603802175 ], [ 14.669284050014667, 61.133707633904535 ], [ 14.668937270661733, 61.134095803177381 ], [ 14.668706207022261, 61.13411254692101 ], [ 14.668637224343064, 61.134201563454084 ], [ 14.668687109083589, 61.134329816900348 ], [ 14.668115702224823, 61.134627422631475 ], [ 14.667707652582461, 61.134733553180261 ], [ 14.666915229473656, 61.134632723195452 ], [ 14.66678694929363, 61.13457753499825 ], [ 14.666726530547182, 61.134380036077062 ], [ 14.667210401184009, 61.134179387990955 ], [ 14.666908917564296, 61.133976627391327 ], [ 14.666791061912457, 61.133786977454477 ], [ 14.666404313379116, 61.133653862089226 ], [ 14.666072906018185, 61.133560483413355 ], [ 14.665840365226181, 61.133530964868619 ], [ 14.66500992967366, 61.134279187015181 ], [ 14.665074710481996, 61.134356547549316 ], [ 14.665805681931962, 61.134574908657981 ], [ 14.666176017386235, 61.134895262142415 ], [ 14.66605838949407, 61.135092178437347 ], [ 14.665765552408352, 61.135167551148562 ], [ 14.664962589652555, 61.135211109750401 ], [ 14.664155770847021, 61.135336082803015 ], [ 14.663820065319049, 61.135032876649134 ], [ 14.663919600461462, 61.134535627607136 ], [ 14.66421936794009, 61.1342287832449 ], [ 14.664197773651768, 61.134176326131609 ], [ 14.663875344144104, 61.134012246025648 ], [ 14.66307775171869, 61.133979459467113 ], [ 14.662305977566101, 61.134025961929837 ], [ 14.661570895265537, 61.133955750365601 ], [ 14.661152578888547, 61.133719035884482 ], [ 14.660849874465017, 61.13343501831789 ], [ 14.6605581466229, 61.13310965808887 ], [ 14.660250391297517, 61.132904532750118 ], [ 14.659117435740866, 61.132958099695443 ], [ 14.658891221298916, 61.132818122234198 ], [ 14.658989716473219, 61.132820040425429 ], [ 14.659291854105685, 61.132644288683835 ], [ 14.659245029998306, 61.132564887750469 ], [ 14.659174212362476, 61.132518733975672 ], [ 14.659330488922555, 61.132435921115274 ], [ 14.659044966887617, 61.132308794412921 ], [ 14.659261736234599, 61.132094635979591 ], [ 14.658487412337943, 61.131823798065746 ], [ 14.658013727800151, 61.131705530818166 ], [ 14.657682062001973, 61.131696854585073 ], [ 14.658193027640305, 61.131385377132219 ], [ 14.658362686125292, 61.131139319813862 ], [ 14.658239082864045, 61.131054319785257 ], [ 14.658467165106021, 61.130557210480028 ], [ 14.658969969694189, 61.130294252657926 ], [ 14.659008097131615, 61.130220730821414 ], [ 14.658239329379439, 61.130323391641625 ], [ 14.657836596743135, 61.130485850671562 ], [ 14.657831595871532, 61.130604928902379 ], [ 14.658205313195777, 61.130908111528953 ], [ 14.658097221943512, 61.130988971110824 ], [ 14.657289894117532, 61.130793007656763 ], [ 14.656671177753315, 61.130602752250162 ], [ 14.656602541736525, 61.130657387738971 ], [ 14.656351184549576, 61.130662279848707 ], [ 14.655454515409909, 61.130490614839815 ], [ 14.655394049357385, 61.130389864232505 ], [ 14.655551020911068, 61.130159605958866 ], [ 14.655401173005773, 61.129723907816192 ], [ 14.655082031427332, 61.12979275350478 ], [ 14.654415609875931, 61.129511384813902 ], [ 14.654777429026961, 61.129304858086918 ], [ 14.654724046708129, 61.129065337356025 ], [ 14.654338993960787, 61.129064354126626 ], [ 14.654243932373461, 61.137763117731751 ], [ 14.654753516576942, 61.137498399909838 ], [ 14.655059642134498, 61.137468979405035 ], [ 14.655550208112583, 61.137425196138508 ], [ 14.656090412301769, 61.137582649440951 ], [ 14.656337893443421, 61.137927613085751 ], [ 14.656875475467666, 61.137935925988998 ], [ 14.658265603748651, 61.137809983925699 ], [ 14.658678944512049, 61.137676189346955 ], [ 14.659556602033089, 61.137298684063516 ], [ 14.659801743007478, 61.13712902746289 ], [ 14.660461482221731, 61.13699880048619 ], [ 14.660752417017486, 61.137087997540036 ], [ 14.660921738931572, 61.137250220000318 ], [ 14.660748944259076, 61.137297494924425 ], [ 14.660364369716214, 61.137307887002478 ], [ 14.660302964875065, 61.137466541252856 ], [ 14.66029007339664, 61.137714152843394 ], [ 14.660221483359248, 61.138090375054297 ], [ 14.660551360920254, 61.138737443297423 ], [ 14.660076911759361, 61.139302006918754 ], [ 14.658363700605742, 61.13951953409024 ], [ 14.658145631903588, 61.139706026832513 ], [ 14.6582672720552, 61.140048002436117 ], [ 14.657865150337063, 61.140166561755464 ], [ 14.657461618519061, 61.140279559160263 ], [ 14.656237518503955, 61.140591656732198 ], [ 14.656440921626228, 61.14070541942008 ], [ 14.656517381724528, 61.14114474479257 ], [ 14.656524085966545, 61.141209177431506 ], [ 14.658559201925598, 61.141214327419711 ], [ 14.657915338075865, 61.140383825848659 ], [ 14.658089389309993, 61.140380306414613 ], [ 14.659979222673028, 61.141097393951682 ], [ 14.660219577034988, 61.140934996613446 ], [ 14.660207728211647, 61.140791555456701 ], [ 14.6594499867476, 61.140776345678169 ], [ 14.659384107261362, 61.140457907606255 ], [ 14.659703656808698, 61.140284326854157 ], [ 14.660337009656795, 61.140336337342767 ], [ 14.660495456704039, 61.140409302595735 ], [ 14.660574542569181, 61.140122920348446 ], [ 14.660740507800481, 61.13994855676583 ], [ 14.661579294880926, 61.14013713490727 ], [ 14.661585783862952, 61.14096252534943 ], [ 14.662778762577389, 61.141139250714389 ], [ 14.663095025587928, 61.141180681005416 ], [ 14.664043353164134, 61.141217710829117 ], [ 14.664069062273944, 61.141228116864134 ], [ 14.676091716456956, 61.141257426952201 ], [ 14.676139929284018, 61.136549416492691 ], [ 14.676043259593818, 61.136542046228818 ], [ 14.675002812425554, 61.136303973889639 ], [ 14.67386864673179, 61.136119821613363 ], [ 14.673634402078331, 61.136233122426511 ], [ 14.674104467408512, 61.136475174595269 ], [ 14.67409756350526, 61.136591941168639 ], [ 14.673974694398231, 61.136615113282055 ], [ 14.673753424093466, 61.13657381164127 ], [ 14.673012776878293, 61.13611229758272 ], [ 14.673567333735045, 61.135894614107627 ], [ 14.674220390406502, 61.135849880571499 ], [ 14.674685727139385, 61.136096578943068 ], [ 14.676143697940548, 61.136181336807283 ], [ 14.676161793828852, 61.13441379762488 ], [ 14.675722834501824, 61.134353810452708 ] ], [ [ 14.669777702649663, 61.135523505479867 ], [ 14.669611394920704, 61.135764333355048 ], [ 14.669875263870695, 61.136156651893835 ], [ 14.670027685913308, 61.137035115736005 ], [ 14.670177883037494, 61.13701472512674 ], [ 14.670516535974397, 61.136550859254669 ], [ 14.671795985784987, 61.136086889406755 ], [ 14.67265152145991, 61.136611047808252 ], [ 14.673012745120211, 61.136839256993994 ], [ 14.673236518580717, 61.13700685649286 ], [ 14.672853724838021, 61.137206684396787 ], [ 14.672013109886214, 61.137041432850609 ], [ 14.671315036455285, 61.137069653068586 ], [ 14.671784765211362, 61.137390160544882 ], [ 14.672312671213291, 61.137507415187294 ], [ 14.671736330554232, 61.137639356772134 ], [ 14.671458335380963, 61.137577462479982 ], [ 14.670958672622362, 61.137346264031891 ], [ 14.67027688478054, 61.137138590914383 ], [ 14.670142498268401, 61.137163481953081 ], [ 14.670046926235248, 61.137284081049003 ], [ 14.669303516227036, 61.137211180065655 ], [ 14.66905921066647, 61.136926004410576 ], [ 14.66957271486128, 61.136751034027235 ], [ 14.669390119661054, 61.136358841750251 ], [ 14.668794683828159, 61.136446122269575 ], [ 14.668234350377046, 61.136461627642355 ], [ 14.66750949842239, 61.135899121729125 ], [ 14.667863117287125, 61.135795075776592 ], [ 14.66833350895347, 61.135857727321351 ], [ 14.668336988447376, 61.135722467384696 ], [ 14.668462617679129, 61.135632656096035 ], [ 14.669508779648217, 61.135356077313517 ], [ 14.669777702649663, 61.135523505479867 ] ], [ [ 14.663782613631565, 61.135768299437885 ], [ 14.66281650769649, 61.135747392159239 ], [ 14.662682860932206, 61.135506166506637 ], [ 14.663881069406234, 61.135392131482689 ], [ 14.66411536078378, 61.135448501542868 ], [ 14.664108587877383, 61.135701649695889 ], [ 14.663782613631565, 61.135768299437885 ] ], [ [ 14.663853374040356, 61.140390284941368 ], [ 14.66362947007068, 61.140527250483842 ], [ 14.663537011850011, 61.140676536861463 ], [ 14.663308706047857, 61.14060038486992 ], [ 14.664466793033185, 61.139908136989931 ], [ 14.664897908804212, 61.139344770888009 ], [ 14.665285842870592, 61.139394651063483 ], [ 14.665103659778879, 61.139801918219788 ], [ 14.664741647310041, 61.139902596646039 ], [ 14.664641489088899, 61.1401937500179 ], [ 14.664987495232202, 61.140557839728793 ], [ 14.665066520547063, 61.140592528142172 ], [ 14.66522438017317, 61.140583519020637 ], [ 14.665704257932155, 61.14031197777151 ], [ 14.666296666487872, 61.140366184473251 ], [ 14.666163448513799, 61.140919193636876 ], [ 14.665611577842188, 61.141080409896603 ], [ 14.665140218164566, 61.141112866191712 ], [ 14.664788419598038, 61.140924826137656 ], [ 14.664681860392255, 61.140761489369716 ], [ 14.663853374040356, 61.140390284941368 ] ], [ [ 14.672814648686686, 61.139049067722148 ], [ 14.672719376777321, 61.138974195961403 ], [ 14.672232796631445, 61.138835864370527 ], [ 14.67157871395983, 61.138696020457871 ], [ 14.671704166744098, 61.138170818355121 ], [ 14.672738327562321, 61.138271603244036 ], [ 14.673310229754998, 61.138606016610289 ], [ 14.673358655239802, 61.138852906261171 ], [ 14.673228812945794, 61.139224794423576 ], [ 14.67312157093107, 61.139438278961492 ], [ 14.672827526412563, 61.13942165968232 ], [ 14.672814648686686, 61.139049067722148 ] ], [ [ 14.667402815894656, 61.137932251626061 ], [ 14.667603230419635, 61.138000346913373 ], [ 14.667591689541899, 61.138038321343544 ], [ 14.667026778354352, 61.138240719665625 ], [ 14.666724580831971, 61.138169114159787 ], [ 14.66633683903278, 61.138538771098432 ], [ 14.666334152787799, 61.138599768762859 ], [ 14.666649803018194, 61.138699114028633 ], [ 14.666876957929839, 61.138633632536184 ], [ 14.66715154234906, 61.138703796580209 ], [ 14.667034247115939, 61.138935359585552 ], [ 14.665281054625186, 61.138701256600172 ], [ 14.66551049586594, 61.138054614139975 ], [ 14.665357889664545, 61.137605149100317 ], [ 14.664762997943528, 61.137525695372872 ], [ 14.664976265223537, 61.137408704124944 ], [ 14.665480286561399, 61.137264142560205 ], [ 14.66674142687963, 61.137596039579314 ], [ 14.667402815894656, 61.137932251626061 ] ], [ [ 14.662927400120001, 61.139059787471531 ], [ 14.662493574299603, 61.139493052337066 ], [ 14.662246985132033, 61.139556251343116 ], [ 14.661124235087282, 61.139495079666482 ], [ 14.660862759805612, 61.139408363416372 ], [ 14.660876368500475, 61.139176626443756 ], [ 14.661216394809282, 61.138965269833683 ], [ 14.661868873971054, 61.138870973947917 ], [ 14.662927400120001, 61.139059787471531 ] ], [ [ 14.662102299262209, 61.13679948838481 ], [ 14.661653188243143, 61.136840777313722 ], [ 14.661464931003602, 61.136356923532212 ], [ 14.662512885493911, 61.136317183836141 ], [ 14.664126553615594, 61.13615886215414 ], [ 14.664263493482009, 61.136416533084692 ], [ 14.664227212390667, 61.136771389424453 ], [ 14.663098766076567, 61.136903548130846 ], [ 14.662196077343804, 61.136901728361792 ], [ 14.662102299262209, 61.13679948838481 ] ] ], [ [ [ 14.655386982630521, 61.141082581509949 ], [ 14.655080950343187, 61.140659243635767 ], [ 14.654906081702414, 61.140233716755446 ], [ 14.654816862312586, 61.139805229660631 ], [ 14.654914309821265, 61.139663458268863 ], [ 14.654808286562037, 61.13938459775801 ], [ 14.654362744462578, 61.139292210060333 ], [ 14.654230599107425, 61.138982758131156 ], [ 14.654206321083313, 61.141203274905251 ], [ 14.65524267082511, 61.141205919027747 ], [ 14.655386982630521, 61.141082581509949 ] ] ] ] } },
{ "type": "Feature", "properties": { "objektidentitet": "593725a7-176f-466e-a8cd-8333141aaa86", "skapad": "2026-03-17T21:00:01", "objekttypnr": 2640, "objekttyp": "Öppen mark", "vattenytaid": null, "hojd_over_havet": null, "reglerat_vatten": "Ingen information" }, "geometry": { "type": "Polygon", "coordinates": [ [ [ 14.654362744462578, 61.139292210060333 ], [ 14.654808286562037, 61.13938459775801 ], [ 14.654914309821265, 61.139663458268863 ], [ 14.655203566813286, 61.139638223015403 ], [ 14.655569827847936, 61.13969735886019 ], [ 14.657461618519061, 61.140279559160263 ], [ 14.657865150337063, 61.140166561755464 ], [ 14.656663557595076, 61.139779878988236 ], [ 14.655387858218718, 61.139224627009384 ], [ 14.655115163990281, 61.139035865205933 ], [ 14.65489048149672, 61.137924315474812 ], [ 14.655279710631209, 61.137891524082534 ], [ 14.656337893443421, 61.137927613085751 ], [ 14.656090412301769, 61.137582649440951 ], [ 14.655550208112583, 61.137425196138508 ], [ 14.655059642134498, 61.137468979405035 ], [ 14.654753516576942, 61.137498399909838 ], [ 14.654243932373461, 61.137763117731751 ], [ 14.654230599107425, 61.138982758131156 ], [ 14.654362744462578, 61.139292210060333 ] ] ] } },
{ "type": "Feature", "properties": { "objektidentitet": "99f0d135-4b53-4f43-b545-d79a17670e70", "skapad": "2026-03-17T21:00:01", "objekttypnr": 2642, "objekttyp": "Åker", "vattenytaid": null, "hojd_over_havet": null, "reglerat_vatten": "Ingen information" }, "geometry": { "type": "Polygon", "coordinates": [ [ [ 14.66029007339664, 61.137714152843394 ], [ 14.660302964875065, 61.137466541252856 ], [ 14.658678944512049, 61.137676189346955 ], [ 14.658265603748651, 61.137809983925699 ], [ 14.656875475467666, 61.137935925988998 ], [ 14.656337893443421, 61.137927613085751 ], [ 14.655279710631209, 61.137891524082534 ], [ 14.65489048149672, 61.137924315474812 ], [ 14.655115163990281, 61.139035865205933 ], [ 14.655387858218718, 61.139224627009384 ], [ 14.656663557595076, 61.139779878988236 ], [ 14.657865150337063, 61.140166561755464 ], [ 14.6582672720552, 61.140048002436117 ], [ 14.658145631903588, 61.139706026832513 ], [ 14.658363700605742, 61.13951953409024 ], [ 14.660076911759361, 61.139302006918754 ], [ 14.660551360920254, 61.138737443297423 ], [ 14.660221483359248, 61.138090375054297 ], [ 14.66029007339664, 61.137714152843394 ] ] ] } },
{ "type": "Feature", "properties": { "objektidentitet": "f37fd49a-55dc-4580-90f4-e2241065a3b8", "skapad": "2026-03-17T21:00:01", "objekttypnr": 2640, "objekttyp": "Öppen mark", "vattenytaid": null, "hojd_over_havet": null, "reglerat_vatten": "Ingen information" }, "geometry": { "type": "Polygon", "coordinates": [ [ [ 14.671315036455285, 61.137069653068586 ], [ 14.672013109886214, 61.137041432850609 ], [ 14.672853724838021, 61.137206684396787 ], [ 14.673236518580717, 61.13700685649286 ], [ 14.673012745120211, 61.136839256993994 ], [ 14.67265152145991, 61.136611047808252 ], [ 14.671795985784987, 61.136086889406755 ], [ 14.670516535974397, 61.136550859254669 ], [ 14.670177883037494, 61.13701472512674 ], [ 14.670027685913308, 61.137035115736005 ], [ 14.669875263870695, 61.136156651893835 ], [ 14.669611394920704, 61.135764333355048 ], [ 14.669777702649663, 61.135523505479867 ], [ 14.669508779648217, 61.135356077313517 ], [ 14.668462617679129, 61.135632656096035 ], [ 14.668336988447376, 61.135722467384696 ], [ 14.66833350895347, 61.135857727321351 ], [ 14.667863117287125, 61.135795075776592 ], [ 14.66750949842239, 61.135899121729125 ], [ 14.668234350377046, 61.136461627642355 ], [ 14.668794683828159, 61.136446122269575 ], [ 14.669390119661054, 61.136358841750251 ], [ 14.66957271486128, 61.136751034027235 ], [ 14.66905921066647, 61.136926004410576 ], [ 14.669303516227036, 61.137211180065655 ], [ 14.670046926235248, 61.137284081049003 ], [ 14.670142498268401, 61.137163481953081 ], [ 14.67027688478054, 61.137138590914383 ], [ 14.670958672622362, 61.137346264031891 ], [ 14.671458335380963, 61.137577462479982 ], [ 14.671736330554232, 61.137639356772134 ], [ 14.672312671213291, 61.137507415187294 ], [ 14.671784765211362, 61.137390160544882 ], [ 14.671315036455285, 61.137069653068586 ] ] ] } },
{ "type": "Feature", "properties": { "objektidentitet": "a7e0e787-f49e-46a5-ab1e-93ee7159d1de", "skapad": "2026-03-17T21:00:01", "objekttypnr": 2640, "objekttyp": "Öppen mark", "vattenytaid": null, "hojd_over_havet": null, "reglerat_vatten": "Ingen information" }, "geometry": { "type": "Polygon", "coordinates": [ [ [ 14.663881069406234, 61.135392131482689 ], [ 14.662682860932206, 61.135506166506637 ], [ 14.66281650769649, 61.135747392159239 ], [ 14.663782613631565, 61.135768299437885 ], [ 14.664108587877383, 61.135701649695889 ], [ 14.66411536078378, 61.135448501542868 ], [ 14.663881069406234, 61.135392131482689 ] ] ] } },
{ "type": "Feature", "properties": { "objektidentitet": "556d52e8-2d20-4717-b971-bb3f76bc96da", "skapad": "2026-03-17T21:00:01", "objekttypnr": 2640, "objekttyp": "Öppen mark", "vattenytaid": null, "hojd_over_havet": null, "reglerat_vatten": "Ingen information" }, "geometry": { "type": "Polygon", "coordinates": [ [ [ 14.674685727139385, 61.136096578943068 ], [ 14.674220390406502, 61.135849880571499 ], [ 14.673567333735045, 61.135894614107627 ], [ 14.673012776878293, 61.13611229758272 ], [ 14.673753424093466, 61.13657381164127 ], [ 14.673974694398231, 61.136615113282055 ], [ 14.67409756350526, 61.136591941168639 ], [ 14.674104467408512, 61.136475174595269 ], [ 14.673634402078331, 61.136233122426511 ], [ 14.67386864673179, 61.136119821613363 ], [ 14.675002812425554, 61.136303973889639 ], [ 14.676043259593818, 61.136542046228818 ], [ 14.676139929284018, 61.136549416492691 ], [ 14.676143697940548, 61.136181336807283 ], [ 14.674685727139385, 61.136096578943068 ] ] ] } },
{ "type": "Feature", "properties": { "objektidentitet": "37a4911a-e8f1-4a6f-82d6-084c340347d6", "skapad": "2026-03-17T21:00:01", "objekttypnr": 2642, "objekttyp": "Åker", "vattenytaid": null, "hojd_over_havet": null, "reglerat_vatten": "Ingen information" }, "geometry": { "type": "Polygon", "coordinates": [ [ [ 14.654777429026961, 61.129304858086918 ], [ 14.654415609875931, 61.129511384813902 ], [ 14.655082031427332, 61.12979275350478 ], [ 14.655401173005773, 61.129723907816192 ], [ 14.655551020911068, 61.130159605958866 ], [ 14.655394049357385, 61.130389864232505 ], [ 14.655454515409909, 61.130490614839815 ], [ 14.656351184549576, 61.130662279848707 ], [ 14.656602541736525, 61.130657387738971 ], [ 14.656671177753315, 61.130602752250162 ], [ 14.657289894117532, 61.130793007656763 ], [ 14.658097221943512, 61.130988971110824 ], [ 14.658205313195777, 61.130908111528953 ], [ 14.657831595871532, 61.130604928902379 ], [ 14.657836596743135, 61.130485850671562 ], [ 14.658239329379439, 61.130323391641625 ], [ 14.659008097131615, 61.130220730821414 ], [ 14.658969969694189, 61.130294252657926 ], [ 14.658467165106021, 61.130557210480028 ], [ 14.658239082864045, 61.131054319785257 ], [ 14.658362686125292, 61.131139319813862 ], [ 14.658707550353586, 61.131214795805931 ], [ 14.658873312645399, 61.131202232063522 ], [ 14.659831125593779, 61.130758760293745 ], [ 14.661051501150153, 61.130275396057385 ], [ 14.661141502872576, 61.130286107585242 ], [ 14.661090708615975, 61.130341517169462 ], [ 14.660194408364546, 61.130737228641387 ], [ 14.660463191576337, 61.130869670852597 ], [ 14.660620572375429, 61.130864589105833 ], [ 14.66163174477791, 61.130435010676514 ], [ 14.661621678566279, 61.130327727344877 ], [ 14.661400429994492, 61.129956919729516 ], [ 14.661088581368491, 61.129878032076128 ], [ 14.660791741726854, 61.129685943793639 ], [ 14.66085295224897, 61.129557642788861 ], [ 14.66115817137028, 61.129371103292442 ], [ 14.661259368876673, 61.12919939566553 ], [ 14.661232928790621, 61.129198018737156 ], [ 14.661150051554396, 61.129101353353249 ], [ 14.661189912297893, 61.129081684181159 ], [ 14.660467055565276, 61.129079872017343 ], [ 14.660427891636951, 61.129124941062912 ], [ 14.66032795674667, 61.129150959248101 ], [ 14.660288918552727, 61.129148931033498 ], [ 14.6601312287452, 61.12949467469236 ], [ 14.659924825219665, 61.12961890270973 ], [ 14.659565240653119, 61.129706825020463 ], [ 14.658856726455188, 61.129685944694536 ], [ 14.658747762395583, 61.129638284839672 ], [ 14.658792353744651, 61.129099629568167 ], [ 14.658475866415646, 61.129094117443913 ], [ 14.657645663705194, 61.129156641511528 ], [ 14.657200434878007, 61.129071634606262 ], [ 14.654724046708129, 61.129065337356025 ], [ 14.654777429026961, 61.129304858086918 ] ] ] } },
{ "type": "Feature", "properties": { "objektidentitet": "643d4595-53c4-49cf-ae3b-86462e8b72e7", "skapad": "2026-03-17T21:00:01", "objekttypnr": 2642, "objekttyp": "Åker", "vattenytaid": null, "hojd_over_havet": null, "reglerat_vatten": "Ingen information" }, "geometry": { "type": "Polygon", "coordinates": [ [ [ 14.661173020559692, 61.132772636967331 ], [ 14.661563785926374, 61.132667793593583 ], [ 14.660825597363447, 61.131854817714149 ], [ 14.660727477961084, 61.131833716266698 ], [ 14.66039972145035, 61.13198127014055 ], [ 14.660256936380401, 61.132065123621381 ], [ 14.660151313030328, 61.132084043888838 ], [ 14.660007217973231, 61.132054755494771 ], [ 14.65997222817067, 61.1320350239397 ], [ 14.659984328317758, 61.132023392340614 ], [ 14.659649069909673, 61.13183919546919 ], [ 14.659261736234599, 61.132094635979591 ], [ 14.659044966887617, 61.132308794412921 ], [ 14.659330488922555, 61.132435921115274 ], [ 14.659174212362476, 61.132518733975672 ], [ 14.659245029998306, 61.132564887750469 ], [ 14.659291854105685, 61.132644288683835 ], [ 14.658989716473219, 61.132820040425429 ], [ 14.658891221298916, 61.132818122234198 ], [ 14.659117435740866, 61.132958099695443 ], [ 14.660250391297517, 61.132904532750118 ], [ 14.661173020559692, 61.132772636967331 ] ] ] } },
{ "type": "Feature", "properties": { "objektidentitet": "d3d5e01f-cf8e-4e1d-abbc-3d04e6011363", "skapad": "2026-03-17T21:00:01", "objekttypnr": 2642, "objekttyp": "Åker", "vattenytaid": null, "hojd_over_havet": null, "reglerat_vatten": "Ingen information" }, "geometry": { "type": "Polygon", "coordinates": [ [ [ 14.663275484916147, 61.131229643902685 ], [ 14.663668172462032, 61.131392131406024 ], [ 14.664138732522488, 61.131096197662536 ], [ 14.664155593673751, 61.130990956790093 ], [ 14.663994724730358, 61.130513359495218 ], [ 14.66366276806445, 61.130321729274989 ], [ 14.662654368601341, 61.130849376647696 ], [ 14.662111475573475, 61.130980956497581 ], [ 14.661698744631005, 61.131169725031818 ], [ 14.662561093462108, 61.131514417936764 ], [ 14.662846231984847, 61.131401155364159 ], [ 14.663053855674574, 61.131308806131756 ], [ 14.663275484916147, 61.131229643902685 ] ] ] } },
{ "type": "Feature", "properties": { "objektidentitet": "8de1742f-8017-4084-849d-627c0b79d962", "skapad": "2026-03-17T21:00:01", "objekttypnr": 2642, "objekttyp": "Åker", "vattenytaid": null, "hojd_over_havet": null, "reglerat_vatten": "Ingen information" }, "geometry": { "type": "Polygon", "coordinates": [ [ [ 14.662564312422193, 61.132406748746185 ], [ 14.662247884970702, 61.132569867321379 ], [ 14.662045657089667, 61.132853096898074 ], [ 14.662100195371188, 61.133123564210663 ], [ 14.662261134019186, 61.133154930549324 ], [ 14.663477352972068, 61.132863318138291 ], [ 14.662564312422193, 61.132406748746185 ] ] ] } },
{ "type": "Feature", "properties": { "objektidentitet": "a7f3181e-460d-47e1-875d-845376c70a34", "skapad": "2026-03-17T21:00:01", "objekttypnr": 2642, "objekttyp": "Åker", "vattenytaid": null, "hojd_over_havet": null, "reglerat_vatten": "Ingen information" }, "geometry": { "type": "Polygon", "coordinates": [ [ [ 14.663474176681136, 61.129255638439986 ], [ 14.663765504653503, 61.129425971654271 ], [ 14.664752205036086, 61.12929497412518 ], [ 14.664876221433092, 61.129315678997948 ], [ 14.664934049297724, 61.129378936257325 ], [ 14.664926003335436, 61.129395417395187 ], [ 14.665077781924699, 61.129447011800728 ], [ 14.665417006761006, 61.12936908866908 ], [ 14.665984862178286, 61.129577170029826 ], [ 14.666826225955125, 61.12998977298161 ], [ 14.667212413564158, 61.130470435055123 ], [ 14.667167318437857, 61.130645104069082 ], [ 14.667113965916494, 61.130754035369542 ], [ 14.66712249967725, 61.13075993682191 ], [ 14.667085233187425, 61.130857478838578 ], [ 14.666956725838874, 61.130885254127101 ], [ 14.666776742983933, 61.130854142896567 ], [ 14.666840039590433, 61.13103692525268 ], [ 14.667004740463309, 61.131302957285506 ], [ 14.667327288117058, 61.131465306421298 ], [ 14.668545756925461, 61.131866220362099 ], [ 14.669337086942058, 61.132031723549424 ], [ 14.669458133122687, 61.132014593305584 ], [ 14.670573714795978, 61.131763080533439 ], [ 14.670672682537631, 61.131719348058368 ], [ 14.670739808044264, 61.131484813545498 ], [ 14.670621057488338, 61.131404756578931 ], [ 14.668714421398265, 61.131138497050863 ], [ 14.668729863200864, 61.131192168294838 ], [ 14.66932407558396, 61.131384795434514 ], [ 14.669551083333337, 61.131537577752184 ], [ 14.669461423521142, 61.131578836456107 ], [ 14.668237945730436, 61.13110669736038 ], [ 14.668223731528625, 61.131104238594936 ], [ 14.668188933919675, 61.131030382489186 ], [ 14.668245364385362, 61.130979957937797 ], [ 14.668344492146536, 61.130956463519361 ], [ 14.668376307729661, 61.130960599438424 ], [ 14.668632338422727, 61.130566247959415 ], [ 14.668828463812215, 61.130520250014712 ], [ 14.669537213656907, 61.130814219684332 ], [ 14.671028712124098, 61.13063161882647 ], [ 14.671542974076557, 61.130866327220737 ], [ 14.671404541228236, 61.131206636066473 ], [ 14.670925977073052, 61.131184294217846 ], [ 14.670838571524293, 61.131323210806698 ], [ 14.671071776090658, 61.131353844630461 ], [ 14.671147232072716, 61.131417770554705 ], [ 14.671088628642639, 61.131493643311586 ], [ 14.671078692209615, 61.131492209523692 ], [ 14.670966822593781, 61.131598387356 ], [ 14.670826292271354, 61.132012685629711 ], [ 14.670765417631896, 61.132297690893346 ], [ 14.671726631156996, 61.132429701885734 ], [ 14.671975611228387, 61.132506563127691 ], [ 14.671778758623416, 61.132824142550525 ], [ 14.671457111810184, 61.13307211003228 ], [ 14.671257573814035, 61.133116613042624 ], [ 14.671090353109207, 61.13323147289821 ], [ 14.671169168695197, 61.133521010242831 ], [ 14.671366846165464, 61.13390608162198 ], [ 14.671832763755472, 61.133898620670344 ], [ 14.671940928582249, 61.133827904377981 ], [ 14.67191977985606, 61.133086735280351 ], [ 14.672022464477047, 61.13273127450659 ], [ 14.672142345280864, 61.132756864445639 ], [ 14.673281081054489, 61.133044996649893 ], [ 14.675004809590542, 61.132702828972583 ], [ 14.675246815332752, 61.132676916642062 ], [ 14.675874124855143, 61.13261229911965 ], [ 14.676182267689398, 61.132413711934575 ], [ 14.676185928265697, 61.132056080491331 ], [ 14.675365045590537, 61.132042128239405 ], [ 14.674848842695443, 61.132056689735165 ], [ 14.67360678265992, 61.132415208522197 ], [ 14.672451756277344, 61.132660518825233 ], [ 14.672427058074875, 61.132621513464137 ], [ 14.672885514506575, 61.13242158253496 ], [ 14.673487452146022, 61.13198913011459 ], [ 14.67315069726008, 61.131764293760284 ], [ 14.672904660093051, 61.131737097818686 ], [ 14.672736784283053, 61.131711967002687 ], [ 14.672688858678049, 61.131610276188027 ], [ 14.672796044908186, 61.131557826710576 ], [ 14.673435384238973, 61.13125783364422 ], [ 14.674093900494187, 61.130868455817186 ], [ 14.674105821563073, 61.130662802893283 ], [ 14.673330905658069, 61.130212115678951 ], [ 14.673108220165341, 61.13016663480132 ], [ 14.672685458484235, 61.130221544554672 ], [ 14.672578859605139, 61.130285792170319 ], [ 14.67216342514438, 61.130280144656133 ], [ 14.671350891231173, 61.130123018716553 ], [ 14.670377722957857, 61.130136739447735 ], [ 14.670099487547494, 61.130170338792915 ], [ 14.669572151241717, 61.130389663682848 ], [ 14.669193584838817, 61.130426813476575 ], [ 14.668852569911342, 61.130388218629861 ], [ 14.667679525136728, 61.130006972338705 ], [ 14.667734637694556, 61.12995996513753 ], [ 14.668450899515033, 61.129905224904853 ], [ 14.668818779413813, 61.129808375486483 ], [ 14.668946825308801, 61.129565058010783 ], [ 14.671149533058527, 61.129274494449433 ], [ 14.670997559617071, 61.129105889732642 ], [ 14.663582672074229, 61.129087655151906 ], [ 14.663474176681136, 61.129255638439986 ] ] ] } },
{ "type": "Feature", "properties": { "objektidentitet": "ccdc9e8a-e55b-4b24-a6d4-de1e625d2e62", "skapad": "2026-03-17T21:00:01", "objekttypnr": 2642, "objekttyp": "Åker", "vattenytaid": null, "hojd_over_havet": null, "reglerat_vatten": "Ingen information" }, "geometry": { "type": "Polygon", "coordinates": [ [ [ 14.665371844899441, 61.133289857142714 ], [ 14.665076075963174, 61.133082393235128 ], [ 14.664206491270102, 61.132833805951549 ], [ 14.664023845110645, 61.132825425174225 ], [ 14.663842501525313, 61.132939064849332 ], [ 14.663429083325711, 61.133273017017693 ], [ 14.663465244315564, 61.133345306447659 ], [ 14.663844172508204, 61.133410843808583 ], [ 14.664397783344905, 61.133395842505159 ], [ 14.665159877877223, 61.133581470488359 ], [ 14.665371844899441, 61.133289857142714 ] ] ] } },
{ "type": "Feature", "properties": { "objektidentitet": "036cc8ce-9d32-4de2-b72c-71b5a965473d", "skapad": "2026-03-17T21:00:01", "objekttypnr": 2642, "objekttyp": "Åker", "vattenytaid": null, "hojd_over_havet": null, "reglerat_vatten": "Ingen information" }, "geometry": { "type": "Polygon", "coordinates": [ [ [ 14.666481072496458, 61.132482545786118 ], [ 14.666710880393124, 61.132511724449643 ], [ 14.666750347902699, 61.132452289695735 ], [ 14.666293684894095, 61.132107080691142 ], [ 14.66623377262618, 61.132112202936611 ], [ 14.66616900755804, 61.132065196780474 ], [ 14.666186490920058, 61.131974285877348 ], [ 14.666216187064208, 61.131961152705081 ], [ 14.665870602087562, 61.131853023801199 ], [ 14.665317729468022, 61.131779817033724 ], [ 14.665292330311825, 61.131742999093845 ], [ 14.666597469236391, 61.131620828273427 ], [ 14.66684376792721, 61.131532689216151 ], [ 14.666904275273945, 61.13142155831693 ], [ 14.666463816244462, 61.130984627408097 ], [ 14.666104761046784, 61.131094752357171 ], [ 14.665978711199745, 61.131234279533949 ], [ 14.665197689702424, 61.13142802067032 ], [ 14.664878367649838, 61.131589701735102 ], [ 14.664288468201439, 61.131944595591428 ], [ 14.664340909710496, 61.132060898610973 ], [ 14.664923687645723, 61.132225999687819 ], [ 14.664961658295768, 61.132215284342053 ], [ 14.665031680592561, 61.132233844310122 ], [ 14.66512120338648, 61.132309721946875 ], [ 14.665099690532648, 61.132347770423898 ], [ 14.664447073791406, 61.132767958020601 ], [ 14.665207827987295, 61.133027945561885 ], [ 14.665790197777833, 61.133154733535058 ], [ 14.666182091045041, 61.133165477701752 ], [ 14.666307811939815, 61.133108841685456 ], [ 14.666357048787425, 61.133021079313011 ], [ 14.66634335432701, 61.132890059330109 ], [ 14.666314271638567, 61.132568599922614 ], [ 14.666481072496458, 61.132482545786118 ] ] ] } },
{ "type": "Feature", "properties": { "objektidentitet": "39dbcd4d-c81d-44e2-a985-79a8c4640262", "skapad": "2026-03-17T21:00:01", "objekttypnr": 2642, "objekttyp": "Åker", "vattenytaid": null, "hojd_over_havet": null, "reglerat_vatten": "Ingen information" }, "geometry": { "type": "Polygon", "coordinates": [ [ [ 14.669501200479848, 61.133703603802175 ], [ 14.669444861175108, 61.134013344090476 ], [ 14.669506915406778, 61.134109172278421 ], [ 14.669818045034692, 61.134122410872465 ], [ 14.670309984563053, 61.134007545533443 ], [ 14.670242042837119, 61.133692564110397 ], [ 14.670437071886665, 61.133427287092047 ], [ 14.670372125421528, 61.13314021631848 ], [ 14.669181678416203, 61.133135066478687 ], [ 14.668622511204294, 61.13338869472117 ], [ 14.668016420438526, 61.133852394137989 ], [ 14.667210401184009, 61.134179387990955 ], [ 14.666726530547182, 61.134380036077062 ], [ 14.66678694929363, 61.13457753499825 ], [ 14.666915229473656, 61.134632723195452 ], [ 14.667707652582461, 61.134733553180261 ], [ 14.668115702224823, 61.134627422631475 ], [ 14.668687109083589, 61.134329816900348 ], [ 14.668637224343064, 61.134201563454084 ], [ 14.668706207022261, 61.13411254692101 ], [ 14.668937270661733, 61.134095803177381 ], [ 14.669284050014667, 61.133707633904535 ], [ 14.669501200479848, 61.133703603802175 ] ] ] } },
{ "type": "Feature", "properties": { "objektidentitet": "4a3a0bf7-7c47-42a3-bbad-92b7687ed599", "skapad": "2026-03-17T21:00:01", "objekttypnr": 2642, "objekttyp": "Åker", "vattenytaid": null, "hojd_over_havet": null, "reglerat_vatten": "Ingen information" }, "geometry": { "type": "Polygon", "coordinates": [ [ [ 14.667996599781434, 61.13188063004911 ], [ 14.667626440652292, 61.132071729617522 ], [ 14.667409148384053, 61.132279247535884 ], [ 14.667514036894167, 61.132610777418073 ], [ 14.667025458844915, 61.133023004237401 ], [ 14.667765945632734, 61.133168164224756 ], [ 14.667886490069222, 61.133241772814529 ], [ 14.668348188483753, 61.133336597740332 ], [ 14.668539456472972, 61.133254371848842 ], [ 14.669029943347519, 61.13276107494498 ], [ 14.669018272240301, 61.132716013511015 ], [ 14.668522644006318, 61.13253760517253 ], [ 14.668992054277988, 61.132098626348366 ], [ 14.667996599781434, 61.13188063004911 ] ] ] } },
{ "type": "Feature", "properties": { "objektidentitet": "8dbb2852-a19e-4647-8e29-df0272a64349", "skapad": "2026-03-17T21:00:01", "objekttypnr": 2642, "objekttyp": "Åker", "vattenytaid": null, "hojd_over_havet": null, "reglerat_vatten": "Ingen information" }, "geometry": { "type": "Polygon", "coordinates": [ [ [ 14.672267039607783, 61.12919031875397 ], [ 14.672459754926253, 61.12923566546722 ], [ 14.673217270342537, 61.129111269372864 ], [ 14.672186832066881, 61.129108776555327 ], [ 14.672267039607783, 61.12919031875397 ] ] ] } },
{ "type": "Feature", "properties": { "objektidentitet": "71ad0e79-35a2-4324-9f78-40725741f381", "skapad": "2026-03-17T21:00:01", "objekttypnr": 2642, "objekttyp": "Åker", "vattenytaid": null, "hojd_over_havet": null, "reglerat_vatten": "Ingen information" }, "geometry": { "type": "Polygon", "coordinates": [ [ [ 14.672856578780562, 61.134584149276201 ], [ 14.673079034635299, 61.134640457106812 ], [ 14.673347746157219, 61.134633618451289 ], [ 14.673440430965451, 61.134585658530249 ], [ 14.673395961789728, 61.134529825961387 ], [ 14.672814717258811, 61.134310404470654 ], [ 14.672650834561091, 61.134271313773532 ], [ 14.6725543050947, 61.13429962079406 ], [ 14.672490736693108, 61.134345505045147 ], [ 14.672448608067908, 61.134465499292645 ], [ 14.672405090046096, 61.134493700819483 ], [ 14.672356828319137, 61.134492300090656 ], [ 14.672157982129102, 61.134424502994008 ], [ 14.672012119032285, 61.13449738129983 ], [ 14.672480173975705, 61.134777473592159 ], [ 14.672712657025171, 61.13474945060409 ], [ 14.672791005378963, 61.134719770972524 ], [ 14.672856578780562, 61.134584149276201 ] ] ] } },
{ "type": "Feature", "properties": { "objektidentitet": "b2a329a7-4a8d-48a1-9c4b-ac615dd34f0c", "skapad": "2026-03-17T21:00:01", "objekttypnr": 2642, "objekttyp": "Åker", "vattenytaid": null, "hojd_over_havet": null, "reglerat_vatten": "Ingen information" }, "geometry": { "type": "Polygon", "coordinates": [ [ [ 14.672744343104258, 61.133641181469187 ], [ 14.672579512576714, 61.133695789575405 ], [ 14.672514447156214, 61.133778793531931 ], [ 14.672780204445663, 61.134229197743032 ], [ 14.673321646428912, 61.134291330617806 ], [ 14.673835807040856, 61.134442455502089 ], [ 14.674075134277478, 61.134436406514133 ], [ 14.673386225766265, 61.133733767226659 ], [ 14.672744343104258, 61.133641181469187 ] ] ] } },
{ "type": "Feature", "properties": { "objektidentitet": "16390c58-3ecd-487d-8f05-bc160e8a8187", "skapad": "2026-03-17T21:00:01", "objekttypnr": 2642, "objekttyp": "Åker", "vattenytaid": null, "hojd_over_havet": null, "reglerat_vatten": "Ingen information" }, "geometry": { "type": "Polygon", "coordinates": [ [ [ 14.67614504008799, 61.133021420175218 ], [ 14.674738378253865, 61.13333287056463 ], [ 14.674585292491505, 61.133208285570404 ], [ 14.673759963931095, 61.133379587728506 ], [ 14.674280819547933, 61.134141514012548 ], [ 14.6746673020993, 61.134127361172951 ], [ 14.675250860072889, 61.133997525370695 ], [ 14.675339963249007, 61.134050241596626 ], [ 14.675640582695854, 61.134032943951773 ], [ 14.676166675938108, 61.133936892253871 ], [ 14.676176090066772, 61.133017232915805 ], [ 14.67614504008799, 61.133021420175218 ] ] ] } },
{ "type": "Feature", "properties": { "objektidentitet": "e354c887-8429-4117-9767-fec6cfda92cd", "skapad": "2026-03-17T21:00:01", "objekttypnr": 2642, "objekttyp": "Åker", "vattenytaid": null, "hojd_over_havet": null, "reglerat_vatten": "Ingen information" }, "geometry": { "type": "MultiPolygon", "coordinates": [ [ [ [ 14.675795562697262, 61.129543783686017 ], [ 14.676208014642478, 61.129830930050055 ], [ 14.676208703639379, 61.129830759419924 ], [ 14.676212871297754, 61.129423509502594 ], [ 14.675795562697262, 61.129543783686017 ] ] ], [ [ [ 14.67530524638838, 61.129123846754986 ], [ 14.675339239843808, 61.129116378080298 ], [ 14.675281936245348, 61.12911624055738 ], [ 14.67530524638838, 61.129123846754986 ] ] ] ] } },
{ "type": "Feature", "properties": { "objektidentitet": "4876afa5-a535-4bc5-905b-c0022fe09a1a", "skapad": "2026-03-17T21:00:01", "objekttypnr": 2642, "objekttyp": "Åker", "vattenytaid": null, "hojd_over_havet": null, "reglerat_vatten": "Ingen information" }, "geometry": { "type": "MultiPolygon", "coordinates": [ [ [ [ 14.675998951301926, 61.130637848772622 ], [ 14.675989002507745, 61.13073549450425 ], [ 14.676199266677951, 61.130752863627947 ], [ 14.676201144952254, 61.130569338669098 ], [ 14.675998951301926, 61.130637848772622 ] ] ], [ [ [ 14.676197169827587, 61.130003538424042 ], [ 14.675787081931997, 61.130114150441976 ], [ 14.67620344111738, 61.130344978530253 ], [ 14.676206865374791, 61.13001038476375 ], [ 14.676197169827587, 61.130003538424042 ] ] ] ] } },
{ "type": "Feature", "properties": { "objektidentitet": "3cb10bc9-95bd-4bbc-91c7-abf26635cef6", "skapad": "2026-03-17T21:00:01", "objekttypnr": 2640, "objekttyp": "Öppen mark", "vattenytaid": null, "hojd_over_havet": null, "reglerat_vatten": "Ingen information" }, "geometry": { "type": "Polygon", "coordinates": [ [ [ 14.657645663705194, 61.129156641511528 ], [ 14.658475866415646, 61.129094117443913 ], [ 14.658792353744651, 61.129099629568167 ], [ 14.658747762395583, 61.129638284839672 ], [ 14.658856726455188, 61.129685944694536 ], [ 14.659565240653119, 61.129706825020463 ], [ 14.659924825219665, 61.12961890270973 ], [ 14.6601312287452, 61.12949467469236 ], [ 14.660288918552727, 61.129148931033498 ], [ 14.66032795674667, 61.129150959248101 ], [ 14.660427891636951, 61.129124941062912 ], [ 14.660467055565276, 61.129079872017343 ], [ 14.657200434878007, 61.129071634606262 ], [ 14.657645663705194, 61.129156641511528 ] ] ] } },
{ "type": "Feature", "properties": { "objektidentitet": "43dbad09-2c09-4fa9-b898-bfa27ff172b4", "skapad": "2026-03-17T21:00:01", "objekttypnr": 2645, "objekttyp": "Barr- och blandskog", "vattenytaid": null, "hojd_over_havet": null, "reglerat_vatten": "Ingen information" }, "geometry": { "type": "Polygon", "coordinates": [ [ [ 14.671149533058527, 61.129274494449433 ], [ 14.668946825308801, 61.129565058010783 ], [ 14.668818779413813, 61.129808375486483 ], [ 14.668450899515033, 61.129905224904853 ], [ 14.667734637694556, 61.12995996513753 ], [ 14.667679525136728, 61.130006972338705 ], [ 14.668852569911342, 61.130388218629861 ], [ 14.669193584838817, 61.130426813476575 ], [ 14.669572151241717, 61.130389663682848 ], [ 14.670099487547494, 61.130170338792915 ], [ 14.670377722957857, 61.130136739447735 ], [ 14.671350891231173, 61.130123018716553 ], [ 14.67216342514438, 61.130280144656133 ], [ 14.672578859605139, 61.130285792170319 ], [ 14.672685458484235, 61.130221544554672 ], [ 14.672937184572755, 61.129878644104004 ], [ 14.672400482006223, 61.129844845980898 ], [ 14.671800155765926, 61.129864973894165 ], [ 14.671641418848061, 61.129811790119049 ], [ 14.671696533193014, 61.129479538254024 ], [ 14.671721322378845, 61.129423585987404 ], [ 14.672267039607783, 61.12919031875397 ], [ 14.672186832066881, 61.129108776555327 ], [ 14.670997559617071, 61.129105889732642 ], [ 14.671149533058527, 61.129274494449433 ] ] ] } },
{ "type": "Feature", "properties": { "objektidentitet": "9d5230a7-49c2-4457-9cb8-a4de8a86427a", "skapad": "2026-03-17T21:00:01", "objekttypnr": 2645, "objekttyp": "Barr- och blandskog", "vattenytaid": null, "hojd_over_havet": null, "reglerat_vatten": "Ingen information" }, "geometry": { "type": "Polygon", "coordinates": [ [ [ 14.666481072496458, 61.132482545786118 ], [ 14.666314271638567, 61.132568599922614 ], [ 14.66634335432701, 61.132890059330109 ], [ 14.666357048787425, 61.133021079313011 ], [ 14.666307811939815, 61.133108841685456 ], [ 14.667025458844915, 61.133023004237401 ], [ 14.667514036894167, 61.132610777418073 ], [ 14.666710880393124, 61.132511724449643 ], [ 14.666481072496458, 61.132482545786118 ] ] ] } },
{ "type": "Feature", "properties": { "objektidentitet": "0edb1ef1-38ba-4761-a11a-32969974151c", "skapad": "2026-03-17T21:00:01", "objekttypnr": 2645, "objekttyp": "Barr- och blandskog", "vattenytaid": null, "hojd_over_havet": null, "reglerat_vatten": "Ingen information" }, "geometry": { "type": "Polygon", "coordinates": [ [ [ 14.664397783344905, 61.133395842505159 ], [ 14.663844172508204, 61.133410843808583 ], [ 14.663465244315564, 61.133345306447659 ], [ 14.663429083325711, 61.133273017017693 ], [ 14.663842501525313, 61.132939064849332 ], [ 14.663477352972068, 61.132863318138291 ], [ 14.662261134019186, 61.133154930549324 ], [ 14.662651895831655, 61.133336072034488 ], [ 14.663140406404155, 61.133563745415017 ], [ 14.664760465524006, 61.133794485579038 ], [ 14.664941174274347, 61.133747943253177 ], [ 14.665159877877223, 61.133581470488359 ], [ 14.664397783344905, 61.133395842505159 ] ] ] } },
{ "type": "Feature", "properties": { "objektidentitet": "e2705783-d918-418a-a226-cfd8a9a13a25", "skapad": "2026-03-17T21:00:01", "objekttypnr": 2640, "objekttyp": "Öppen mark", "vattenytaid": null, "hojd_over_havet": null, "reglerat_vatten": "Ingen information" }, "geometry": { "type": "MultiPolygon", "coordinates": [ [ [ [ 14.661150051554396, 61.129101353353249 ], [ 14.661232928790621, 61.129198018737156 ], [ 14.661259368876673, 61.12919939566553 ], [ 14.66115817137028, 61.129371103292442 ], [ 14.66085295224897, 61.129557642788861 ], [ 14.660791741726854, 61.129685943793639 ], [ 14.661088581368491, 61.129878032076128 ], [ 14.661400429994492, 61.129956919729516 ], [ 14.661621678566279, 61.130327727344877 ], [ 14.66163174477791, 61.130435010676514 ], [ 14.660620572375429, 61.130864589105833 ], [ 14.660463191576337, 61.130869670852597 ], [ 14.660194408364546, 61.130737228641387 ], [ 14.661090708615975, 61.130341517169462 ], [ 14.661141502872576, 61.130286107585242 ], [ 14.661051501150153, 61.130275396057385 ], [ 14.659831125593779, 61.130758760293745 ], [ 14.658873312645399, 61.131202232063522 ], [ 14.658707550353586, 61.131214795805931 ], [ 14.658362686125292, 61.131139319813862 ], [ 14.658193027640305, 61.131385377132219 ], [ 14.657682062001973, 61.131696854585073 ], [ 14.658013727800151, 61.131705530818166 ], [ 14.658487412337943, 61.131823798065746 ], [ 14.659261736234599, 61.132094635979591 ], [ 14.659649069909673, 61.13183919546919 ], [ 14.659984328317758, 61.132023392340614 ], [ 14.65997222817067, 61.1320350239397 ], [ 14.660007217973231, 61.132054755494771 ], [ 14.660151313030328, 61.132084043888838 ], [ 14.660256936380401, 61.132065123621381 ], [ 14.66039972145035, 61.13198127014055 ], [ 14.660727477961084, 61.131833716266698 ], [ 14.660825597363447, 61.131854817714149 ], [ 14.661563785926374, 61.132667793593583 ], [ 14.661173020559692, 61.132772636967331 ], [ 14.660250391297517, 61.132904532750118 ], [ 14.6605581466229, 61.13310965808887 ], [ 14.660849874465017, 61.13343501831789 ], [ 14.661152578888547, 61.133719035884482 ], [ 14.661570895265537, 61.133955750365601 ], [ 14.662305977566101, 61.134025961929837 ], [ 14.66307775171869, 61.133979459467113 ], [ 14.663875344144104, 61.134012246025648 ], [ 14.664197773651768, 61.134176326131609 ], [ 14.66421936794009, 61.1342287832449 ], [ 14.663919600461462, 61.134535627607136 ], [ 14.663820065319049, 61.135032876649134 ], [ 14.664155770847021, 61.135336082803015 ], [ 14.664962589652555, 61.135211109750401 ], [ 14.665765552408352, 61.135167551148562 ], [ 14.66605838949407, 61.135092178437347 ], [ 14.666176017386235, 61.134895262142415 ], [ 14.665805681931962, 61.134574908657981 ], [ 14.665074710481996, 61.134356547549316 ], [ 14.66500992967366, 61.134279187015181 ], [ 14.665840365226181, 61.133530964868619 ], [ 14.666072906018185, 61.133560483413355 ], [ 14.666404313379116, 61.133653862089226 ], [ 14.666791061912457, 61.133786977454477 ], [ 14.666908917564296, 61.133976627391327 ], [ 14.667210401184009, 61.134179387990955 ], [ 14.668016420438526, 61.133852394137989 ], [ 14.668622511204294, 61.13338869472117 ], [ 14.669181678416203, 61.133135066478687 ], [ 14.670372125421528, 61.13314021631848 ], [ 14.670437071886665, 61.133427287092047 ], [ 14.670242042837119, 61.133692564110397 ], [ 14.670309984563053, 61.134007545533443 ], [ 14.670194826301733, 61.134360388744966 ], [ 14.669319026109996, 61.134507399566445 ], [ 14.669349667646539, 61.13474499123182 ], [ 14.669741400387034, 61.134954493409104 ], [ 14.670149143877026, 61.135206758866225 ], [ 14.670350279285389, 61.135373886106429 ], [ 14.671279848487718, 61.135420372172803 ], [ 14.672294146042214, 61.135445537250675 ], [ 14.672578771358957, 61.135258123367471 ], [ 14.67268419894406, 61.134874424706922 ], [ 14.67147174410681, 61.134847300131625 ], [ 14.671272914200246, 61.134951247230823 ], [ 14.671088307913845, 61.134846072444454 ], [ 14.671194721159917, 61.134597816448654 ], [ 14.672026022782433, 61.134182554536473 ], [ 14.672239870178796, 61.133761070913089 ], [ 14.672514447156214, 61.133778793531931 ], [ 14.672579512576714, 61.133695789575405 ], [ 14.672744343104258, 61.133641181469187 ], [ 14.673386225766265, 61.133733767226659 ], [ 14.674075134277478, 61.134436406514133 ], [ 14.673835807040856, 61.134442455502089 ], [ 14.673321646428912, 61.134291330617806 ], [ 14.672780204445663, 61.134229197743032 ], [ 14.672650834561091, 61.134271313773532 ], [ 14.672814717258811, 61.134310404470654 ], [ 14.673395961789728, 61.134529825961387 ], [ 14.673440430965451, 61.134585658530249 ], [ 14.673347746157219, 61.134633618451289 ], [ 14.673079034635299, 61.134640457106812 ], [ 14.673149905354542, 61.134917485684383 ], [ 14.673466642656951, 61.135341742567995 ], [ 14.674004733876696, 61.135698569830936 ], [ 14.674817765897938, 61.13532752541586 ], [ 14.674590120122147, 61.134921208460327 ], [ 14.675722834501824, 61.134353810452708 ], [ 14.676161793828852, 61.13441379762488 ], [ 14.676164274626737, 61.134171464722478 ], [ 14.676046934503427, 61.13417069443026 ], [ 14.675395995292755, 61.134224428655934 ], [ 14.674960816770106, 61.134389625944195 ], [ 14.674826639797303, 61.134592534041801 ], [ 14.674726267072158, 61.13461729600634 ], [ 14.674585561314498, 61.134579206142639 ], [ 14.674489716239181, 61.134369630959135 ], [ 14.674966709402979, 61.13419199361347 ], [ 14.67543732485314, 61.134141402288797 ], [ 14.675640582695854, 61.134032943951773 ], [ 14.675339963249007, 61.134050241596626 ], [ 14.675250860072889, 61.133997525370695 ], [ 14.6746673020993, 61.134127361172951 ], [ 14.674280819547933, 61.134141514012548 ], [ 14.673759963931095, 61.133379587728506 ], [ 14.674585292491505, 61.133208285570404 ], [ 14.674558886968686, 61.133121954247855 ], [ 14.675161824846271, 61.132981706506328 ], [ 14.675004809590542, 61.132702828972583 ], [ 14.673281081054489, 61.133044996649893 ], [ 14.672142345280864, 61.132756864445639 ], [ 14.672022464477047, 61.13273127450659 ], [ 14.67191977985606, 61.133086735280351 ], [ 14.671940928582249, 61.133827904377981 ], [ 14.671832763755472, 61.133898620670344 ], [ 14.671366846165464, 61.13390608162198 ], [ 14.671169168695197, 61.133521010242831 ], [ 14.671090353109207, 61.13323147289821 ], [ 14.671257573814035, 61.133116613042624 ], [ 14.671457111810184, 61.13307211003228 ], [ 14.671778758623416, 61.132824142550525 ], [ 14.671975611228387, 61.132506563127691 ], [ 14.671726631156996, 61.132429701885734 ], [ 14.670765417631896, 61.132297690893346 ], [ 14.670826292271354, 61.132012685629711 ], [ 14.670966822593781, 61.131598387356 ], [ 14.671078692209615, 61.131492209523692 ], [ 14.671088628642639, 61.131493643311586 ], [ 14.671147232072716, 61.131417770554705 ], [ 14.671071776090658, 61.131353844630461 ], [ 14.670838571524293, 61.131323210806698 ], [ 14.670925977073052, 61.131184294217846 ], [ 14.671404541228236, 61.131206636066473 ], [ 14.671542974076557, 61.130866327220737 ], [ 14.671028712124098, 61.13063161882647 ], [ 14.669537213656907, 61.130814219684332 ], [ 14.668828463812215, 61.130520250014712 ], [ 14.668632338422727, 61.130566247959415 ], [ 14.668376307729661, 61.130960599438424 ], [ 14.668344492146536, 61.130956463519361 ], [ 14.668245364385362, 61.130979957937797 ], [ 14.668188933919675, 61.131030382489186 ], [ 14.668223731528625, 61.131104238594936 ], [ 14.668237945730436, 61.13110669736038 ], [ 14.669461423521142, 61.131578836456107 ], [ 14.669551083333337, 61.131537577752184 ], [ 14.66932407558396, 61.131384795434514 ], [ 14.668729863200864, 61.131192168294838 ], [ 14.668714421398265, 61.131138497050863 ], [ 14.670621057488338, 61.131404756578931 ], [ 14.670739808044264, 61.131484813545498 ], [ 14.670672682537631, 61.131719348058368 ], [ 14.670573714795978, 61.131763080533439 ], [ 14.669458133122687, 61.132014593305584 ], [ 14.669337086942058, 61.132031723549424 ], [ 14.668545756925461, 61.131866220362099 ], [ 14.667327288117058, 61.131465306421298 ], [ 14.667004740463309, 61.131302957285506 ], [ 14.666840039590433, 61.13103692525268 ], [ 14.666776742983933, 61.130854142896567 ], [ 14.666956725838874, 61.130885254127101 ], [ 14.667085233187425, 61.130857478838578 ], [ 14.66712249967725, 61.13075993682191 ], [ 14.667113965916494, 61.130754035369542 ], [ 14.667167318437857, 61.130645104069082 ], [ 14.667212413564158, 61.130470435055123 ], [ 14.666826225955125, 61.12998977298161 ], [ 14.665984862178286, 61.129577170029826 ], [ 14.665417006761006, 61.12936908866908 ], [ 14.665077781924699, 61.129447011800728 ], [ 14.664926003335436, 61.129395417395187 ], [ 14.664934049297724, 61.129378936257325 ], [ 14.664876221433092, 61.129315678997948 ], [ 14.664752205036086, 61.12929497412518 ], [ 14.663765504653503, 61.129425971654271 ], [ 14.663474176681136, 61.129255638439986 ], [ 14.663582672074229, 61.129087655151906 ], [ 14.661189912297893, 61.129081684181159 ], [ 14.661150051554396, 61.129101353353249 ] ], [ [ 14.668348188483753, 61.133336597740332 ], [ 14.667886490069222, 61.133241772814529 ], [ 14.667765945632734, 61.133168164224756 ], [ 14.667025458844915, 61.133023004237401 ], [ 14.666307811939815, 61.133108841685456 ], [ 14.666182091045041, 61.133165477701752 ], [ 14.665790197777833, 61.133154733535058 ], [ 14.665207827987295, 61.133027945561885 ], [ 14.664447073791406, 61.132767958020601 ], [ 14.665099690532648, 61.132347770423898 ], [ 14.66512120338648, 61.132309721946875 ], [ 14.665031680592561, 61.132233844310122 ], [ 14.664961658295768, 61.132215284342053 ], [ 14.664923687645723, 61.132225999687819 ], [ 14.664340909710496, 61.132060898610973 ], [ 14.664288468201439, 61.131944595591428 ], [ 14.664878367649838, 61.131589701735102 ], [ 14.665197689702424, 61.13142802067032 ], [ 14.665978711199745, 61.131234279533949 ], [ 14.666104761046784, 61.131094752357171 ], [ 14.666463816244462, 61.130984627408097 ], [ 14.666904275273945, 61.13142155831693 ], [ 14.66684376792721, 61.131532689216151 ], [ 14.666597469236391, 61.131620828273427 ], [ 14.665292330311825, 61.131742999093845 ], [ 14.665317729468022, 61.131779817033724 ], [ 14.665870602087562, 61.131853023801199 ], [ 14.666216187064208, 61.131961152705081 ], [ 14.666186490920058, 61.131974285877348 ], [ 14.66616900755804, 61.132065196780474 ], [ 14.66623377262618, 61.132112202936611 ], [ 14.666293684894095, 61.132107080691142 ], [ 14.666750347902699, 61.132452289695735 ], [ 14.666710880393124, 61.132511724449643 ], [ 14.667514036894167, 61.132610777418073 ], [ 14.667409148384053, 61.132279247535884 ], [ 14.667626440652292, 61.132071729617522 ], [ 14.667996599781434, 61.13188063004911 ], [ 14.668992054277988, 61.132098626348366 ], [ 14.668522644006318, 61.13253760517253 ], [ 14.669018272240301, 61.132716013511015 ], [ 14.669029943347519, 61.13276107494498 ], [ 14.668539456472972, 61.133254371848842 ], [ 14.668348188483753, 61.133336597740332 ] ], [ [ 14.663668172462032, 61.131392131406024 ], [ 14.663275484916147, 61.131229643902685 ], [ 14.663053855674574, 61.131308806131756 ], [ 14.662846231984847, 61.131401155364159 ], [ 14.662561093462108, 61.131514417936764 ], [ 14.661698744631005, 61.131169725031818 ], [ 14.662111475573475, 61.130980956497581 ], [ 14.662654368601341, 61.130849376647696 ], [ 14.66366276806445, 61.130321729274989 ], [ 14.663994724730358, 61.130513359495218 ], [ 14.664155593673751, 61.130990956790093 ], [ 14.664138732522488, 61.131096197662536 ], [ 14.663668172462032, 61.131392131406024 ] ], [ [ 14.663477352972068, 61.132863318138291 ], [ 14.663842501525313, 61.132939064849332 ], [ 14.664023845110645, 61.132825425174225 ], [ 14.664206491270102, 61.132833805951549 ], [ 14.665076075963174, 61.133082393235128 ], [ 14.665371844899441, 61.133289857142714 ], [ 14.665159877877223, 61.133581470488359 ], [ 14.664941174274347, 61.133747943253177 ], [ 14.664760465524006, 61.133794485579038 ], [ 14.663140406404155, 61.133563745415017 ], [ 14.662651895831655, 61.133336072034488 ], [ 14.662261134019186, 61.133154930549324 ], [ 14.662100195371188, 61.133123564210663 ], [ 14.662045657089667, 61.132853096898074 ], [ 14.662247884970702, 61.132569867321379 ], [ 14.662564312422193, 61.132406748746185 ], [ 14.663477352972068, 61.132863318138291 ] ] ], [ [ [ 14.675874124855143, 61.13261229911965 ], [ 14.675246815332752, 61.132676916642062 ], [ 14.67614504008799, 61.133021420175218 ], [ 14.676176090066772, 61.133017232915805 ], [ 14.676182267689398, 61.132413711934575 ], [ 14.675874124855143, 61.13261229911965 ] ] ], [ [ [ 14.672459754926253, 61.12923566546722 ], [ 14.672267039607783, 61.12919031875397 ], [ 14.671721322378845, 61.129423585987404 ], [ 14.671696533193014, 61.129479538254024 ], [ 14.671641418848061, 61.129811790119049 ], [ 14.671800155765926, 61.129864973894165 ], [ 14.672400482006223, 61.129844845980898 ], [ 14.672937184572755, 61.129878644104004 ], [ 14.672685458484235, 61.130221544554672 ], [ 14.673108220165341, 61.13016663480132 ], [ 14.673330905658069, 61.130212115678951 ], [ 14.674105821563073, 61.130662802893283 ], [ 14.674093900494187, 61.130868455817186 ], [ 14.673435384238973, 61.13125783364422 ], [ 14.672796044908186, 61.131557826710576 ], [ 14.672688858678049, 61.131610276188027 ], [ 14.672736784283053, 61.131711967002687 ], [ 14.672904660093051, 61.131737097818686 ], [ 14.67315069726008, 61.131764293760284 ], [ 14.673487452146022, 61.13198913011459 ], [ 14.672885514506575, 61.13242158253496 ], [ 14.672427058074875, 61.132621513464137 ], [ 14.672451756277344, 61.132660518825233 ], [ 14.67360678265992, 61.132415208522197 ], [ 14.674848842695443, 61.132056689735165 ], [ 14.675365045590537, 61.132042128239405 ], [ 14.676185928265697, 61.132056080491331 ], [ 14.676195824749172, 61.131089165867422 ], [ 14.676164995203449, 61.131091957668744 ], [ 14.675601920539927, 61.13108927121386 ], [ 14.675387160000815, 61.131026845194981 ], [ 14.675440270136653, 61.130915279611195 ], [ 14.675989002507745, 61.13073549450425 ], [ 14.675998951301926, 61.130637848772622 ], [ 14.676201144952254, 61.130569338669098 ], [ 14.67620344111738, 61.130344978530253 ], [ 14.675787081931997, 61.130114150441976 ], [ 14.676197169827587, 61.130003538424042 ], [ 14.676206865374791, 61.13001038476375 ], [ 14.676208703639379, 61.129830759419924 ], [ 14.676208014642478, 61.129830930050055 ], [ 14.675795562697262, 61.129543783686017 ], [ 14.676212871297754, 61.129423509502594 ], [ 14.676215992794186, 61.1291184791734 ], [ 14.675339239843808, 61.129116378080298 ], [ 14.67530524638838, 61.129123846754986 ], [ 14.675281936245348, 61.12911624055738 ], [ 14.673217270342537, 61.129111269372864 ], [ 14.672459754926253, 61.12923566546722 ] ] ] ] } },
{ "type": "Feature", "properties": { "objektidentitet": "d0334543-d490-4572-b68d-9ce3eefc180c", "skapad": "2026-03-17T21:00:01", "objekttypnr": 2645, "objekttyp": "Barr- och blandskog", "vattenytaid": null, "hojd_over_havet": null, "reglerat_vatten": "Ingen information" }, "geometry": { "type": "Polygon", "coordinates": [ [ [ 14.675989002507745, 61.13073549450425 ], [ 14.675440270136653, 61.130915279611195 ], [ 14.675387160000815, 61.131026845194981 ], [ 14.675601920539927, 61.13108927121386 ], [ 14.676164995203449, 61.131091957668744 ], [ 14.676195824749172, 61.131089165867422 ], [ 14.676199266677951, 61.130752863627947 ], [ 14.675989002507745, 61.13073549450425 ] ] ] } },
{ "type": "Feature", "properties": { "objektidentitet": "4c3a5b22-d7e6-47b1-a14b-e75d63d1804c", "skapad": "2026-03-17T21:00:01", "objekttypnr": 2645, "objekttyp": "Barr- och blandskog", "vattenytaid": null, "hojd_over_havet": null, "reglerat_vatten": "Ingen information" }, "geometry": { "type": "Polygon", "coordinates": [ [ [ 14.675246815332752, 61.132676916642062 ], [ 14.675004809590542, 61.132702828972583 ], [ 14.675161824846271, 61.132981706506328 ], [ 14.674558886968686, 61.133121954247855 ], [ 14.674585292491505, 61.133208285570404 ], [ 14.674738378253865, 61.13333287056463 ], [ 14.67614504008799, 61.133021420175218 ], [ 14.675246815332752, 61.132676916642062 ] ] ] } },
{ "type": "Feature", "properties": { "objektidentitet": "31ff49ab-40bc-40f0-853e-00f037f79117", "skapad": "2026-03-17T21:00:01", "objekttypnr": 2645, "objekttyp": "Barr- och blandskog", "vattenytaid": null, "hojd_over_havet": null, "reglerat_vatten": "Ingen information" }, "geometry": { "type": "Polygon", "coordinates": [ [ [ 14.675640582695854, 61.134032943951773 ], [ 14.67543732485314, 61.134141402288797 ], [ 14.674966709402979, 61.13419199361347 ], [ 14.674489716239181, 61.134369630959135 ], [ 14.674585561314498, 61.134579206142639 ], [ 14.674726267072158, 61.13461729600634 ], [ 14.674826639797303, 61.134592534041801 ], [ 14.674960816770106, 61.134389625944195 ], [ 14.675395995292755, 61.134224428655934 ], [ 14.676046934503427, 61.13417069443026 ], [ 14.676164274626737, 61.134171464722478 ], [ 14.676166675938108, 61.133936892253871 ], [ 14.675640582695854, 61.134032943951773 ] ] ] } },
{ "type": "Feature", "properties": { "objektidentitet": "82e441a0-cd0f-4724-8423-12847a813d57", "skapad": "2026-03-17T21:00:01", "objekttypnr": 2642, "objekttyp": "Åker", "vattenytaid": null, "hojd_over_havet": null, "reglerat_vatten": "Ingen information" }, "geometry": { "type": "Polygon", "coordinates": [ [ [ 14.664043353164134, 61.141217710829117 ], [ 14.663095025587928, 61.141180681005416 ], [ 14.662778762577389, 61.141139250714389 ], [ 14.661585783862952, 61.14096252534943 ], [ 14.661579294880926, 61.14013713490727 ], [ 14.660740507800481, 61.13994855676583 ], [ 14.660574542569181, 61.140122920348446 ], [ 14.660495456704039, 61.140409302595735 ], [ 14.660852311573429, 61.141220093605241 ], [ 14.664069062273944, 61.141228116864134 ], [ 14.664043353164134, 61.141217710829117 ] ] ] } },
{ "type": "Feature", "properties": { "objektidentitet": "60501684-8ff2-4dc9-a7f4-ecc3c0babe63", "skapad": "2026-03-17T21:00:01", "objekttypnr": 2642, "objekttyp": "Åker", "vattenytaid": null, "hojd_over_havet": null, "reglerat_vatten": "Ingen information" }, "geometry": { "type": "Polygon", "coordinates": [ [ [ 14.664227212390667, 61.136771389424453 ], [ 14.664263493482009, 61.136416533084692 ], [ 14.664126553615594, 61.13615886215414 ], [ 14.662512885493911, 61.136317183836141 ], [ 14.661464931003602, 61.136356923532212 ], [ 14.661653188243143, 61.136840777313722 ], [ 14.662102299262209, 61.13679948838481 ], [ 14.662196077343804, 61.136901728361792 ], [ 14.663098766076567, 61.136903548130846 ], [ 14.664227212390667, 61.136771389424453 ] ] ] } },
{ "type": "Feature", "properties": { "objektidentitet": "64a8f535-d3a0-43b3-831d-16e5fa74eb2d", "skapad": "2026-03-17T21:00:01", "objekttypnr": 2640, "objekttyp": "Öppen mark", "vattenytaid": null, "hojd_over_havet": null, "reglerat_vatten": "Ingen information" }, "geometry": { "type": "Polygon", "coordinates": [ [ [ 14.666296666487872, 61.140366184473251 ], [ 14.665704257932155, 61.14031197777151 ], [ 14.66522438017317, 61.140583519020637 ], [ 14.665066520547063, 61.140592528142172 ], [ 14.664987495232202, 61.140557839728793 ], [ 14.664641489088899, 61.1401937500179 ], [ 14.664741647310041, 61.139902596646039 ], [ 14.665103659778879, 61.139801918219788 ], [ 14.665285842870592, 61.139394651063483 ], [ 14.664897908804212, 61.139344770888009 ], [ 14.664466793033185, 61.139908136989931 ], [ 14.663308706047857, 61.14060038486992 ], [ 14.663537011850011, 61.140676536861463 ], [ 14.66362947007068, 61.140527250483842 ], [ 14.663853374040356, 61.140390284941368 ], [ 14.664681860392255, 61.140761489369716 ], [ 14.664788419598038, 61.140924826137656 ], [ 14.665140218164566, 61.141112866191712 ], [ 14.665611577842188, 61.141080409896603 ], [ 14.666163448513799, 61.140919193636876 ], [ 14.666296666487872, 61.140366184473251 ] ] ] } },
{ "type": "Feature", "properties": { "objektidentitet": "747f824e-8195-403b-88d9-74d54f95ea24", "skapad": "2026-03-17T21:00:01", "objekttypnr": 2640, "objekttyp": "Öppen mark", "vattenytaid": null, "hojd_over_havet": null, "reglerat_vatten": "Ingen information" }, "geometry": { "type": "Polygon", "coordinates": [ [ [ 14.660495456704039, 61.140409302595735 ], [ 14.660337009656795, 61.140336337342767 ], [ 14.659703656808698, 61.140284326854157 ], [ 14.659384107261362, 61.140457907606255 ], [ 14.6594499867476, 61.140776345678169 ], [ 14.660207728211647, 61.140791555456701 ], [ 14.660219577034988, 61.140934996613446 ], [ 14.659979222673028, 61.141097393951682 ], [ 14.658089389309993, 61.140380306414613 ], [ 14.657915338075865, 61.140383825848659 ], [ 14.658559201925598, 61.141214327419711 ], [ 14.660852311573429, 61.141220093605241 ], [ 14.660495456704039, 61.140409302595735 ] ] ] } },
{ "type": "Feature", "properties": { "objektidentitet": "9e7f13af-1d58-4166-8b42-ca53c5c77f07", "skapad": "2026-03-17T21:00:01", "objekttypnr": 2640, "objekttyp": "Öppen mark", "vattenytaid": null, "hojd_over_havet": null, "reglerat_vatten": "Ingen information" }, "geometry": { "type": "Polygon", "coordinates": [ [ [ 14.660461482221731, 61.13699880048619 ], [ 14.659801743007478, 61.13712902746289 ], [ 14.659556602033089, 61.137298684063516 ], [ 14.658678944512049, 61.137676189346955 ], [ 14.660302964875065, 61.137466541252856 ], [ 14.660364369716214, 61.137307887002478 ], [ 14.660748944259076, 61.137297494924425 ], [ 14.660921738931572, 61.137250220000318 ], [ 14.660752417017486, 61.137087997540036 ], [ 14.660461482221731, 61.13699880048619 ] ] ] } },
{ "type": "Feature", "properties": { "objektidentitet": "fcb8a842-b1c1-4a78-be51-fb77d9725aa2", "skapad": "2026-03-17T21:00:01", "objekttypnr": 2640, "objekttyp": "Öppen mark", "vattenytaid": null, "hojd_over_havet": null, "reglerat_vatten": "Ingen information" }, "geometry": { "type": "Polygon", "coordinates": [ [ [ 14.666876957929839, 61.138633632536184 ], [ 14.666649803018194, 61.138699114028633 ], [ 14.666334152787799, 61.138599768762859 ], [ 14.66633683903278, 61.138538771098432 ], [ 14.666724580831971, 61.138169114159787 ], [ 14.667026778354352, 61.138240719665625 ], [ 14.667591689541899, 61.138038321343544 ], [ 14.667603230419635, 61.138000346913373 ], [ 14.667402815894656, 61.137932251626061 ], [ 14.66674142687963, 61.137596039579314 ], [ 14.665480286561399, 61.137264142560205 ], [ 14.664976265223537, 61.137408704124944 ], [ 14.664762997943528, 61.137525695372872 ], [ 14.665357889664545, 61.137605149100317 ], [ 14.66551049586594, 61.138054614139975 ], [ 14.665281054625186, 61.138701256600172 ], [ 14.667034247115939, 61.138935359585552 ], [ 14.66715154234906, 61.138703796580209 ], [ 14.666876957929839, 61.138633632536184 ] ] ] } },
{ "type": "Feature", "properties": { "objektidentitet": "337ddc71-36ca-4768-99dd-529cf6a869c3", "skapad": "2026-03-17T21:00:01", "objekttypnr": 2640, "objekttyp": "Öppen mark", "vattenytaid": null, "hojd_over_havet": null, "reglerat_vatten": "Ingen information" }, "geometry": { "type": "Polygon", "coordinates": [ [ [ 14.671704166744098, 61.138170818355121 ], [ 14.67157871395983, 61.138696020457871 ], [ 14.672232796631445, 61.138835864370527 ], [ 14.672719376777321, 61.138974195961403 ], [ 14.672814648686686, 61.139049067722148 ], [ 14.672827526412563, 61.13942165968232 ], [ 14.67312157093107, 61.139438278961492 ], [ 14.673228812945794, 61.139224794423576 ], [ 14.673358655239802, 61.138852906261171 ], [ 14.673310229754998, 61.138606016610289 ], [ 14.672738327562321, 61.138271603244036 ], [ 14.671704166744098, 61.138170818355121 ] ] ] } },
{ "type": "Feature", "properties": { "objektidentitet": "48ae0d8b-09cb-4e3d-93d7-32a957456a0f", "skapad": "2026-03-17T21:00:01", "objekttypnr": 2640, "objekttyp": "Öppen mark", "vattenytaid": null, "hojd_over_havet": null, "reglerat_vatten": "Ingen information" }, "geometry": { "type": "Polygon", "coordinates": [ [ [ 14.661868873971054, 61.138870973947917 ], [ 14.661216394809282, 61.138965269833683 ], [ 14.660876368500475, 61.139176626443756 ], [ 14.660862759805612, 61.139408363416372 ], [ 14.661124235087282, 61.139495079666482 ], [ 14.662246985132033, 61.139556251343116 ], [ 14.662493574299603, 61.139493052337066 ], [ 14.662927400120001, 61.139059787471531 ], [ 14.661868873971054, 61.138870973947917 ] ] ] } },
{ "type": "Feature", "properties": { "objektidentitet": "545826f4-2404-4b99-bce6-69ee71dbd6e7", "skapad": "2026-03-17T21:00:01", "objekttypnr": 2642, "objekttyp": "Åker", "vattenytaid": null, "hojd_over_havet": null, "reglerat_vatten": "Ingen information" }, "geometry": { "type": "Polygon", "coordinates": [ [ [ 14.656517381724528, 61.14114474479257 ], [ 14.656440921626228, 61.14070541942008 ], [ 14.656237518503955, 61.140591656732198 ], [ 14.657461618519061, 61.140279559160263 ], [ 14.655569827847936, 61.13969735886019 ], [ 14.655203566813286, 61.139638223015403 ], [ 14.654914309821265, 61.139663458268863 ], [ 14.654816862312586, 61.139805229660631 ], [ 14.654906081702414, 61.140233716755446 ], [ 14.655080950343187, 61.140659243635767 ], [ 14.655386982630521, 61.141082581509949 ], [ 14.65524267082511, 61.141205919027747 ], [ 14.656524085966545, 61.141209177431506 ], [ 14.656517381724528, 61.14114474479257 ] ] ] } }
]
}
