{
"type": "FeatureCollection",
"name": "orsa_stackmora_3_12_topografi_vagar",
"crs": { "type": "name", "properties": { "name": "urn:ogc:def:crs:OGC:1.3:CRS84" } },
"features": [
{ "type": "Feature", "properties": { "objektidentitet": "94b2e88e-4533-4c6c-a4d8-a2e7893e5d2e", "skapad": "2026-03-17T21:00:01", "objekttypnr": 1807, "objekttyp": "Småväg enkel standard", "avfartsvag_pafartsvag": "Ingen information", "cirkulationsplats": "Nej", "bro_och_tunnel": "Ingen information", "gagata": "Nej", "bussgata": "Nej", "industrivag": "Nej", "gatunamn": null, "vardvagnummer": null, "gastvag1nummer": null, "gastvag2nummer": null, "alternativt_manér": "Nej", "vagutforande": null, "skoterkorning_tillaten": null, "ruskmarkering": null }, "geometry": { "type": "LineString", "coordinates": [ [ 14.661823357462733, 61.132823390702576 ], [ 14.661899964696993, 61.132960610503325 ], [ 14.662016150860959, 61.133207925131309 ], [ 14.662131932601653, 61.133455050412429 ], [ 14.662181508644943, 61.133562701350897 ], [ 14.662287402230252, 61.133718838443457 ], [ 14.662374689048574, 61.13381785712631 ], [ 14.662971301208696, 61.13434918791134 ], [ 14.663255694746358, 61.134575041515383 ], [ 14.663531979713889, 61.134802481242623 ], [ 14.663701764889574, 61.134944052577659 ], [ 14.663949601486999, 61.135158295114842 ], [ 14.664165036703668, 61.135350057458574 ] ] } },
{ "type": "Feature", "properties": { "objektidentitet": "8be92309-6d96-4e44-8fd6-32f58b12ada0", "skapad": "2026-03-17T21:00:01", "objekttypnr": 1805, "objekttyp": "Landsväg liten", "avfartsvag_pafartsvag": "Ingen information", "cirkulationsplats": "Nej", "bro_och_tunnel": "Ingen information", "gagata": "Nej", "bussgata": "Nej", "industrivag": "Nej", "gatunamn": null, "vardvagnummer": "992", "gastvag1nummer": null, "gastvag2nummer": null, "alternativt_manér": "Nej", "vagutforande": null, "skoterkorning_tillaten": null, "ruskmarkering": null }, "geometry": { "type": "LineString", "coordinates": [ [ 14.670931845279258, 61.131389433692597 ], [ 14.670864736997508, 61.131518936903255 ], [ 14.670749991052732, 61.131780118338916 ], [ 14.670661359835062, 61.132043670706821 ], [ 14.670630770489188, 61.132124944214425 ], [ 14.670531502941332, 61.132282918600694 ], [ 14.670383518254306, 61.13243169752333 ], [ 14.670296136995425, 61.132505389894554 ], [ 14.670094838847207, 61.132638749342668 ], [ 14.669842977234461, 61.132763599932581 ], [ 14.669335994162205, 61.132971158675211 ], [ 14.668962337539631, 61.133130516742533 ], [ 14.668462637467549, 61.1333506769992 ], [ 14.668065239872618, 61.133522723029486 ], [ 14.667664958292089, 61.133693180763871 ], [ 14.666811537866645, 61.134050014811763 ], [ 14.666131836451312, 61.134329506312682 ], [ 14.665227653353172, 61.134721461002499 ], [ 14.664784204524315, 61.134916725559073 ], [ 14.664591350512532, 61.135004822677708 ], [ 14.664486035874059, 61.135062208271329 ], [ 14.664404049803798, 61.135115431789707 ], [ 14.664336661550806, 61.135163062533074 ], [ 14.664272158463348, 61.135213528432878 ], [ 14.664228065218481, 61.135258406696039 ], [ 14.664192713338959, 61.135301906322169 ], [ 14.664165036703668, 61.135350057458574 ] ] } },
{ "type": "Feature", "properties": { "objektidentitet": "9af5d01a-5728-4c67-9445-4daec4797b9b", "skapad": "2026-03-17T21:00:01", "objekttypnr": 1805, "objekttyp": "Landsväg liten", "avfartsvag_pafartsvag": "Ingen information", "cirkulationsplats": "Nej", "bro_och_tunnel": "Ingen information", "gagata": "Nej", "bussgata": "Nej", "industrivag": "Nej", "gatunamn": null, "vardvagnummer": "992", "gastvag1nummer": null, "gastvag2nummer": null, "alternativt_manér": "Nej", "vagutforande": null, "skoterkorning_tillaten": null, "ruskmarkering": null }, "geometry": { "type": "LineString", "coordinates": [ [ 14.664165036703668, 61.135350057458574 ], [ 14.664124249761457, 61.13545076805962 ], [ 14.664105885165977, 61.135536487276262 ], [ 14.664096366917088, 61.135610979614796 ], [ 14.66409861014273, 61.135674260533335 ], [ 14.664112395148559, 61.135745291432684 ], [ 14.664137725288271, 61.135825499209943 ], [ 14.664185899661824, 61.135943721816467 ], [ 14.664242465977608, 61.136093602899251 ], [ 14.664310522339475, 61.136256153390576 ], [ 14.664370001322105, 61.136408151563771 ], [ 14.664383887814235, 61.136467942337397 ], [ 14.664389073242143, 61.136527011233539 ], [ 14.664387407135267, 61.136582534809747 ], [ 14.664381881418525, 61.136657036784527 ], [ 14.664369451979764, 61.136732931266494 ], [ 14.664342494293544, 61.136805970719969 ], [ 14.664299799967015, 61.136879797180356 ] ] } },
{ "type": "Feature", "properties": { "objektidentitet": "ce102ee2-dd43-432b-be87-f658982730f3", "skapad": "2026-03-17T21:00:01", "objekttypnr": 1807, "objekttyp": "Småväg enkel standard", "avfartsvag_pafartsvag": "Ingen information", "cirkulationsplats": "Nej", "bro_och_tunnel": "Ingen information", "gagata": "Nej", "bussgata": "Nej", "industrivag": "Nej", "gatunamn": null, "vardvagnummer": null, "gastvag1nummer": null, "gastvag2nummer": null, "alternativt_manér": "Nej", "vagutforande": null, "skoterkorning_tillaten": null, "ruskmarkering": null }, "geometry": { "type": "LineString", "coordinates": [ [ 14.665302868588208, 61.137201460601226 ], [ 14.66498176740156, 61.137082087354571 ], [ 14.664761719465893, 61.13700682012356 ], [ 14.664631330918397, 61.13696604293262 ], [ 14.664526825746345, 61.136934262933799 ], [ 14.664299799967015, 61.136879797180356 ] ] } },
{ "type": "Feature", "properties": { "objektidentitet": "0cc867b9-7b85-4455-848c-173895c3406c", "skapad": "2026-03-17T21:00:01", "objekttypnr": 1807, "objekttyp": "Småväg enkel standard", "avfartsvag_pafartsvag": "Ingen information", "cirkulationsplats": "Nej", "bro_och_tunnel": "Ingen information", "gagata": "Nej", "bussgata": "Nej", "industrivag": "Nej", "gatunamn": null, "vardvagnummer": null, "gastvag1nummer": null, "gastvag2nummer": null, "alternativt_manér": "Nej", "vagutforande": null, "skoterkorning_tillaten": null, "ruskmarkering": null }, "geometry": { "type": "LineString", "coordinates": [ [ 14.665302868588208, 61.137201460601226 ], [ 14.665544305310517, 61.137052478535736 ], [ 14.665920589931149, 61.136838443498 ], [ 14.665985677898593, 61.136808295044105 ], [ 14.666059720091253, 61.136775987221398 ], [ 14.666132511216556, 61.136746091138832 ], [ 14.666211353166537, 61.136714701678542 ], [ 14.666314416657647, 61.136679053692063 ], [ 14.666449494591276, 61.136643259882 ], [ 14.6681056353926, 61.136337238947704 ], [ 14.668772845130189, 61.13622640878414 ], [ 14.668904849992968, 61.136196359973837 ], [ 14.66900617888097, 61.136169872001318 ], [ 14.669093948654547, 61.136143718751612 ], [ 14.669172496252097, 61.136120514768479 ], [ 14.669218687912869, 61.13610168438462 ], [ 14.669262522470161, 61.136080981044337 ], [ 14.669302387620084, 61.136054540145416 ], [ 14.669347211177417, 61.13602269748975 ], [ 14.669480882572161, 61.135904122130249 ], [ 14.669727106619529, 61.13564770683513 ], [ 14.669886555677238, 61.135471466496654 ], [ 14.670086441710817, 61.13525633407653 ], [ 14.670188729843041, 61.135169525740864 ], [ 14.670352827280704, 61.135036730914557 ], [ 14.670413728244254, 61.134992412174029 ], [ 14.670485506867252, 61.134943083305956 ], [ 14.670661638869472, 61.134838328120239 ], [ 14.671454139725, 61.134484563155894 ], [ 14.671769927954704, 61.134337357418843 ], [ 14.671857600654073, 61.134291226474481 ], [ 14.671922205454493, 61.134252904438476 ], [ 14.671964852412495, 61.134219179417336 ], [ 14.672010520882232, 61.134185919528989 ], [ 14.672051941396569, 61.134152281373161 ], [ 14.672073407331132, 61.134128811592085 ], [ 14.672097270008372, 61.13409089320637 ], [ 14.672295825470263, 61.133679293006345 ], [ 14.672324178657158, 61.133639760474061 ], [ 14.672437385489232, 61.133580439902147 ], [ 14.672574694405638, 61.133531645824405 ], [ 14.67275792254361, 61.133478976250636 ], [ 14.673181200908056, 61.133392654192789 ], [ 14.67360477120144, 61.133315596729695 ], [ 14.673868204585057, 61.133270310560484 ], [ 14.674385943648112, 61.133171616393454 ], [ 14.675026664305387, 61.133015372014803 ], [ 14.675306530073426, 61.132929794174792 ], [ 14.67557529200087, 61.132833280858662 ], [ 14.675927646112958, 61.132670935666404 ], [ 14.676181328445224, 61.132505472825109 ] ] } },
{ "type": "Feature", "properties": { "objektidentitet": "8ce507dd-798f-488f-aff1-94e6ab7f5fe3", "skapad": "2026-03-17T21:00:01", "objekttypnr": 1805, "objekttyp": "Landsväg liten", "avfartsvag_pafartsvag": "Ingen information", "cirkulationsplats": "Nej", "bro_och_tunnel": "Ingen information", "gagata": "Nej", "bussgata": "Nej", "industrivag": "Nej", "gatunamn": null, "vardvagnummer": "980", "gastvag1nummer": null, "gastvag2nummer": null, "alternativt_manér": "Nej", "vagutforande": null, "skoterkorning_tillaten": null, "ruskmarkering": null }, "geometry": { "type": "LineString", "coordinates": [ [ 14.675089967387358, 61.129115779674379 ], [ 14.675177438941908, 61.12917890605307 ], [ 14.676207674520805, 61.129931319650616 ] ] } },
{ "type": "Feature", "properties": { "objektidentitet": "62b3f6dd-7bd6-4f1b-86e1-bbd1d6c81be9", "skapad": "2026-03-17T21:00:01", "objekttypnr": 1805, "objekttyp": "Landsväg liten", "avfartsvag_pafartsvag": "Ingen information", "cirkulationsplats": "Nej", "bro_och_tunnel": "Ingen information", "gagata": "Nej", "bussgata": "Nej", "industrivag": "Nej", "gatunamn": null, "vardvagnummer": "991", "gastvag1nummer": null, "gastvag2nummer": null, "alternativt_manér": "Nej", "vagutforande": null, "skoterkorning_tillaten": null, "ruskmarkering": null }, "geometry": { "type": "LineString", "coordinates": [ [ 14.66330065858387, 61.12935443860701 ], [ 14.663369127770377, 61.129369934124874 ], [ 14.66371044768696, 61.129482978524635 ], [ 14.664040225398361, 61.129669216785693 ], [ 14.664323467929835, 61.129872585074715 ], [ 14.664527330944155, 61.130014482261288 ], [ 14.664855044190913, 61.130219548766746 ], [ 14.664964683127808, 61.130279917801658 ], [ 14.665330773184676, 61.130443205627806 ], [ 14.665676751902636, 61.130554613749965 ] ] } },
{ "type": "Feature", "properties": { "objektidentitet": "26691f63-4742-46ee-b7d2-e014b9d5ee2b", "skapad": "2026-03-17T21:00:01", "objekttypnr": 1805, "objekttyp": "Landsväg liten", "avfartsvag_pafartsvag": "Ingen information", "cirkulationsplats": "Nej", "bro_och_tunnel": "Ingen information", "gagata": "Nej", "bussgata": "Nej", "industrivag": "Nej", "gatunamn": null, "vardvagnummer": "991", "gastvag1nummer": null, "gastvag2nummer": null, "alternativt_manér": "Nej", "vagutforande": null, "skoterkorning_tillaten": null, "ruskmarkering": null }, "geometry": { "type": "LineString", "coordinates": [ [ 14.665676751902636, 61.130554613749965 ], [ 14.665745322464698, 61.130576689059119 ], [ 14.666198042869722, 61.130677056415323 ], [ 14.66655281275496, 61.130747563251468 ], [ 14.666901273138347, 61.130810907097377 ], [ 14.667274813319469, 61.13087283934712 ], [ 14.667641376363033, 61.130927490458987 ], [ 14.668011172057758, 61.130976752998066 ], [ 14.669180747040516, 61.131139656150012 ], [ 14.670931845279258, 61.131389433692597 ] ] } },
{ "type": "Feature", "properties": { "objektidentitet": "6141f30f-16be-4a9c-87f4-df27a8bb5bab", "skapad": "2026-03-17T21:00:01", "objekttypnr": 1807, "objekttyp": "Småväg enkel standard", "avfartsvag_pafartsvag": "Ingen information", "cirkulationsplats": "Nej", "bro_och_tunnel": "Ingen information", "gagata": "Nej", "bussgata": "Nej", "industrivag": "Nej", "gatunamn": null, "vardvagnummer": null, "gastvag1nummer": null, "gastvag2nummer": null, "alternativt_manér": "Nej", "vagutforande": null, "skoterkorning_tillaten": null, "ruskmarkering": null }, "geometry": { "type": "LineString", "coordinates": [ [ 14.665676751902636, 61.130554613749965 ], [ 14.665400165641113, 61.130757950878888 ], [ 14.665264794329142, 61.130836001205388 ], [ 14.66501692784456, 61.130951345044508 ], [ 14.664841833241052, 61.131023272843805 ], [ 14.664740411214789, 61.131063277885005 ], [ 14.66447260189743, 61.131166289833764 ], [ 14.664196924160624, 61.131265286532589 ], [ 14.663839465305955, 61.131390124150272 ], [ 14.663500496830553, 61.131525331518475 ], [ 14.663097914146247, 61.131727120356985 ], [ 14.66288787114105, 61.131812784242385 ], [ 14.662771681398059, 61.131933156526863 ], [ 14.662547685648454, 61.132129140314937 ], [ 14.662359531636499, 61.132338042342369 ], [ 14.662101995340569, 61.132612614536789 ], [ 14.661986765866866, 61.132717277095743 ], [ 14.661823357462733, 61.132823390702576 ] ] } },
{ "type": "Feature", "properties": { "objektidentitet": "ed3a9a52-fdbe-4990-ae21-e131d665b093", "skapad": "2026-03-17T21:00:01", "objekttypnr": 1805, "objekttyp": "Landsväg liten", "avfartsvag_pafartsvag": "Ingen information", "cirkulationsplats": "Nej", "bro_och_tunnel": "Ingen information", "gagata": "Nej", "bussgata": "Nej", "industrivag": "Nej", "gatunamn": null, "vardvagnummer": "991", "gastvag1nummer": null, "gastvag2nummer": null, "alternativt_manér": "Nej", "vagutforande": null, "skoterkorning_tillaten": null, "ruskmarkering": null }, "geometry": { "type": "LineString", "coordinates": [ [ 14.670931845279258, 61.131389433692597 ], [ 14.672213463445825, 61.131569901363001 ], [ 14.674622144707163, 61.131903449974743 ], [ 14.67507616068213, 61.131954538458778 ], [ 14.67553915973723, 61.131980751682505 ], [ 14.675772185613331, 61.131984425454625 ], [ 14.676186650920714, 61.131985477347406 ] ] } },
{ "type": "Feature", "properties": { "objektidentitet": "3c6683cc-e855-4cc2-980e-cf7f6ce0405a", "skapad": "2026-03-17T21:00:01", "objekttypnr": 1807, "objekttyp": "Småväg enkel standard", "avfartsvag_pafartsvag": "Ingen information", "cirkulationsplats": "Nej", "bro_och_tunnel": "Ingen information", "gagata": "Nej", "bussgata": "Nej", "industrivag": "Nej", "gatunamn": null, "vardvagnummer": null, "gastvag1nummer": null, "gastvag2nummer": null, "alternativt_manér": "Nej", "vagutforande": null, "skoterkorning_tillaten": null, "ruskmarkering": null }, "geometry": { "type": "LineString", "coordinates": [ [ 14.67320073607711, 61.141250476558774 ], [ 14.672949412126204, 61.141198947395559 ], [ 14.672487970804248, 61.141077681635828 ], [ 14.672402634503504, 61.141057885745987 ], [ 14.672161884010288, 61.140990328176095 ], [ 14.671945072375676, 61.140908553819102 ], [ 14.671744745450752, 61.140816817710274 ], [ 14.671234156282834, 61.140523961485108 ], [ 14.670857449981945, 61.140312022603474 ], [ 14.670729558129386, 61.140250554617552 ], [ 14.670441222691705, 61.140147048076692 ], [ 14.670131271210696, 61.140056119832138 ], [ 14.669579797826554, 61.139926742172676 ], [ 14.669454143892294, 61.139891430713845 ], [ 14.669381932850564, 61.1398636836348 ], [ 14.66932963062288, 61.139839414582454 ], [ 14.66928243483656, 61.139802786391073 ], [ 14.669232262809059, 61.139773728392292 ], [ 14.669195536751404, 61.13973752084032 ], [ 14.66915975145516, 61.139698371107464 ], [ 14.669125911149401, 61.139654386799243 ], [ 14.668946066133044, 61.139351457999879 ], [ 14.668789147592065, 61.139046062243423 ], [ 14.668670687553449, 61.138827898934956 ], [ 14.668401857074906, 61.138412178785536 ], [ 14.668362561359288, 61.138364499973903 ], [ 14.668308566025489, 61.138310743296174 ], [ 14.668186425936947, 61.13823507530806 ], [ 14.668111307560576, 61.138198136023277 ], [ 14.667998136226188, 61.138149144627235 ], [ 14.667711389342186, 61.138043795758264 ], [ 14.667351185403858, 61.137916952206503 ], [ 14.667208613280403, 61.137854493219024 ], [ 14.667021878955268, 61.137755349801324 ], [ 14.666944526596437, 61.137703312679662 ], [ 14.666883002779114, 61.137664754060381 ], [ 14.666827965211509, 61.137641536499871 ], [ 14.666774177111835, 61.137616077816688 ], [ 14.66671467845473, 61.137588010174703 ], [ 14.666583485449458, 61.137549082539955 ], [ 14.666397486301996, 61.137509112796906 ], [ 14.666106517644184, 61.137452930198016 ], [ 14.666013840482199, 61.137431495918648 ], [ 14.665921220097063, 61.137408185494905 ], [ 14.665811673117076, 61.137378790832088 ], [ 14.665347527180177, 61.137219086923906 ], [ 14.665302868588208, 61.137201460601226 ] ] } },
{ "type": "Feature", "properties": { "objektidentitet": "5222abd6-927e-44f2-b037-06e19a698ba6", "skapad": "2026-03-17T21:00:01", "objekttypnr": 1805, "objekttyp": "Landsväg liten", "avfartsvag_pafartsvag": "Ingen information", "cirkulationsplats": "Nej", "bro_och_tunnel": "Ingen information", "gagata": "Nej", "bussgata": "Nej", "industrivag": "Nej", "gatunamn": null, "vardvagnummer": "992", "gastvag1nummer": null, "gastvag2nummer": null, "alternativt_manér": "Nej", "vagutforande": null, "skoterkorning_tillaten": null, "ruskmarkering": null }, "geometry": { "type": "LineString", "coordinates": [ [ 14.664299799967015, 61.136879797180356 ], [ 14.664253840669899, 61.136939322491081 ], [ 14.664180344996575, 61.137014365127207 ], [ 14.664089312362929, 61.137097094286993 ], [ 14.663267373637234, 61.137763592696729 ], [ 14.663000540580619, 61.137969606448571 ], [ 14.662524308111038, 61.138351457445779 ], [ 14.66227613870625, 61.13854607870752 ], [ 14.661907066849572, 61.13884550970301 ], [ 14.661777674141376, 61.138947416559319 ], [ 14.661532159414852, 61.139148201631762 ] ] } },
{ "type": "Feature", "properties": { "objektidentitet": "4bcbd4ab-e616-47de-81b9-38897115e256", "skapad": "2026-03-17T21:00:01", "objekttypnr": 1805, "objekttyp": "Landsväg liten", "avfartsvag_pafartsvag": "Ingen information", "cirkulationsplats": "Nej", "bro_och_tunnel": "Ingen information", "gagata": "Nej", "bussgata": "Nej", "industrivag": "Nej", "gatunamn": null, "vardvagnummer": "991", "gastvag1nummer": null, "gastvag2nummer": null, "alternativt_manér": "Nej", "vagutforande": null, "skoterkorning_tillaten": null, "ruskmarkering": null }, "geometry": { "type": "LineString", "coordinates": [ [ 14.662302342290232, 61.129184944924852 ], [ 14.662797581120406, 61.129254088595246 ], [ 14.662994389783606, 61.129285148428728 ], [ 14.66330065858387, 61.12935443860701 ] ] } },
{ "type": "Feature", "properties": { "objektidentitet": "410dd780-1e3d-48ea-b5b5-bccf70adfc1d", "skapad": "2026-03-17T21:00:01", "objekttypnr": 1805, "objekttyp": "Landsväg liten", "avfartsvag_pafartsvag": "Ingen information", "cirkulationsplats": "Nej", "bro_och_tunnel": "Ingen information", "gagata": "Nej", "bussgata": "Nej", "industrivag": "Nej", "gatunamn": null, "vardvagnummer": "991", "gastvag1nummer": null, "gastvag2nummer": null, "alternativt_manér": "Nej", "vagutforande": null, "skoterkorning_tillaten": null, "ruskmarkering": null }, "geometry": { "type": "LineString", "coordinates": [ [ 14.66102195555186, 61.129081263466887 ], [ 14.661851532872117, 61.129139962481503 ], [ 14.662302342290232, 61.129184944924852 ] ] } },
{ "type": "Feature", "properties": { "objektidentitet": "6f157fd5-c064-48b0-b506-1cc245a63b1a", "skapad": "2026-03-17T21:00:01", "objekttypnr": 1807, "objekttyp": "Småväg enkel standard", "avfartsvag_pafartsvag": "Ingen information", "cirkulationsplats": "Nej", "bro_och_tunnel": "Ingen information", "gagata": "Nej", "bussgata": "Nej", "industrivag": "Nej", "gatunamn": null, "vardvagnummer": null, "gastvag1nummer": null, "gastvag2nummer": null, "alternativt_manér": "Nej", "vagutforande": null, "skoterkorning_tillaten": null, "ruskmarkering": null }, "geometry": { "type": "LineString", "coordinates": [ [ 14.663185806592073, 61.129086667728338 ], [ 14.663272474441166, 61.12915582414292 ], [ 14.663346435704522, 61.129258822118956 ], [ 14.66330065858387, 61.12935443860701 ] ] } },
{ "type": "Feature", "properties": { "objektidentitet": "388e47fc-3994-4775-ab6b-4ae1b28ef2f3", "skapad": "2026-03-17T21:00:01", "objekttypnr": 1807, "objekttyp": "Småväg enkel standard", "avfartsvag_pafartsvag": "Ingen information", "cirkulationsplats": "Nej", "bro_och_tunnel": "Ingen information", "gagata": "Nej", "bussgata": "Nej", "industrivag": "Nej", "gatunamn": null, "vardvagnummer": null, "gastvag1nummer": null, "gastvag2nummer": null, "alternativt_manér": "Nej", "vagutforande": null, "skoterkorning_tillaten": null, "ruskmarkering": null }, "geometry": { "type": "LineString", "coordinates": [ [ 14.662628411325331, 61.13002434940767 ], [ 14.66235267932306, 61.130008785206911 ], [ 14.662085264065029, 61.129995064012853 ], [ 14.661906328827682, 61.129974542655873 ], [ 14.661747710753355, 61.12993778586749 ], [ 14.661650020071166, 61.129897940625305 ], [ 14.661656184212703, 61.129847536374413 ], [ 14.661704341534852, 61.129797246445932 ], [ 14.661766605584042, 61.129745465418111 ], [ 14.661945758226537, 61.12962211805327 ], [ 14.662083496496946, 61.129527836155617 ], [ 14.662273172065518, 61.129293243467842 ], [ 14.662302342290232, 61.129184944924852 ] ] } },
{ "type": "Feature", "properties": { "objektidentitet": "8e541cd3-3f8d-4e7e-bb55-6c75e2bc8139", "skapad": "2026-03-17T21:00:01", "objekttypnr": 1807, "objekttyp": "Småväg enkel standard", "avfartsvag_pafartsvag": "Ingen information", "cirkulationsplats": "Nej", "bro_och_tunnel": "Ingen information", "gagata": "Nej", "bussgata": "Nej", "industrivag": "Nej", "gatunamn": null, "vardvagnummer": null, "gastvag1nummer": null, "gastvag2nummer": null, "alternativt_manér": "Nej", "vagutforande": null, "skoterkorning_tillaten": null, "ruskmarkering": null }, "geometry": { "type": "LineString", "coordinates": [ [ 14.66330065858387, 61.12935443860701 ], [ 14.663163830833936, 61.129562401272331 ], [ 14.662998496008802, 61.129750191613248 ], [ 14.662782947503205, 61.129923410946013 ], [ 14.66265864223155, 61.130004574850631 ], [ 14.662628411325331, 61.13002434940767 ] ] } },
{ "type": "Feature", "properties": { "objektidentitet": "689f0335-1be9-419a-9787-c8d2f6cc0d21", "skapad": "2026-03-17T21:00:01", "objekttypnr": 1807, "objekttyp": "Småväg enkel standard", "avfartsvag_pafartsvag": "Ingen information", "cirkulationsplats": "Nej", "bro_och_tunnel": "Ingen information", "gagata": "Nej", "bussgata": "Nej", "industrivag": "Nej", "gatunamn": null, "vardvagnummer": null, "gastvag1nummer": null, "gastvag2nummer": null, "alternativt_manér": "Nej", "vagutforande": null, "skoterkorning_tillaten": null, "ruskmarkering": null }, "geometry": { "type": "LineString", "coordinates": [ [ 14.662628411325331, 61.13002434940767 ], [ 14.662291235984711, 61.130202885065735 ], [ 14.662118439064685, 61.130281996956114 ], [ 14.661509611062034, 61.130520964040194 ], [ 14.660887212199039, 61.130759032159723 ], [ 14.660616265756927, 61.130897392207679 ], [ 14.660509398145646, 61.130972088910958 ], [ 14.660486730057876, 61.130991064955083 ], [ 14.660436317948379, 61.131078095144794 ], [ 14.660408951624968, 61.131095407551882 ], [ 14.660390778533094, 61.131207584627617 ], [ 14.660433432563073, 61.131320982625986 ], [ 14.660506416300151, 61.131429914107386 ], [ 14.660701338008868, 61.131643150254476 ], [ 14.660908825461865, 61.131851794170466 ], [ 14.661208960840941, 61.132136837625502 ], [ 14.661427068833845, 61.132351252970871 ], [ 14.661629313368088, 61.132568357681428 ], [ 14.661782928434381, 61.13276171075497 ], [ 14.661823357462733, 61.132823390702576 ] ] } },
{ "type": "Feature", "properties": { "objektidentitet": "d69990eb-fdef-48f0-975b-1c55dc4f2837", "skapad": "2026-03-04T08:00:01", "objekttypnr": 1804, "objekttyp": "Landsväg", "avfartsvag_pafartsvag": "Ingen information", "cirkulationsplats": "Nej", "bro_och_tunnel": "Ingen information", "gagata": "Nej", "bussgata": "Nej", "industrivag": "Nej", "gatunamn": null, "vardvagnummer": "E45", "gastvag1nummer": null, "gastvag2nummer": null, "alternativt_manér": "Nej", "vagutforande": null, "skoterkorning_tillaten": null, "ruskmarkering": null }, "geometry": { "type": "LineString", "coordinates": [ [ 14.654231680464314, 61.138883846687342 ], [ 14.654263350105342, 61.138974904855459 ], [ 14.654455868052104, 61.139624411121439 ], [ 14.654524466853271, 61.139826910216875 ], [ 14.654657374129624, 61.140155648722249 ], [ 14.654717120116018, 61.14028809805783 ], [ 14.654793146189022, 61.140429746156798 ], [ 14.654919598858507, 61.14064925282328 ], [ 14.655060522108455, 61.140856730129165 ], [ 14.655210117119818, 61.141062766041088 ], [ 14.655321018138705, 61.141206118598873 ] ] } },
{ "type": "Feature", "properties": { "objektidentitet": "f1d03cf3-fcdf-41a1-9050-9c5e2582b6d6", "skapad": "2026-03-17T21:00:01", "objekttypnr": 1807, "objekttyp": "Småväg enkel standard", "avfartsvag_pafartsvag": "Ingen information", "cirkulationsplats": "Nej", "bro_och_tunnel": "Ingen information", "gagata": "Nej", "bussgata": "Nej", "industrivag": "Nej", "gatunamn": null, "vardvagnummer": null, "gastvag1nummer": null, "gastvag2nummer": null, "alternativt_manér": "Nej", "vagutforande": null, "skoterkorning_tillaten": null, "ruskmarkering": null }, "geometry": { "type": "LineString", "coordinates": [ [ 14.661532159414852, 61.139148201631762 ], [ 14.661436851348933, 61.139117340102608 ], [ 14.661354161707948, 61.139076948426812 ], [ 14.661348646203873, 61.139014530007714 ], [ 14.661353791125746, 61.13880978603666 ], [ 14.661341816263219, 61.138712373958029 ], [ 14.661294679345085, 61.138468373838265 ], [ 14.6612556531012, 61.138335835442263 ], [ 14.66116962496088, 61.13808556127649 ], [ 14.661117822731541, 61.137897616014783 ], [ 14.66101340288203, 61.137717582729962 ], [ 14.661032497957635, 61.137599240401691 ] ] } },
{ "type": "Feature", "properties": { "objektidentitet": "3cf7a9f5-304e-4391-bca5-04b4b43a498e", "skapad": "2026-03-17T21:00:01", "objekttypnr": 1805, "objekttyp": "Landsväg liten", "avfartsvag_pafartsvag": "Ingen information", "cirkulationsplats": "Nej", "bro_och_tunnel": "Ingen information", "gagata": "Nej", "bussgata": "Nej", "industrivag": "Nej", "gatunamn": null, "vardvagnummer": "992", "gastvag1nummer": null, "gastvag2nummer": null, "alternativt_manér": "Nej", "vagutforande": null, "skoterkorning_tillaten": null, "ruskmarkering": null }, "geometry": { "type": "LineString", "coordinates": [ [ 14.661532159414852, 61.139148201631762 ], [ 14.661268729568237, 61.139358574855635 ], [ 14.661007411622133, 61.139562147446902 ], [ 14.660760906956591, 61.139762569723871 ], [ 14.660670077333235, 61.13984035913164 ], [ 14.660557227495655, 61.139943608257269 ], [ 14.660468256828507, 61.14004882931561 ], [ 14.660418503354332, 61.140145817248182 ], [ 14.660391027899241, 61.140219267762149 ], [ 14.660374681013414, 61.140295753412857 ], [ 14.660370706947125, 61.140375259792052 ], [ 14.660379224073145, 61.140450308617758 ], [ 14.660394008122243, 61.140519367236095 ], [ 14.66041203852232, 61.140574922087602 ], [ 14.660457355507246, 61.140690571305527 ], [ 14.660490715809111, 61.140762674963369 ], [ 14.660584895299387, 61.140952719886236 ], [ 14.660679164539582, 61.141134505263075 ], [ 14.660715988590757, 61.141219751897886 ] ] } },
{ "type": "Feature", "properties": { "objektidentitet": "3890873e-a3c8-47eb-96d8-88d456c15b62", "skapad": "2026-03-17T21:00:01", "objekttypnr": 1628, "objekttyp": "Traktorväg", "avfartsvag_pafartsvag": null, "cirkulationsplats": null, "bro_och_tunnel": null, "gagata": null, "bussgata": null, "industrivag": null, "gatunamn": null, "vardvagnummer": null, "gastvag1nummer": null, "gastvag2nummer": null, "alternativt_manér": "Ingen information", "vagutforande": "Normal", "skoterkorning_tillaten": "Ingen information", "ruskmarkering": "Ingen information" }, "geometry": { "type": "LineString", "coordinates": [ [ 14.654263630562742, 61.135961056832386 ], [ 14.654523080717425, 61.136186405120462 ], [ 14.654674641911333, 61.136288259235315 ], [ 14.654951904506328, 61.136474582664988 ] ] } },
{ "type": "Feature", "properties": { "objektidentitet": "942877a6-979f-4f34-9204-d7f255017e38", "skapad": "2026-03-17T21:00:01", "objekttypnr": 1628, "objekttyp": "Traktorväg", "avfartsvag_pafartsvag": null, "cirkulationsplats": null, "bro_och_tunnel": null, "gagata": null, "bussgata": null, "industrivag": null, "gatunamn": null, "vardvagnummer": null, "gastvag1nummer": null, "gastvag2nummer": null, "alternativt_manér": "Ingen information", "vagutforande": "Normal", "skoterkorning_tillaten": "Ingen information", "ruskmarkering": "Ingen information" }, "geometry": { "type": "LineString", "coordinates": [ [ 14.65825794826862, 61.140106532159493 ], [ 14.658907665182365, 61.139930428746432 ], [ 14.659266568792868, 61.139882224301857 ], [ 14.659818584303956, 61.13987951926881 ], [ 14.660468256828507, 61.14004882931561 ] ] } },
{ "type": "Feature", "properties": { "objektidentitet": "4832b05a-baf7-43a6-a2b4-1f85376e83a8", "skapad": "2026-03-17T21:00:01", "objekttypnr": 1628, "objekttyp": "Traktorväg", "avfartsvag_pafartsvag": null, "cirkulationsplats": null, "bro_och_tunnel": null, "gagata": null, "bussgata": null, "industrivag": null, "gatunamn": null, "vardvagnummer": null, "gastvag1nummer": null, "gastvag2nummer": null, "alternativt_manér": "Ingen information", "vagutforande": "Normal", "skoterkorning_tillaten": "Ingen information", "ruskmarkering": "Ingen information" }, "geometry": { "type": "LineString", "coordinates": [ [ 14.661032497957635, 61.137599240401691 ], [ 14.660935079461014, 61.137252973511025 ], [ 14.660726824148519, 61.137071081903464 ] ] } },
{ "type": "Feature", "properties": { "objektidentitet": "76fc164a-fdf7-41a9-b0dc-b33870d83e51", "skapad": "2026-03-17T21:00:01", "objekttypnr": 1628, "objekttyp": "Traktorväg", "avfartsvag_pafartsvag": null, "cirkulationsplats": null, "bro_och_tunnel": null, "gagata": null, "bussgata": null, "industrivag": null, "gatunamn": null, "vardvagnummer": null, "gastvag1nummer": null, "gastvag2nummer": null, "alternativt_manér": "Ingen information", "vagutforande": "Normal", "skoterkorning_tillaten": "Ingen information", "ruskmarkering": "Ingen information" }, "geometry": { "type": "LineString", "coordinates": [ [ 14.661907066849572, 61.13884550970301 ], [ 14.664277145497726, 61.139269578557602 ] ] } },
{ "type": "Feature", "properties": { "objektidentitet": "95010f0d-239b-41a2-980f-c604a07228f9", "skapad": "2026-03-17T21:00:01", "objekttypnr": 1628, "objekttyp": "Traktorväg", "avfartsvag_pafartsvag": null, "cirkulationsplats": null, "bro_och_tunnel": null, "gagata": null, "bussgata": null, "industrivag": null, "gatunamn": null, "vardvagnummer": null, "gastvag1nummer": null, "gastvag2nummer": null, "alternativt_manér": "Ingen information", "vagutforande": "Normal", "skoterkorning_tillaten": "Ingen information", "ruskmarkering": "Ingen information" }, "geometry": { "type": "LineString", "coordinates": [ [ 14.668308566025489, 61.138310743296174 ], [ 14.668677017435513, 61.138411568901979 ], [ 14.669435581947234, 61.13847627771586 ], [ 14.670546624571553, 61.138381111177061 ], [ 14.671095573157331, 61.138236781674188 ], [ 14.672139957283234, 61.138076889906515 ], [ 14.672397132948534, 61.138075043647376 ], [ 14.67317945656386, 61.138165851684057 ], [ 14.673322548687681, 61.13821879793251 ] ] } },
{ "type": "Feature", "properties": { "objektidentitet": "51f50739-58d8-4f0c-abf7-20e8982e9908", "skapad": "2026-03-17T21:00:01", "objekttypnr": 1628, "objekttyp": "Traktorväg", "avfartsvag_pafartsvag": null, "cirkulationsplats": null, "bro_och_tunnel": null, "gagata": null, "bussgata": null, "industrivag": null, "gatunamn": null, "vardvagnummer": null, "gastvag1nummer": null, "gastvag2nummer": null, "alternativt_manér": "Ingen information", "vagutforande": "Normal", "skoterkorning_tillaten": "Ingen information", "ruskmarkering": "Ingen information" }, "geometry": { "type": "LineString", "coordinates": [ [ 14.671234156282834, 61.140523961485108 ], [ 14.671755988956367, 61.140490430222975 ], [ 14.673504473880032, 61.140660444004915 ], [ 14.673684002892333, 61.14061736150768 ], [ 14.674548077787653, 61.140406085124255 ], [ 14.674976145014949, 61.140409861124482 ], [ 14.676099003401667, 61.140545956381906 ] ] } }
]
}
