{
"type": "FeatureCollection",
"name": "orsa_stackmora_3_12_byggnader",
"crs": { "type": "name", "properties": { "name": "urn:ogc:def:crs:OGC:1.3:CRS84" } },
"features": [
{ "type": "Feature", "properties": { "objektidentitet": "cc719052-cd80-423f-a69a-cfa728443640", "versiongiltigfran": "2011-03-21T11:47:31.899Z", "lagesosakerhetplan": 0.6, "lagesosakerhethojd": 1.0, "ursprunglig_organisation": "Lantmäteriet", "objektversion": 1, "objekttypnr": 2066, "objekttyp": "Komplementbyggnad", "insamlingslage": "Takkant", "byggnadsnamn1": null, "byggnadsnamn2": null, "byggnadsnamn3": null, "husnummer": 2.0, "huvudbyggnad": "Nej", "andamal1": "Komplementbyggnad;", "andamal2": null, "andamal3": null, "andamal4": null, "andamal5": null }, "geometry": { "type": "Polygon", "coordinates": [ [ [ 14.664768770409971, 61.134375711726598 ], [ 14.664784125367834, 61.134312689639088 ], [ 14.664704350860088, 61.134308137743105 ], [ 14.664688977083104, 61.134371168753063 ], [ 14.664768770409971, 61.134375711726598 ] ] ] } },
{ "type": "Feature", "properties": { "objektidentitet": "cc7ba188-2664-4a08-b414-4ac6055d7753", "versiongiltigfran": "2011-03-21T11:47:54.311Z", "lagesosakerhetplan": 0.6, "lagesosakerhethojd": 1.0, "ursprunglig_organisation": "Lantmäteriet", "objektversion": 1, "objekttypnr": 2066, "objekttyp": "Komplementbyggnad", "insamlingslage": "Takkant", "byggnadsnamn1": null, "byggnadsnamn2": null, "byggnadsnamn3": null, "husnummer": 4.0, "huvudbyggnad": "Nej", "andamal1": "Komplementbyggnad;", "andamal2": null, "andamal3": null, "andamal4": null, "andamal5": null }, "geometry": { "type": "MultiPolygon", "coordinates": [ [ [ [ 14.66452221003483, 61.13439660249292 ], [ 14.664169030731438, 61.134407208993444 ], [ 14.664178258638707, 61.134478946634516 ], [ 14.664352109223984, 61.134473713003622 ], [ 14.66435871646669, 61.134525140530577 ], [ 14.664538398151342, 61.134522613555454 ], [ 14.66452221003483, 61.13439660249292 ] ] ], [ [ [ 14.664386926761342, 61.134744713721425 ], [ 14.664566239335839, 61.134739331760059 ], [ 14.664542496226144, 61.134554513511411 ], [ 14.664362814854648, 61.134557040283042 ], [ 14.664386926761342, 61.134744713721425 ] ] ] ] } },
{ "type": "Feature", "properties": { "objektidentitet": "902d2bdb-cd65-492f-83fa-d29ed8bd3c7f", "versiongiltigfran": "2011-03-21T11:45:42.640Z", "lagesosakerhetplan": 1.0, "lagesosakerhethojd": 1.5, "ursprunglig_organisation": "Lantmäteriet", "objektversion": 1, "objekttypnr": 2061, "objekttyp": "Bostad", "insamlingslage": "Takkant", "byggnadsnamn1": null, "byggnadsnamn2": null, "byggnadsnamn3": null, "husnummer": 1.0, "huvudbyggnad": "Nej", "andamal1": "Bostad;Småhus friliggande", "andamal2": null, "andamal3": null, "andamal4": null, "andamal5": null }, "geometry": { "type": "MultiPolygon", "coordinates": [ [ [ [ 14.665097389566624, 61.134513652539361 ], [ 14.665090384872945, 61.134514849128372 ], [ 14.665098183682506, 61.134514739411586 ], [ 14.665097389566624, 61.134513652539361 ] ] ], [ [ [ 14.665020310602932, 61.134664800655138 ], [ 14.665187018042211, 61.134636322676137 ], [ 14.665121296213888, 61.134546372503955 ], [ 14.66493568974224, 61.134548983388648 ], [ 14.665020310602932, 61.134664800655138 ] ] ] ] } },
{ "type": "Feature", "properties": { "objektidentitet": "aab4224a-ead2-42a7-b526-975f63c71cc6", "versiongiltigfran": "2011-03-21T11:48:05.777Z", "lagesosakerhetplan": 1.0, "lagesosakerhethojd": 1.5, "ursprunglig_organisation": "Lantmäteriet", "objektversion": 1, "objekttypnr": 2066, "objekttyp": "Komplementbyggnad", "insamlingslage": "Takkant", "byggnadsnamn1": null, "byggnadsnamn2": null, "byggnadsnamn3": null, "husnummer": 3.0, "huvudbyggnad": "Nej", "andamal1": "Komplementbyggnad;", "andamal2": null, "andamal3": null, "andamal4": null, "andamal5": null }, "geometry": { "type": "Polygon", "coordinates": [ [ [ 14.665170464927872, 61.134935395345678 ], [ 14.665294470464801, 61.134889044477497 ], [ 14.665229743347215, 61.134848573994368 ], [ 14.665105756442076, 61.13489492484954 ], [ 14.665170464927872, 61.134935395345678 ] ] ] } },
{ "type": "Feature", "properties": { "objektidentitet": "ddd3f96d-e889-4522-97cf-18c0eaead758", "versiongiltigfran": "2021-09-22T07:38:27.414Z", "lagesosakerhetplan": 0.025, "lagesosakerhethojd": null, "ursprunglig_organisation": "Lantmäteriet", "objektversion": 2, "objekttypnr": 2063, "objekttyp": "Samhällsfunktion", "insamlingslage": "Fasad", "byggnadsnamn1": null, "byggnadsnamn2": null, "byggnadsnamn3": null, "husnummer": 5.0, "huvudbyggnad": "Nej", "andamal1": "Samhällsfunktion;Ospecificerad", "andamal2": null, "andamal3": null, "andamal4": null, "andamal5": null }, "geometry": { "type": "Polygon", "coordinates": [ [ [ 14.66458832359109, 61.13665793490371 ], [ 14.664588559720059, 61.136682947655984 ], [ 14.664623029137006, 61.136682467490459 ], [ 14.664622788697262, 61.136657858728888 ], [ 14.66458832359109, 61.13665793490371 ] ] ] } }
]
}
