{
  "type": "FeatureCollection",
  "features": [
    {
      "type": "Feature",
      "geometry": {
        "type": "Polygon",
        "coordinates": [
          [
            [
              14.668166807935,
              61.135168604292325
            ],
            [
              14.668166835702483,
              61.13515492471933
            ],
            [
              14.668166632003269,
              61.13514124549425
            ],
            [
              14.668166196851294,
              61.13512756753271
            ],
            [
              14.668165530275985,
              61.13511389175019
            ],
            [
              14.668164632322252,
              61.135100219061975
            ],
            [
              14.668163503050502,
              61.13508655038328
            ],
            [
              14.66816214253662,
              61.13507288662895
            ],
            [
              14.668160550871958,
              61.13505922871354
            ],
            [
              14.668158728163359,
              61.13504557755116
            ],
            [
              14.66815667453311,
              61.135031934055526
            ],
            [
              14.66815439011897,
              61.1350182991398
            ],
            [
              14.66815187507413,
              61.1350046737166
            ],
            [
              14.668149129567226,
              61.13499105869789
            ],
            [
              14.668146153782313,
              61.13497745499494
            ],
            [
              14.668142947918865,
              61.13496386351824
            ],
            [
              14.668139512191743,
              61.134950285177524
            ],
            [
              14.668135846831209,
              61.13493672088154
            ],
            [
              14.668131952082875,
              61.13492317153823
            ],
            [
              14.668127828207718,
              61.1349096380544
            ],
            [
              14.668123475482043,
              61.13489612133588
            ],
            [
              14.668118894197477,
              61.134882622287364
            ],
            [
              14.668114084660937,
              61.13486914181234
            ],
            [
              14.668109047194623,
              61.13485568081305
            ],
            [
              14.668103782135978,
              61.13484224019045
            ],
            [
              14.668098289837687,
              61.13482882084415
            ],
            [
              14.668092570667643,
              61.134815423672244
            ],
            [
              14.668086625008913,
              61.13480204957148
            ],
            [
              14.668080453259732,
              61.13478869943692
            ],
            [
              14.668074055833454,
              61.134775374162146
            ],
            [
              14.668067433158543,
              61.134762074638985
            ],
            [
              14.668060585678543,
              61.13474880175755
            ],
            [
              14.668053513852028,
              61.13473555640625
            ],
            [
              14.6680462181526,
              61.134722339471516
            ],
            [
              14.668038699068836,
              61.13470915183798
            ],
            [
              14.66803095710426,
              61.134695994388316
            ],
            [
              14.668022992777315,
              61.13468286800311
            ],
            [
              14.668014806621322,
              61.1346697735609
            ],
            [
              14.668006399184451,
              61.13465671193811
            ],
            [
              14.667997771029675,
              61.13464368400891
            ],
            [
              14.667988922734741,
              61.13463069064526
            ],
            [
              14.667979854892128,
              61.1346177327168
            ],
            [
              14.667970568109002,
              61.13460481109078
            ],
            [
              14.667961063007187,
              61.13459192663203
            ],
            [
              14.667951340223107,
              61.13457908020287
            ],
            [
              14.667941400407765,
              61.1345662726631
            ],
            [
              14.667931244226677,
              61.134553504869956
            ],
            [
              14.667920872359842,
              61.134540777677884
            ],
            [
              14.667910285501693,
              61.134528091938776
            ],
            [
              14.667899484361046,
              61.134515448501624
            ],
            [
              14.667888469661058,
              61.134502848212605
            ],
            [
              14.66787724213918,
              61.134490291915085
            ],
            [
              14.667865802547094,
              61.13447778044939
            ],
            [
              14.667854151650683,
              61.13446531465292
            ],
            [
              14.667842290229963,
              61.134452895359956
            ],
            [
              14.667830219079043,
              61.13444052340171
            ],
            [
              14.667817939006062,
              61.134428199606184
            ],
            [
              14.667805450833137,
              61.13441592479823
            ],
            [
              14.667792755396317,
              61.134403699799336
            ],
            [
              14.667779853545506,
              61.13439152542768
            ],
            [
              14.667766746144435,
              61.13437940249808
            ],
            [
              14.667753434070582,
              61.13436733182187
            ],
            [
              14.66773991821512,
              61.134355314206914
            ],
            [
              14.667726199482857,
              61.13434335045755
            ],
            [
              14.667712278792179,
              61.13433144137444
            ],
            [
              14.667698157074982,
              61.13431958775462
            ],
            [
              14.66768383527661,
              61.13430779039143
            ],
            [
              14.667669314355809,
              61.13429605007444
            ],
            [
              14.66765459528463,
              61.13428436758938
            ],
            [
              14.667639679048392,
              61.13427274371812
            ],
            [
              14.667624566645603,
              61.1342611792386
            ],
            [
              14.667609259087904,
              61.13424967492478
            ],
            [
              14.66759375739998,
              61.13423823154665
            ],
            [
              14.667578062619521,
              61.134226849870046
            ],
            [
              14.667562175797121,
              61.13421553065668
            ],
            [
              14.667546097996237,
              61.13420427466412
            ],
            [
              14.667529830293093,
              61.13419308264571
            ],
            [
              14.66751337377663,
              61.13418195535044
            ],
            [
              14.667496729548407,
              61.1341708935231
            ],
            [
              14.667479898722558,
              61.13415989790389
            ],
            [
              14.667462882425696,
              61.134148969228804
            ],
            [
              14.667445681796833,
              61.134138108229216
            ],
            [
              14.667428297987332,
              61.13412731563201
            ],
            [
              14.667410732160798,
              61.134116592159465
            ],
            [
              14.66739298549302,
              61.13410593852931
            ],
            [
              14.667375059171885,
              61.13409535545448
            ],
            [
              14.667356954397304,
              61.13408484364329
            ],
            [
              14.667338672381119,
              61.134074403799254
            ],
            [
              14.667320214347036,
              61.13406403662105
            ],
            [
              14.66730158153054,
              61.134053742802486
            ],
            [
              14.667282775178798,
              61.1340435230325
            ],
            [
              14.667263796550603,
              61.13403337799507
            ],
            [
              14.667244646916263,
              61.13402330836911
            ],
            [
              14.667225327557528,
              61.13401331482854
            ],
            [
              14.667205839767508,
              61.134003398042196
            ],
            [
              14.66718618485058,
              61.13399355867377
            ],
            [
              14.667166364122297,
              61.13398379738174
            ],
            [
              14.667146378909313,
              61.13397411481935
            ],
            [
              14.66712623054928,
              61.13396451163465
            ],
            [
              14.667105920390771,
              61.133954988470315
            ],
            [
              14.667085449793175,
              61.13394554596365
            ],
            [
              14.667064820126626,
              61.13393618474663
            ],
            [
              14.667044032771885,
              61.13392690544573
            ],
            [
              14.667023089120278,
              61.13391770868198
            ],
            [
              14.66700199057358,
              61.133908595070835
            ],
            [
              14.666980738543927,
              61.13389956522224
            ],
            [
              14.666959334453725,
              61.133890619740505
            ],
            [
              14.66693777973556,
              61.133881759224295
            ],
            [
              14.666916075832077,
              61.13387298426661
            ],
            [
              14.666894224195918,
              61.133864295454664
            ],
            [
              14.666872226289604,
              61.13385569337002
            ],
            [
              14.66685008358544,
              61.13384717858827
            ],
            [
              14.666827797565412,
              61.13383875167934
            ],
            [
              14.666805369721109,
              61.133830413207136
            ],
            [
              14.666782801553593,
              61.13382216372971
            ],
            [
              14.66676009457332,
              61.1338140037992
            ],
            [
              14.666737250300027,
              61.133805933961646
            ],
            [
              14.66671427026265,
              61.1337979547571
            ],
            [
              14.666691155999189,
              61.13379006671959
            ],
            [
              14.666667909056631,
              61.133782270377004
            ],
            [
              14.666644530990846,
              61.1337745662511
            ],
            [
              14.666621023366462,
              61.13376695485746
            ],
            [
              14.666597387756784,
              61.13375943670547
            ],
            [
              14.666573625743679,
              61.13375201229825
            ],
            [
              14.666549738917464,
              61.13374468213271
            ],
            [
              14.66652572887681,
              61.13373744669934
            ],
            [
              14.666501597228628,
              61.13373030648243
            ],
            [
              14.666477345587966,
              61.13372326195979
            ],
            [
              14.666452975577897,
              61.13371631360286
            ],
            [
              14.666428488829416,
              61.13370946187665
            ],
            [
              14.66640388698132,
              61.1337027072397
            ],
            [
              14.666379171680116,
              61.13369605014406
            ],
            [
              14.666354344579894,
              61.13368949103522
            ],
            [
              14.66632940734222,
              61.13368303035216
            ],
            [
              14.666304361636033,
              61.13367666852721
            ],
            [
              14.666279209137533,
              61.13367040598617
            ],
            [
              14.666253951530045,
              61.13366424314811
            ],
            [
              14.666228590503948,
              61.13365818042548
            ],
            [
              14.666203127756527,
              61.13365221822398
            ],
            [
              14.666177564991864,
              61.13364635694268
            ],
            [
              14.666151903920749,
              61.133640596973784
            ],
            [
              14.66612614626054,
              61.133634938702784
            ],
            [
              14.66610029373505,
              61.133629382508325
            ],
            [
              14.666074348074448,
              61.13362392876226
            ],
            [
              14.66604831101513,
              61.13361857782956
            ],
            [
              14.6660221842996,
              61.133613330068336
            ],
            [
              14.665995969676366,
              61.133608185829765
            ],
            [
              14.665969668899818,
              61.1336031454581
            ],
            [
              14.6659432837301,
              61.133598209290696
            ],
            [
              14.66591681593301,
              61.133593377657824
            ],
            [
              14.66589026727987,
              61.13358865088291
            ],
            [
              14.665863639547409,
              61.13358402928223
            ],
            [
              14.665836934517651,
              61.13357951316509
            ],
            [
              14.66581015397778,
              61.13357510283368
            ],
            [
              14.665783299720045,
              61.13357079858321
            ],
            [
              14.665756373541615,
              61.1335666007017
            ],
            [
              14.66572937724448,
              61.13356250947005
            ],
            [
              14.665702312635304,
              61.133558525162094
            ],
            [
              14.665675181525337,
              61.13355464804446
            ],
            [
              14.665647985730272,
              61.13355087837663
            ],
            [
              14.665620727070127,
              61.13354721641085
            ],
            [
              14.665593407369125,
              61.13354366239219
            ],
            [
              14.665566028455576,
              61.1335402165585
            ],
            [
              14.665538592161745,
              61.13353687914038
            ],
            [
              14.665511100323739,
              61.13353365036116
            ],
            [
              14.665483554781382,
              61.133530530436936
            ],
            [
              14.665455957378088,
              61.133527519576496
            ],
            [
              14.665428309960731,
              61.13352461798132
            ],
            [
              14.665400614379553,
              61.13352182584562
            ],
            [
              14.665372872487994,
              61.13351914335621
            ],
            [
              14.665345086142608,
              61.13351657069263
            ],
            [
              14.665317257202915,
              61.13351410802705
            ],
            [
              14.665289387531283,
              61.13351175552427
            ],
            [
              14.665261478992809,
              61.1335095133417
            ],
            [
              14.665233533455188,
              61.133507381629414
            ],
            [
              14.66520555278859,
              61.13350536053008
            ],
            [
              14.665177538865535,
              61.133503450178914
            ],
            [
              14.665149493560763,
              61.13350165070382
            ],
            [
              14.665121418751125,
              61.13349996222519
            ],
            [
              14.665093316315431,
              61.13349838485599
            ],
            [
              14.665065188134347,
              61.133496918701816
            ],
            [
              14.665037036090263,
              61.13349556386076
            ],
            [
              14.665008862067163,
              61.13349432042353
            ],
            [
              14.664980667950491,
              61.13349318847332
            ],
            [
              14.664952455627056,
              61.13349216808588
            ],
            [
              14.664924226984864,
              61.13349125932949
            ],
            [
              14.664895983913025,
              61.13349046226496
            ],
            [
              14.66486772830161,
              61.13348977694562
            ],
            [
              14.664839462041536,
              61.13348920341738
            ],
            [
              14.664811187024414,
              61.13348874171859
            ],
            [
              14.664782905142461,
              61.13348839188014
            ],
            [
              14.664754618288343,
              61.13348815392546
            ],
            [
              14.66472632835506,
              61.13348802787043
            ],
            [
              14.664698037235818,
              61.133488013723586
            ],
            [
              14.664669746823904,
              61.13348811148576
            ],
            [
              14.664641459012552,
              61.133488321150466
            ],
            [
              14.664613175694834,
              61.13348864270368
            ],
            [
              14.664584898763508,
              61.133489076123844
            ],
            [
              14.664556630110912,
              61.133489621382
            ],
            [
              14.664528371628828,
              61.133490278441634
            ],
            [
              14.664500125208358,
              61.13349104725876
            ],
            [
              14.664471892739801,
              61.13349192778195
            ],
            [
              14.664443676112517,
              61.13349291995225
            ],
            [
              14.66441547721481,
              61.13349402370333
            ],
            [
              14.664387297933795,
              61.133495238961245
            ],
            [
              14.664359140155275,
              61.13349656564471
            ],
            [
              14.664331005763621,
              61.13349800366493
            ],
            [
              14.664302896641635,
              61.13349955292566
            ],
            [
              14.664274814670426,
              61.13350121332324
            ],
            [
              14.66424676172929,
              61.133502984746556
            ],
            [
              14.664218739695581,
              61.13350486707704
            ],
            [
              14.664190750444588,
              61.133506860188746
            ],
            [
              14.664162795849402,
              61.133508963948266
            ],
            [
              14.664134877780796,
              61.13351117821483
            ],
            [
              14.664106998107108,
              61.13351350284022
            ],
            [
              14.664079158694095,
              61.13351593766894
            ],
            [
              14.664051361404836,
              61.13351848253799
            ],
            [
              14.664023608099576,
              61.13352113727707
            ],
            [
              14.66399590063563,
              61.13352390170852
            ],
            [
              14.663968240867243,
              61.133526775647375
            ],
            [
              14.663940630645468,
              61.13352975890126
            ],
            [
              14.663913071818047,
              61.13353285127056
            ],
            [
              14.66388556622928,
              61.1335360525483
            ],
            [
              14.66385811571991,
              61.13353936252026
            ],
            [
              14.663830722126992,
              61.13354278096494
            ],
            [
              14.663803387283775,
              61.13354630765353
            ],
            [
              14.663776113019582,
              61.13354994235007
            ],
            [
              14.663748901159677,
              61.13355368481129
            ],
            [
              14.663721753525152,
              61.13355753478674
            ],
            [
              14.66369467193281,
              61.13356149201879
            ],
            [
              14.663667658195022,
              61.133565556242594
            ],
            [
              14.663640714119639,
              61.133569727186135
            ],
            [
              14.66361384150983,
              61.13357400457037
            ],
            [
              14.663587042164007,
              61.133578388108965
            ],
            [
              14.663560317875662,
              61.1335828775086
            ],
            [
              14.663533670433273,
              61.133587472468825
            ],
            [
              14.66350710162018,
              61.13359217268214
            ],
            [
              14.663480613214462,
              61.133596977834
            ],
            [
              14.66345420698882,
              61.133601887602815
            ],
            [
              14.663427884710455,
              61.13360690166004
            ],
            [
              14.663401648140953,
              61.13361201967009
            ],
            [
              14.663375499036169,
              61.133617241290494
            ],
            [
              14.663349439146108,
              61.13362256617177
            ],
            [
              14.663323470214806,
              61.13362799395759
            ],
            [
              14.663297593980205,
              61.1336335242847
            ],
            [
              14.663271812174067,
              61.133639156783005
            ],
            [
              14.663246126521818,
              61.13364489107554
            ],
            [
              14.663220538742461,
              61.1336507267786
            ],
            [
              14.66319505054845,
              61.1336566635016
            ],
            [
              14.66316966364558,
              61.13366270084726
            ],
            [
              14.663144379732863,
              61.133668838411516
            ],
            [
              14.663119200502427,
              61.133675075783664
            ],
            [
              14.663094127639399,
              61.133681412546274
            ],
            [
              14.663069162821792,
              61.13368784827523
            ],
            [
              14.663044307720378,
              61.13369438253989
            ],
            [
              14.663019563998606,
              61.133701014902954
            ],
            [
              14.662994933312463,
              61.13370774492054
            ],
            [
              14.662970417310385,
              61.13371457214227
            ],
            [
              14.662946017633125,
              61.13372149611121
            ],
            [
              14.66292173591366,
              61.13372851636403
            ],
            [
              14.662897573777077,
              61.133735632430934
            ],
            [
              14.66287353284046,
              61.133742843835634
            ],
            [
              14.66284961471279,
              61.13375015009554
            ],
            [
              14.662825820994827,
              61.133757550721675
            ],
            [
              14.662802153279014,
              61.13376504521883
            ],
            [
              14.66277861314936,
              61.13377263308539
            ],
            [
              14.662755202181339,
              61.13378031381356
            ],
            [
              14.662731921941793,
              61.13378808688934
            ],
            [
              14.662708773988802,
              61.133795951792486
            ],
            [
              14.662685759871616,
              61.133803907996686
            ],
            [
              14.662662881130515,
              61.13381195496947
            ],
            [
              14.662640139296734,
              61.13382009217233
            ],
            [
              14.662617535892345,
              61.133828319060676
            ],
            [
              14.66259507243016,
              61.1338366350839
            ],
            [
              14.662572750413624,
              61.13384503968554
            ],
            [
              14.662550571336725,
              61.13385353230304
            ],
            [
              14.66252853668389,
              61.133862112368085
            ],
            [
              14.66250664792988,
              61.13387077930648
            ],
            [
              14.662484906539698,
              61.133879532538195
            ],
            [
              14.662463313968486,
              61.1338883714774
            ],
            [
              14.662441871661432,
              61.13389729553255
            ],
            [
              14.662420581053674,
              61.133906304106425
            ],
            [
              14.662399443570193,
              61.13391539659616
            ],
            [
              14.662378460625732,
              61.13392457239324
            ],
            [
              14.662357633624698,
              61.13393383088353
            ],
            [
              14.66233696396106,
              61.13394317144749
            ],
            [
              14.662316453018262,
              61.13395259345992
            ],
            [
              14.662296102169128,
              61.13396209629033
            ],
            [
              14.662275912775778,
              61.1339716793027
            ],
            [
              14.662255886189518,
              61.133981341855716
            ],
            [
              14.66223602375078,
              61.1339910833027
            ],
            [
              14.662216326788998,
              61.13400090299173
            ],
            [
              14.66219679662254,
              61.134010800265614
            ],
            [
              14.662177434558616,
              61.134020774461966
            ],
            [
              14.662158241893197,
              61.13403082491326
            ],
            [
              14.6621392199109,
              61.134040950946904
            ],
            [
              14.662120369884947,
              61.134051151885174
            ],
            [
              14.662101693077041,
              61.13406142704541
            ],
            [
              14.662083190737295,
              61.13407177573988
            ],
            [
              14.662064864104158,
              61.134082197276086
            ],
            [
              14.662046714404319,
              61.13409269095651
            ],
            [
              14.662028742852627,
              61.13410325607883
            ],
            [
              14.662010950652016,
              61.134113891936046
            ],
            [
              14.661993338993419,
              61.13412459781627
            ],
            [
              14.66197590905569,
              61.134135373003055
            ],
            [
              14.661958662005523,
              61.13414621677526
            ],
            [
              14.661941598997375,
              61.134157128407146
            ],
            [
              14.661924721173396,
              61.13416810716841
            ],
            [
              14.661908029663335,
              61.13417915232437
            ],
            [
              14.661891525584492,
              61.13419026313574
            ],
            [
              14.66187521004161,
              61.13420143885897
            ],
            [
              14.661859084126817,
              61.13421267874607
            ],
            [
              14.661843148919573,
              61.13422398204485
            ],
            [
              14.661827405486555,
              61.13423534799877
            ],
            [
              14.661811854881627,
              61.13424677584719
            ],
            [
              14.661796498145735,
              61.13425826482526
            ],
            [
              14.66178133630687,
              61.134269814164085
            ],
            [
              14.661766370379965,
              61.1342814230907
            ],
            [
              14.66175160136686,
              61.134293090828145
            ],
            [
              14.661737030256212,
              61.13430481659553
            ],
            [
              14.661722658023438,
              61.13431659960815
            ],
            [
              14.661708485630642,
              61.13432843907733
            ],
            [
              14.66169451402657,
              61.13434033421073
            ],
            [
              14.661680744146523,
              61.13435228421223
            ],
            [
              14.661667176912303,
              61.13436428828207
            ],
            [
              14.66165381323216,
              61.13437634561684
            ],
            [
              14.661640654000717,
              61.13438845540958
            ],
            [
              14.661627700098919,
              61.13440061684981
            ],
            [
              14.661614952393979,
              61.13441282912361
            ],
            [
              14.6616024117393,
              61.13442509141361
            ],
            [
              14.661590078974438,
              61.134437402899195
            ],
            [
              14.66157795492504,
              61.13444976275632
            ],
            [
              14.661566040402784,
              61.1344621701578
            ],
            [
              14.661554336205326,
              61.13447462427324
            ],
            [
              14.661542843116251,
              61.134487124269086
            ],
            [
              14.661531561905019,
              61.13449966930877
            ],
            [
              14.66152049332691,
              61.134512258552654
            ],
            [
              14.661509638122972,
              61.134524891158165
            ],
            [
              14.661498997019985,
              61.13453756627989
            ],
            [
              14.661488570730393,
              61.13455028306941
            ],
            [
              14.661478359952266,
              61.13456304067569
            ],
            [
              14.661468365369258,
              61.134575838244814
            ],
            [
              14.661458587650554,
              61.13458867492031
            ],
            [
              14.661449027450825,
              61.13460154984303
            ],
            [
              14.661439685410187,
              61.134614462151276
            ],
            [
              14.661430562154157,
              61.13462741098082
            ],
            [
              14.661421658293612,
              61.134640395465055
            ],
            [
              14.66141297442475,
              61.134653414734935
            ],
            [
              14.661404511129039,
              61.13466646791905
            ],
            [
              14.6613962689732,
              61.134679554143794
            ],
            [
              14.661388248509137,
              61.134692672533355
            ],
            [
              14.661380450273935,
              61.13470582220966
            ],
            [
              14.661372874789803,
              61.13471900229267
            ],
            [
              14.661365522564038,
              61.13473221190021
            ],
            [
              14.661358394089,
              61.13474545014819
            ],
            [
              14.661351489842076,
              61.13475871615057
            ],
            [
              14.661344810285646,
              61.13477200901947
            ],
            [
              14.661338355867056,
              61.13478532786522
            ],
            [
              14.661332127018582,
              61.13479867179637
            ],
            [
              14.661326124157402,
              61.134812039919815
            ],
            [
              14.661320347685576,
              61.13482543134079
            ],
            [
              14.661314797990011,
              61.13483884516308
            ],
            [
              14.661309475442438,
              61.13485228048888
            ],
            [
              14.661304380399386,
              61.13486573641894
            ],
            [
              14.661299513202154,
              61.13487921205264
            ],
            [
              14.6612948741768,
              61.134892706488095
            ],
            [
              14.661290463634106,
              61.13490621882206
            ],
            [
              14.661286281869566,
              61.134919748150196
            ],
            [
              14.661282329163361,
              61.134933293566945
            ],
            [
              14.661278605780343,
              61.134946854165726
            ],
            [
              14.661275111970017,
              61.13496042903891
            ],
            [
              14.661271847966518,
              61.13497401727792
            ],
            [
              14.661268813988608,
              61.134987617973266
            ],
            [
              14.66126601023965,
              61.13500123021467
            ],
            [
              14.661263436907602,
              61.13501485309103
            ],
            [
              14.661261094164997,
              61.135028485690555
            ],
            [
              14.661258982168931,
              61.135042127100796
            ],
            [
              14.66125710106107,
              61.13505577640872
            ],
            [
              14.661255450967609,
              61.13506943270076
            ],
            [
              14.661254031999297,
              61.135083095062875
            ],
            [
              14.661252844251406,
              61.135096762580616
            ],
            [
              14.661251887803731,
              61.1351104343392
            ],
            [
              14.661251162720593,
              61.13512410942353
            ],
            [
              14.661250669050819,
              61.13513778691836
            ],
            [
              14.661250406827753,
              61.13515146590816
            ],
            [
              14.661250376069248,
              61.13516514547743
            ],
            [
              14.661250576777661,
              61.13517882471052
            ],
            [
              14.66125100893986,
              61.13519250269188
            ],
            [
              14.661251672527218,
              61.13520617850599
            ],
            [
              14.661252567495621,
              61.135219851237515
            ],
            [
              14.661253693785467,
              61.135233519971294
            ],
            [
              14.661255051321668,
              61.13524718379244
            ],
            [
              14.66125664001366,
              61.13526084178639
            ],
            [
              14.661258459755414,
              61.135274493039006
            ],
            [
              14.661260510425418,
              61.13528813663653
            ],
            [
              14.661262791886719,
              61.13530177166578
            ],
            [
              14.66126530398691,
              61.13531539721414
            ],
            [
              14.661268046558147,
              61.135329012369574
            ],
            [
              14.661271019417157,
              61.1353426162208
            ],
            [
              14.661274222365256,
              61.135356207857264
            ],
            [
              14.661277655188355,
              61.13536978636924
            ],
            [
              14.661281317656975,
              61.13538335084785
            ],
            [
              14.661285209526275,
              61.13539690038521
            ],
            [
              14.661289330536054,
              61.13541043407434
            ],
            [
              14.661293680410767,
              61.13542395100946
            ],
            [
              14.661298258859556,
              61.13543745028576
            ],
            [
              14.661303065576261,
              61.1354509309997
            ],
            [
              14.661308100239438,
              61.135464392249
            ],
            [
              14.661313362512391,
              61.135477833132605
            ],
            [
              14.661318852043186,
              61.13549125275087
            ],
            [
              14.661324568464668,
              61.135504650205576
            ],
            [
              14.661330511394503,
              61.13551802459996
            ],
            [
              14.661336680435195,
              61.13553137503884
            ],
            [
              14.661343075174107,
              61.135544700628564
            ],
            [
              14.661349695183494,
              61.13555800047723
            ],
            [
              14.661356540020533,
              61.13557127369459
            ],
            [
              14.661363609227351,
              61.135584519392246
            ],
            [
              14.661370902331052,
              61.13559773668357
            ],
            [
              14.661378418843752,
              61.13561092468385
            ],
            [
              14.661386158262614,
              61.13562408251038
            ],
            [
              14.66139412006988,
              61.135637209282436
            ],
            [
              14.6614023037329,
              61.135650304121356
            ],
            [
              14.661410708704175,
              61.13566336615066
            ],
            [
              14.661419334421385,
              61.135676394495995
            ],
            [
              14.66142818030744,
              61.135689388285364
            ],
            [
              14.66143724577051,
              61.13570234664896
            ],
            [
              14.661446530204064,
              61.135715268719444
            ],
            [
              14.661456032986905,
              61.13572815363189
            ],
            [
              14.661465753483228,
              61.135741000523794
            ],
            [
              14.661475691042643,
              61.13575380853524
            ],
            [
              14.66148584500024,
              61.13576657680893
            ],
            [
              14.661496214676617,
              61.13577930449023
            ],
            [
              14.661506799377925,
              61.13579199072716
            ],
            [
              14.661517598395928,
              61.13580463467055
            ],
            [
              14.661528611008032,
              61.13581723547412
            ],
            [
              14.661539836477353,
              61.13582979229434
            ],
            [
              14.66155127405275,
              61.13584230429076
            ],
            [
              14.661562922968882,
              61.13585477062586
            ],
            [
              14.661574782446266,
              61.13586719046517
            ],
            [
              14.661586851691311,
              61.13587956297738
            ],
            [
              14.661599129896391,
              61.135891887334274
            ],
            [
              14.661611616239886,
              61.13590416271092
            ],
            [
              14.661624309886246,
              61.13591638828564
            ],
            [
              14.66163720998603,
              61.1359285632401
            ],
            [
              14.661650315675985,
              61.135940686759355
            ],
            [
              14.661663626079093,
              61.13595275803185
            ],
            [
              14.661677140304624,
              61.13596477624963
            ],
            [
              14.661690857448209,
              61.13597674060819
            ],
            [
              14.661704776591888,
              61.13598865030667
            ],
            [
              14.661718896804176,
              61.13600050454787
            ],
            [
              14.661733217140128,
              61.13601230253831
            ],
            [
              14.661747736641404,
              61.13602404348821
            ],
            [
              14.66176245433632,
              61.136035726611745
            ],
            [
              14.66177736923993,
              61.13604735112682
            ],
            [
              14.661792480354082,
              61.13605891625531
            ],
            [
              14.661807786667481,
              61.13607042122312
            ],
            [
              14.661823287155771,
              61.13608186526005
            ],
            [
              14.661838980781592,
              61.13609324760014
            ],
            [
              14.661854866494647,
              61.13610456748144
            ],
            [
              14.661870943231788,
              61.136115824146216
            ],
            [
              14.661887209917067,
              61.136127016841
            ],
            [
              14.661903665461823,
              61.13613814481653
            ],
            [
              14.661920308764751,
              61.136149207327946
            ],
            [
              14.661937138711968,
              61.13616020363473
            ],
            [
              14.661954154177097,
              61.13617113300082
            ],
            [
              14.661971354021341,
              61.13618199469461
            ],
            [
              14.661988737093559,
              61.13619278798902
            ],
            [
              14.662006302230335,
              61.136203512161565
            ],
            [
              14.662024048256065,
              61.13621416649442
            ],
            [
              14.662041973983033,
              61.13622475027436
            ],
            [
              14.662060078211498,
              61.13623526279294
            ],
            [
              14.66207835972975,
              61.136245703346425
            ],
            [
              14.662096817314223,
              61.136256071236
            ],
            [
              14.662115449729557,
              61.13626636576756
            ],
            [
              14.662134255728681,
              61.1362765862521
            ],
            [
              14.662153234052903,
              61.13628673200538
            ],
            [
              14.662172383432,
              61.13629680234831
            ],
            [
              14.66219170258428,
              61.13630679660676
            ],
            [
              14.662211190216698,
              61.13631671411173
            ],
            [
              14.662230845024919,
              61.13632655419934
            ],
            [
              14.66225066569341,
              61.136336316210915
            ],
            [
              14.662270650895541,
              61.136345999492946
            ],
            [
              14.662290799293661,
              61.13635560339732
            ],
            [
              14.662311109539191,
              61.13636512728107
            ],
            [
              14.662331580272708,
              61.13637457050672
            ],
            [
              14.662352210124055,
              61.136383932442136
            ],
            [
              14.662372997712406,
              61.13639321246062
            ],
            [
              14.662393941646384,
              61.13640240994096
            ],
            [
              14.662415040524136,
              61.13641152426748
            ],
            [
              14.662436292933435,
              61.136420554830096
            ],
            [
              14.662457697451778,
              61.13642950102427
            ],
            [
              14.662479252646465,
              61.136438362251155
            ],
            [
              14.662500957074714,
              61.136447137917585
            ],
            [
              14.662522809283747,
              61.13645582743606
            ],
            [
              14.662544807810894,
              61.136464430225
            ],
            [
              14.662566951183681,
              61.136472945708476
            ],
            [
              14.662589237919937,
              61.13648137331644
            ],
            [
              14.662611666527892,
              61.13648971248475
            ],
            [
              14.662634235506273,
              61.136497962655206
            ],
            [
              14.662656943344412,
              61.13650612327553
            ],
            [
              14.66267978852233,
              61.1365141937994
            ],
            [
              14.662702769510869,
              61.13652217368663
            ],
            [
              14.662725884771755,
              61.13653006240304
            ],
            [
              14.662749132757742,
              61.13653785942048
            ],
            [
              14.662772511912685,
              61.13654556421709
            ],
            [
              14.662796020671657,
              61.13655317627705
            ],
            [
              14.662819657461052,
              61.13656069509082
            ],
            [
              14.662843420698687,
              61.136568120155125
            ],
            [
              14.66286730879392,
              61.13657545097286
            ],
            [
              14.662891320147736,
              61.136582687053334
            ],
            [
              14.662915453152875,
              61.13658982791213
            ],
            [
              14.662939706193924,
              61.136596873071234
            ],
            [
              14.662964077647437,
              61.13660382205905
            ],
            [
              14.662988565882033,
              61.13661067441038
            ],
            [
              14.663013169258512,
              61.13661742966656
            ],
            [
              14.663037886129963,
              61.136624087375345
            ],
            [
              14.663062714841875,
              61.13663064709106
            ],
            [
              14.663087653732246,
              61.136637108374586
            ],
            [
              14.6631127011317,
              61.13664347079344
            ],
            [
              14.663137855363587,
              61.136649733921665
            ],
            [
              14.663163114744107,
              61.13665589734
            ],
            [
              14.66318847758241,
              61.13666196063587
            ],
            [
              14.663213942180738,
              61.13666792340341
            ],
            [
              14.663239506834492,
              61.13667378524342
            ],
            [
              14.66326516983239,
              61.13667954576351
            ],
            [
              14.663290929456561,
              61.13668520457806
            ],
            [
              14.663316783982658,
              61.13669076130827
            ],
            [
              14.663342731679979,
              61.13669621558217
            ],
            [
              14.663368770811585,
              61.13670156703463
            ],
            [
              14.663394899634413,
              61.136706815307384
            ],
            [
              14.66342111639939,
              61.13671196004913
            ],
            [
              14.663447419351563,
              61.13671700091551
            ],
            [
              14.663473806730192,
              61.136721937569
            ],
            [
              14.663500276768897,
              61.13672676967919
            ],
            [
              14.663526827695753,
              61.136731496922586
            ],
            [
              14.663553457733421,
              61.13673611898271
            ],
            [
              14.66358016509926,
              61.13674063555019
            ],
            [
              14.66360694800546,
              61.13674504632266
            ],
            [
              14.663633804659145,
              61.13674935100485
            ],
            [
              14.663660733262494,
              61.13675354930864
            ],
            [
              14.663687732012878,
              61.13675764095293
            ],
            [
              14.66371479910297,
              61.1367616256638
            ],
            [
              14.663741932720853,
              61.13676550317457
            ],
            [
              14.663769131050172,
              61.136769273225624
            ],
            [
              14.663796392270223,
              61.13677293556462
            ],
            [
              14.663823714556099,
              61.136776489946385
            ],
            [
              14.663851096078803,
              61.13677993613291
            ],
            [
              14.663878535005363,
              61.13678327389361
            ],
            [
              14.663906029498971,
              61.13678650300498
            ],
            [
              14.663933577719098,
              61.13678962325085
            ],
            [
              14.663961177821605,
              61.13679263442238
            ],
            [
              14.663988827958894,
              61.136795536317976
            ],
            [
              14.664016526280003,
              61.136798328743374
            ],
            [
              14.664044270930754,
              61.13680101151164
            ],
            [
              14.66407206005385,
              61.136803584443214
            ],
            [
              14.66409989178904,
              61.136806047365795
            ],
            [
              14.664127764273193,
              61.13680840011457
            ],
            [
              14.664155675640469,
              61.136810642532026
            ],
            [
              14.66418362402241,
              61.13681277446802
            ],
            [
              14.66421160754809,
              61.13681479577983
            ],
            [
              14.664239624344217,
              61.13681670633221
            ],
            [
              14.664267672535285,
              61.136818505997205
            ],
            [
              14.66429575024367,
              61.136820194654355
            ],
            [
              14.664323855589789,
              61.136821772190615
            ],
            [
              14.664351986692193,
              61.13682323850039
            ],
            [
              14.664380141667708,
              61.136824593485485
            ],
            [
              14.664408318631576,
              61.13682583705523
            ],
            [
              14.664436515697547,
              61.13682696912638
            ],
            [
              14.66446473097804,
              61.136827989623136
            ],
            [
              14.66449296258425,
              61.13682889847717
            ],
            [
              14.664521208626272,
              61.13682969562768
            ],
            [
              14.664549467213243,
              61.13683038102128
            ],
            [
              14.664577736453452,
              61.13683095461206
            ],
            [
              14.664606014454478,
              61.13683141636167
            ],
            [
              14.664634299323318,
              61.136831766239176
            ],
            [
              14.664662589166502,
              61.13683200422115
            ],
            [
              14.664690882090229,
              61.13683213029167
            ],
            [
              14.664719176200492,
              61.13683214444229
            ],
            [
              14.664747469603208,
              61.136832046672076
            ],
            [
              14.664775760404334,
              61.13683183698756
            ],
            [
              14.664804046710007,
              61.13683151540277
            ],
            [
              14.66483232662666,
              61.136831081939285
            ],
            [
              14.664860598261162,
              61.13683053662604
            ],
            [
              14.66488885972093,
              61.13682987949958
            ],
            [
              14.664917109114063,
              61.13682911060393
            ],
            [
              14.66494534454947,
              61.13682822999053
            ],
            [
              14.664973564136996,
              61.13682723771828
            ],
            [
              14.665001765987542,
              61.13682613385372
            ],
            [
              14.665029948213204,
              61.136824918470644
            ],
            [
              14.665058108927393,
              61.136823591650426
            ],
            [
              14.665086246244947,
              61.136822153481944
            ],
            [
              14.665114358282286,
              61.13682060406143
            ],
            [
              14.665142443157515,
              61.136818943492614
            ],
            [
              14.665170498990566,
              61.13681717188665
            ],
            [
              14.665198523903308,
              61.13681528936216
            ],
            [
              14.665226516019684,
              61.13681329604512
            ],
            [
              14.66525447346583,
              61.13681119206902
            ],
            [
              14.665282394370212,
              61.136808977574674
            ],
            [
              14.665310276863737,
              61.13680665271032
            ],
            [
              14.665338119079886,
              61.136804217631614
            ],
            [
              14.665365919154835,
              61.136801672501555
            ],
            [
              14.665393675227595,
              61.136799017490524
            ],
            [
              14.665421385440101,
              61.13679625277624
            ],
            [
              14.665449047937383,
              61.136793378543786
            ],
            [
              14.665476660867649,
              61.136790394985596
            ],
            [
              14.665504222382436,
              61.13678730230135
            ],
            [
              14.665531730636724,
              61.13678410069811
            ],
            [
              14.665559183789055,
              61.136780790390205
            ],
            [
              14.66558658000167,
              61.13677737159921
            ],
            [
              14.665613917440613,
              61.136773844553986
            ],
            [
              14.665641194275873,
              61.136770209490685
            ],
            [
              14.665668408681489,
              61.136766466652595
            ],
            [
              14.665695558835694,
              61.1367626162903
            ],
            [
              14.665722642921011,
              61.136758658661535
            ],
            [
              14.665749659124394,
              61.13675459403126
            ],
            [
              14.665776605637346,
              61.13675042267153
            ],
            [
              14.665803480656026,
              61.13674614486162
            ],
            [
              14.665830282381396,
              61.13674176088788
            ],
            [
              14.665857009019318,
              61.13673727104378
            ],
            [
              14.66588365878068,
              61.13673267562988
            ],
            [
              14.665910229881531,
              61.13672797495381
            ],
            [
              14.66593672054317,
              61.13672316933026
            ],
            [
              14.665963128992304,
              61.13671825908089
            ],
            [
              14.66598945346113,
              61.136713244534434
            ],
            [
              14.666015692187468,
              61.13670812602659
            ],
            [
              14.666041843414899,
              61.13670290389992
            ],
            [
              14.666067905392842,
              61.13669757850411
            ],
            [
              14.666093876376706,
              61.136692150195586
            ],
            [
              14.666119754627994,
              61.136686619337745
            ],
            [
              14.66614553841441,
              61.13668098630084
            ],
            [
              14.666171226009993,
              61.13667525146194
            ],
            [
              14.666196815695224,
              61.13666941520492
            ],
            [
              14.666222305757136,
              61.13666347792054
            ],
            [
              14.666247694489437,
              61.1366574400062
            ],
            [
              14.666272980192618,
              61.13665130186613
            ],
            [
              14.66629816117408,
              61.13664506391117
            ],
            [
              14.666323235748221,
              61.136638726558914
            ],
            [
              14.666348202236577,
              61.136632290233635
            ],
            [
              14.66637305896792,
              61.136625755366154
            ],
            [
              14.66639780427837,
              61.13661912239392
            ],
            [
              14.666422436511512,
              61.13661239176097
            ],
            [
              14.666446954018502,
              61.13660556391787
            ],
            [
              14.666471355158178,
              61.13659863932166
            ],
            [
              14.66649563829717,
              61.13659161843589
            ],
            [
              14.666519801810017,
              61.13658450173056
            ],
            [
              14.666543844079259,
              61.136577289682045
            ],
            [
              14.666567763495568,
              61.136569982773146
            ],
            [
              14.666591558457831,
              61.13656258149301
            ],
            [
              14.666615227373278,
              61.136555086337054
            ],
            [
              14.66663876865757,
              61.13654749780704
            ],
            [
              14.666662180734932,
              61.13653981641094
            ],
            [
              14.666685462038224,
              61.13653204266292
            ],
            [
              14.666708611009074,
              61.13652417708342
            ],
            [
              14.666731626097972,
              61.13651622019893
            ],
            [
              14.666754505764368,
              61.13650817254209
            ],
            [
              14.66677724847678,
              61.13650003465164
            ],
            [
              14.666799852712904,
              61.13649180707231
            ],
            [
              14.666822316959708,
              61.136483490354884
            ],
            [
              14.66684463971353,
              61.13647508505607
            ],
            [
              14.666866819480187,
              61.13646659173852
            ],
            [
              14.666888854775067,
              61.136458010970806
            ],
            [
              14.666910744123243,
              61.13644934332727
            ],
            [
              14.666932486059546,
              61.13644058938819
            ],
            [
              14.666954079128686,
              61.13643174973954
            ],
            [
              14.66697552188535,
              61.136422824973025
            ],
            [
              14.666996812894274,
              61.13641381568611
            ],
            [
              14.66701795073037,
              61.13640472248184
            ],
            [
              14.667038933978803,
              61.13639554596894
            ],
            [
              14.667059761235084,
              61.13638628676164
            ],
            [
              14.667080431105171,
              61.136376945479824
            ],
            [
              14.667100942205572,
              61.13636752274874
            ],
            [
              14.667121293163417,
              61.136358019199164
            ],
            [
              14.667141482616556,
              61.13634843546728
            ],
            [
              14.667161509213663,
              61.136338772194584
            ],
            [
              14.66718137161432,
              61.13632903002792
            ],
            [
              14.667201068489083,
              61.13631920961948
            ],
            [
              14.667220598519616,
              61.13630931162661
            ],
            [
              14.667239960398744,
              61.136299336711886
            ],
            [
              14.667259152830555,
              61.13628928554301
            ],
            [
              14.667278174530477,
              61.13627915879276
            ],
            [
              14.667297024225379,
              61.13626895713911
            ],
            [
              14.667315700653637,
              61.13625868126485
            ],
            [
              14.667334202565243,
              61.13624833185794
            ],
            [
              14.667352528721862,
              61.136237909611054
            ],
            [
              14.667370677896935,
              61.13622741522194
            ],
            [
              14.667388648875749,
              61.136216849392994
            ],
            [
              14.667406440455528,
              61.136206212831546
            ],
            [
              14.667424051445506,
              61.13619550624959
            ],
            [
              14.667441480667003,
              61.13618473036379
            ],
            [
              14.66745872695352,
              61.13617388589547
            ],
            [
              14.6674757891508,
              61.13616297357054
            ],
            [
              14.667492666116916,
              61.13615199411946
            ],
            [
              14.667509356722343,
              61.13614094827721
            ],
            [
              14.667525859850032,
              61.13612983678312
            ],
            [
              14.667542174395491,
              61.13611866038103
            ],
            [
              14.667558299266847,
              61.13610741981905
            ],
            [
              14.66757423338494,
              61.13609611584959
            ],
            [
              14.667589975683365,
              61.136084749229326
            ],
            [
              14.667605525108579,
              61.1360733207191
            ],
            [
              14.667620880619939,
              61.136061831083964
            ],
            [
              14.66763604118979,
              61.13605028109296
            ],
            [
              14.66765100580353,
              61.13603867151923
            ],
            [
              14.667665773459676,
              61.13602700313992
            ],
            [
              14.66768034316994,
              61.13601527673605
            ],
            [
              14.667694713959271,
              61.13600349309256
            ],
            [
              14.66770888486595,
              61.13599165299824
            ],
            [
              14.667722854941639,
              61.13597975724562
            ],
            [
              14.66773662325144,
              61.13596780663099
            ],
            [
              14.66775018887397,
              61.13595580195428
            ],
            [
              14.667763550901414,
              61.135943744019016
            ],
            [
              14.667776708439591,
              61.135931633632374
            ],
            [
              14.667789660608003,
              61.13591947160497
            ],
            [
              14.667802406539913,
              61.1359072587509
            ],
            [
              14.667814945382382,
              61.13589499588765
            ],
            [
              14.667827276296343,
              61.13588268383604
            ],
            [
              14.667839398456644,
              61.13587032342021
            ],
            [
              14.667851311052118,
              61.13585791546752
            ],
            [
              14.667863013285617,
              61.13584546080853
            ],
            [
              14.667874504374083,
              61.13583296027692
            ],
            [
              14.667885783548595,
              61.13582041470939
            ],
            [
              14.667896850054419,
              61.13580782494577
            ],
            [
              14.667907703151057,
              61.13579519182869
            ],
            [
              14.6679183421123,
              61.135782516203825
            ],
            [
              14.667928766226272,
              61.13576979891959
            ],
            [
              14.667938974795481,
              61.13575704082723
            ],
            [
              14.667948967136875,
              61.13574424278079
            ],
            [
              14.667958742581867,
              61.135731405636804
            ],
            [
              14.667968300476387,
              61.135718530254636
            ],
            [
              14.667977640180943,
              61.13570561749607
            ],
            [
              14.667986761070644,
              61.13569266822542
            ],
            [
              14.66799566253524,
              61.135679683309476
            ],
            [
              14.668004343979183,
              61.13566666361738
            ],
            [
              14.668012804821645,
              61.13565361002059
            ],
            [
              14.668021044496573,
              61.135640523392894
            ],
            [
              14.668029062452712,
              61.13562740461022
            ],
            [
              14.668036858153663,
              61.13561425455068
            ],
            [
              14.66804443107789,
              61.13560107409448
            ],
            [
              14.66805178071878,
              61.13558786412384
            ],
            [
              14.668058906584667,
              61.135574625523006
            ],
            [
              14.66806580819886,
              61.13556135917805
            ],
            [
              14.668072485099684,
              61.135548065977
            ],
            [
              14.668078936840507,
              61.13553474680961
            ],
            [
              14.66808516298977,
              61.13552140256736
            ],
            [
              14.668091163131015,
              61.1355080341435
            ],
            [
              14.66809693686291,
              61.135494642432796
            ],
            [
              14.668102483799283,
              61.13548122833165
            ],
            [
              14.66810780356914,
              61.13546779273788
            ],
            [
              14.668112895816702,
              61.13545433655083
            ],
            [
              14.66811776020141,
              61.13544086067113
            ],
            [
              14.668122396397964,
              61.13542736600081
            ],
            [
              14.668126804096335,
              61.13541385344312
            ],
            [
              14.668130983001797,
              61.13540032390249
            ],
            [
              14.668134932834928,
              61.13538677828452
            ],
            [
              14.66813865333165,
              61.13537321749585
            ],
            [
              14.668142144243228,
              61.135359642444165
            ],
            [
              14.668145405336304,
              61.13534605403809
            ],
            [
              14.668148436392896,
              61.135332453187154
            ],
            [
              14.66815123721042,
              61.13531884080167
            ],
            [
              14.668153807601705,
              61.13530521779279
            ],
            [
              14.668156147395006,
              61.13529158507234
            ],
            [
              14.668158256434015,
              61.13527794355278
            ],
            [
              14.668160134577862,
              61.13526429414723
            ],
            [
              14.668161781701135,
              61.135250637769225
            ],
            [
              14.668163197693891,
              61.13523697533285
            ],
            [
              14.66816438246165,
              61.13522330775256
            ],
            [
              14.668165335925417,
              61.13520963594317
            ],
            [
              14.66816605802167,
              61.13519596081978
            ],
            [
              14.668166548702377,
              61.13518228329769
            ],
            [
              14.668166807935,
              61.135168604292325
            ]
          ]
        ]
      },
      "properties": {
        "name": "ORSA STACKMORA 3:12 enclosing circle",
        "source": "data\\orsa_stackmora_3_12_workarea.geojson",
        "method": "minimum enclosing circle in EPSG:3006 plus margin",
        "radius_m": 186.25,
        "diameter_m": 372.5,
        "margin_m": 10.0,
        "center_lon": 14.664708606,
        "center_lat": 61.135160079,
        "center_x_3006": 481942.645,
        "center_y_3006": 6777888.516,
        "role": "coverage_circle",
        "stroke": "#0066ff",
        "stroke-width": 2,
        "fill": "#0066ff",
        "fill-opacity": 0.08
      }
    },
    {
      "type": "Feature",
      "geometry": {
        "type": "MultiPolygon",
        "coordinates": [
          [
            [
              [
                14.664872233,
                61.133579762
              ],
              [
                14.66390908,
                61.134531463
              ],
              [
                14.665611989,
                61.13450751
              ],
              [
                14.665682403,
                61.134477132
              ],
              [
                14.665288153,
                61.134024331
              ],
              [
                14.665649732,
                61.133719199
              ],
              [
                14.664872233,
                61.133579762
              ]
            ]
          ],
          [
            [
              [
                14.664136665,
                61.135266072
              ],
              [
                14.664259572,
                61.135148579
              ],
              [
                14.664338691,
                61.135094316
              ],
              [
                14.664543441,
                61.134968362
              ],
              [
                14.665535363,
                61.134540547
              ],
              [
                14.663876279,
                61.134563881
              ],
              [
                14.663559524,
                61.13487685
              ],
              [
                14.664064922,
                61.135389697
              ],
              [
                14.664136665,
                61.135266072
              ]
            ]
          ],
          [
            [
              [
                14.666859266,
                61.136182487
              ],
              [
                14.666120137,
                61.135453822
              ],
              [
                14.665302072,
                61.134737491
              ],
              [
                14.665276871,
                61.134748337
              ],
              [
                14.664886612,
                61.134914537
              ],
              [
                14.66465251,
                61.135017454
              ],
              [
                14.664457797,
                61.13513722
              ],
              [
                14.664387169,
                61.135185659
              ],
              [
                14.664275705,
                61.135292219
              ],
              [
                14.664236515,
                61.13535976
              ],
              [
                14.664209089,
                61.135407032
              ],
              [
                14.664166844,
                61.135576895
              ],
              [
                14.664189033,
                61.135748265
              ],
              [
                14.664279415,
                61.135985413
              ],
              [
                14.664384098,
                61.136224106
              ],
              [
                14.664461767,
                61.136443348
              ],
              [
                14.664461696,
                61.136553371
              ],
              [
                14.664544963,
                61.136740396
              ],
              [
                14.666678187,
                61.136227882
              ],
              [
                14.666859266,
                61.136182487
              ]
            ]
          ]
        ]
      },
      "properties": {
        "designation": "ORSA STACKMORA 3:12 (1)(2)(3)",
        "technicalDesignation": "ORSA STACKMORA 3:12>1..3",
        "centroidWkt": "POINT(14.665062194437354 61.13531072315907)",
        "areaSqm": 29099.44,
        "source": "miljobeslut-postgis",
        "name": "ORSA STACKMORA 3:12 fastighetsgräns",
        "role": "property_boundary",
        "stroke": "#ff0000",
        "stroke-width": 3,
        "fill": "#ff0000",
        "fill-opacity": 0.0
      }
    }
  ]
}