{
  "type": "FeatureCollection",
  "name": "orsa_stackmora_3_12_tower_site",
  "features": [
    {
      "type": "Feature",
      "geometry": {
        "type": "Point",
        "coordinates": [
          14.665000888999685,
          61.133607498854104
        ]
      },
      "properties": {
        "name": "Tornplats - hogsta punkt",
        "role": "tower_site",
        "source": "data/orsa_stackmora_3_12_markhojd.tif",
        "basis": "Highest valid elevation cell inside property workarea.",
        "longitude": 14.665000888999685,
        "latitude": 61.133607498854104,
        "elevation_m": 250.89999389648438,
        "sweref99_tm_easting": 481957.5,
        "sweref99_tm_northing": 6777715.5
      }
    }
  ]
}